X,Y,amenity,name,name:en,cuisine,addr:street,addr:postcode,internet_access,opening_hours,addr:city,name:mk,smoking,outdoor_seating,addr:housenumber,int_name,phone,takeaway,website,wheelchair,operator,addr:country,internet_access:fee,email,name:sq,addr:city:en,addr:street:en,drive_in,addr:housename,microbrewery,organic,delivery
21.4448074,41.9728434,cafe,Гет Кафе,Get caffe,,Христо Татарчев,1000,,Mo-Su 10:00-00:00,,Гет Кафе,,,,,,,,,,,,,,,,,,,,
21.4385091,41.9787578,restaurant,Ресторан Кум,,,,,,,,,,,,,,,,,,,,,,,,,,,,
21.4440848,41.9754573,bar,Игротека Смајли,,,,,,,,,,,,,,,,,,,,,,,,,,,,
21.4438183,41.9768256,restaurant,Журнал,,,,,,,,,,,,,,,,,,,,,,,,,,,,
21.4444199,41.9768128,cafe,63,,,,,,,,,,,,,,,,,,,,,,,,,,,,
21.4455687,41.9710708,restaurant,Ресторан Трпеза,,,,,,,,,,,,,,,,,,,,,,,,,,,,
21.4456656,41.9732771,cafe,Bass Cafe,,,,,yes,,,,,,,,,,,,,,,,,,,,,,,
21.446234,41.9734649,cafe,Quatro Caffe,,,,,yes,,,,,,,,,,,,,,,,,,,,,,,
21.4456487,41.9775109,restaurant,Ексклузив,,,,,,,,,,,,,,,,,,,,,,,,,,,,
21.3943158,41.9651051,cafe,,,,,,,,,,yes,yes,,,,,,,,,,,,,,,,,,
21.4212497,41.9495659,restaurant,Мулино Гарден,,,,,,,,,,,,,,,,,,,,,,,,,,,,
21.3602078,41.9700886,drinking_water,,,,,,,,,,,,,,,,,,,,,,,,,,,,,
21.3909369,41.9751093,drinking_water,,,,,,,,,,,,,,,,,,,,,,,,,,,,,
21.4093282,41.9748528,restaurant,бимекс,,regional,,,yes,9:00-24:00,,,no,,,,,,,limited,,,no,,,,,,,,,
20.7206671,40.9030442,restaurant,Kashta,,,,,,,,,,,,,,,,,,,,,,,,,,,,
20.7208697,40.9031428,restaurant,Dallga,,,,,,,,,,,,,,,,,,,,,,,,,,,,
20.7212838,40.9031754,restaurant,Sirena,,,,,,,,,,,,,,,,,,,,,,,,,,,,
20.7404516,40.9138853,drinking_water,,,,,,,,,,,,,,,,,,,,,,,,,,,,,
20.7410279,40.9141308,restaurant,,St. Nahum,,,,,,,,,,,,,,,,,,,,,,,,,,,
20.7413464,40.9142257,drinking_water,,,,,,,,,,,,,,,,,,,,,,,,,,,,,
20.7422487,40.9145968,bar,,,,,,,,,,,,,,,,,,,,,,,,,,,,,
20.742799,40.9147002,restaurant,,,,,,,,,,,,,,,,,,,,,,,,,,,,,
20.7430881,40.9146267,restaurant,,,,,,,,,,,,,,,,,,,,,,,,,,,,,
20.7458417,40.9154158,restaurant,,,,,,,,,,,,,,,,,,,,,,,,,,,,,
20.7698618,40.9158924,cafe,,,,,,,,,,,,,,,,,,,,,,,,,,,,,
20.771611,40.9180328,cafe,,,,,,,,,,,,,,,,,,,,,,,,,,,,,
20.772037,40.9188013,cafe,,,,,,wlan,,,,,,,,,,,,,,,,,,,,,,,
20.7733609,40.9255638,cafe,,,regional;burger,,,no,,,,separated,,,,,,,,,,,,,,,,,,,
20.9144193,40.9390733,restaurant,Beach Bar Mystic,,,,,,,,,,,,,,,,,,,,,,,,,,,,
20.915975,40.9383195,bar,Beach Summer Club Bar Delirium,,,,,,,,,,,,,,,,,,,,,,,,,,,,
20.7819982,40.9615847,restaurant,St. Tropez,,,,,,,,,,,,,,,,,,,,,,,,,,,,
20.7820426,40.9615088,restaurant,,,,,,,,,,,,,,,,,,,,,,,,,,,,,
20.7824024,40.9617356,restaurant,Mermaid Terrace,,,,,,,,,,,,,,,,,,,,,,,,,,,,
20.7833664,40.9621226,restaurant,Saint Tropez,,,,,,,,,,,,,,,,,,,,,,,,,,,,
20.8146854,40.9671526,drinking_water,KORITA,,,,,,,,,,,,,,,,,,,,,,,,,,,,
20.8147337,40.9673493,bbq,,,,,,,,,,,,,,,,,,,,,,,,,,,,,
20.9215793,40.8831747,restaurant,Restaurant Vasili,,,,,,,,,,,,,,,,,,,,,,,,,,,,
22.7736839,41.963414,restaurant,Gostilnica Zvon-Trejd,Kaj Moco,,,,wlan,,,,,,,,,,,,,,,,,,,,,,,
22.772658,41.9641901,restaurant,Ресторан Трла,Restaurant Trla,,,,,,,,,,,,,,,,,,,,,,,,,,,
22.7723271,41.965006,drinking_water,Фонтана,Drinking Water,,,,,,,,,,,,,,,,,,,,,,,,,,,
22.7727088,41.9645865,drinking_water,Фонтана,Drinking Water,,,,,,,,,,,,,,,,,,,,,,,,,,,
22.7710179,41.9653589,drinking_water,Фонтана,Drinking Water,,,,,,,,,,,,,,,,,,,,,,,,,,,
22.7714652,41.9655104,restaurant,Пицерија Палма,Pizza bar Palma,pizza,Маршал Тито,2320,wlan,,Делчево,,,,б.б.,,,,,,,,,,,,,,,,,
22.7725965,41.9663868,drinking_water,Фонтана,Drinking Water,,,,,,,,,,,,,,,,,,,,,,,,,,,
22.7729809,41.9663111,restaurant,Пицерија Iceberg,Pizza bar - Iceberg,,,,,,,,,,,,,,,,,,,,,,,,,,,
22.7733594,41.9652916,drinking_water,Фонтана,Drinking Water,,,,,,,,,,,,,,,,,,,,,,,,,,,
22.7742657,41.9654757,restaurant,Две Липи,Dve Lipi,,бул. Методи Митевски Брицо,2320,,,Делчево,,,yes,6,,,,https://www.facebook.com/meanadvelipi/,,,,,,,,,,,,,
22.7727421,41.9665628,restaurant,Антика,Antika,,,,,,,,,,,,,,,,,,,,,,,,,,,
22.7732345,41.9664629,restaurant,Вигор,Vigor,,,,,,,,,,,,,,,,,,,,,,,,,,,
22.7738953,41.9665385,bar,Sky Coffee,Sky Coffee,,Светозар Марковски,2320,,,Делчево,,outside,,б.б.,,,,,,,,,,,,,,,,,
22.7743723,41.9671309,restaurant,Кај Бубето,Kaj Bubeto,,Н. Ј. Вапцаров,2320,,,Делчево,,,,,,,,,,,,,,,,,,,,,
22.7775508,41.9621106,drinking_water,,,,,,,,,,,,,,,,,,,,,,,,,,,,,
22.7756064,41.9663251,drinking_water,Фонтана,Drinking Water,,,,,,,,,,,,,,,,,,,,,,,,,,,
22.7756155,41.9667157,restaurant,Панорама,Pizza bar Panorama,pizza,Н. Ј. Вапцаров,2320,,,Делчево,,,,,,,,,,,,,,,,,,,,,
22.7757541,41.9669895,bar,Apolon,Apolon,,Н. Ј. Вапцаров,2320,,,Делчево,,outside,,,,,,,,,,,,,,,,,,,
22.7757929,41.9669685,cafe,Apolon,Apolon,,Н. Ј. Вапцаров,2320,,,Делчево,,,,,,,,,,,,,,,,,,,,,
22.775975,41.9670002,restaurant,Ресторан Либеро,Restaurant Libero,regional,Н. Ј. Вапцаров,2320,,,Делчево,,outside,,,,,,,,,,,,,,,,,,,
22.7765278,41.9665702,fast_food,Анкет,Anket,sandwich,бул. Методи Митевски Брицо,2320,,,Делчево,,,,,,,,,,,,,,,,,,,,,
22.7771972,41.9664561,fast_food,Сиан,Sian,sandwich,бул. Македонија,2320,,,Делчево,,,,,,,,,,,,,,,,,,,,,
22.7773156,41.9671248,biergarten,Валиум,Valium Coffee,,бул. Македонија,2320,,,Делчево,,,,,,,,,,,,,,,,,,,,,
22.7772992,41.9671423,cafe,Валиум,Valium Coffee,,бул. Македонија,2320,,,Делчево,,,,,,,,,,,,,,,,,,,,,
22.7773408,41.9671407,bar,Валиум,Valium Coffee,,бул. Македонија,2320,,,Делчево,,outside,,,,,,,,,,,,,,,,,,,
22.7774699,41.9661844,fast_food,Буцко - Бурекчилница,Bucko - Burek,Burek,Ленинова,2320,,,Делчево,,,,,,,,,,,,,,,,,,,,,
21.6186125,41.9371686,restaurant,Kaj Dzek,,chicken;kebab;grill;local;balkan,,,wlan,,,,,,,,,,,,,,,,,,,,,,,
21.6274047,41.9608168,cafe,Cafe-inn,,,,,,,,,,,,,,,,,,,,,,,,,,,,
21.626938,41.9612516,fast_food,Burger King,,burger,,,,,,,no,,,,,yes,,yes,,,,,,,,,,,,
21.6276146,41.9610488,cafe,Cakes & Bakes,,sandwich;coffee_shop;cake,,,wlan,24/7,,,outside,yes,,,,yes,,yes,,,no,,,,,,,,,
22.4079546,41.956237,restaurant,,,,,,,,,,,,,,,,,,,,,,,,,,,,,
22.4062744,41.9596507,restaurant,Градче,,regional,,,,,,,,,,Gradče,,,,,,,,,,,,,,,,
22.4072357,41.9639856,restaurant,,,,,,,,,,,,,,,,,,,,,,,,,,,,,
21.4727082,41.9650429,restaurant,Градина,Gradina,,,,,,,,,,,Gradina,,,,,,,,,,,,,,,,
21.5132989,41.9397195,drinking_water,,,,,,,,,,,,,,,,,,,,,,,,,,,,,
21.5153696,41.939101,drinking_water,,,,,,,,,,,,,,,,,,,,,,,,,,,,,
21.5161585,41.9392561,restaurant,,,,,,,,,,,,,,,,,,,,,,,,,,,,,
21.5183709,41.9384565,drinking_water,,,,,,,,,,,,,,,,,,,,,,,,,,,,,
21.5387866,41.9591336,drinking_water,,,,,,,,,,,,,,,,,,,,,,,,,,,,,
21.0571809,40.9721129,restaurant,Proper,Proper,,,,,,,Proper,,,,,,,,,,,,,,,,,,,,
21.13865,40.893731,restaurant,,,,,,,,,,,,,,,,,,,,,,,,,,,,,
21.158328,40.9069447,drinking_water,,,,,,,,,,,,,,,,,,,,,,,,,,,,,
21.1624357,40.9075981,restaurant,Vila Raskrsnica,,local,,,,,,,,,,,,,,,Milka,,,,,,,,,,,
21.1628707,40.9077301,restaurant,,,,,,,,,,,,,,,,,,,,,,,,,,,,,
21.25323,40.9804012,restaurant,,,,,,,,,,,,,,,,,,,,,,,,,,,,,
21.2993843,41.9502955,restaurant,Кањон Матка,,regional,,,,,,,,,,,,,,,,,,,,,,,,,,
21.3042751,41.9518181,drinking_water,,,,,,,,,,,,,,,,,,,,,,,,,,,,,
21.3059402,41.9525587,drinking_water,,,,,,,,,,,,,,,,,,,,,,,,,,,,,
21.2954889,41.9584413,cafe,Fresh,,,,,,,,,,,,,,,,,,,,,,,,,,,,
21.2952909,41.95881,restaurant,,,,,,,,,,,,,,,,,,,,,,,,,,,,,
21.2952137,41.96002,restaurant,Fish Grill (Macedonian Cave Restaurant),,,,,,Mo-Su 09:00-21:00,,,,yes,,,,,,,,,,,,,,,,,,
21.2953055,41.9600725,restaurant,,Macedonian Cave Restaurant FISH,,,,,,,,,,,,,,,,,,,,,,,,,,,
21.2961533,41.9610975,restaurant,Манастирска пештера,,regional,,,,,,,,,,,,,,,,,,,,,,,,,,
20.8636388,41.9439294,bar,Kafe te mullajni,,,,,,,,,,,,,,,,,,,,,,,,,,,,
20.927576,41.9386572,bar,Sinican,,,102,,,,,Sinican,,,,,,,,,,,,,,,,,,,,
20.9266094,41.938956,drinking_water,Voda,,,,,,,,Voda,,,,,,,,,,,,,,,,,,,,
20.9267987,41.9403239,cafe,Sharr 71,Sharr 71,,101,1221,,,,Sharr 71,,,,,,,,,,,,,Sharr 71,,,,,,,
20.9268824,41.9405207,cafe,Cine 501,Cine 501,,101,1221,,,,Cine 501,,,,,,,,,,,,,Cine 501,,,,,,,
20.9270945,41.940898,fast_food,Max Doner,Max Doner,kebab,101,1221,wlan,,,Max Doner,,,,,,,,,,,,,Max Doner,,,,,,,
20.9262185,41.9420491,fast_food,Rinia 97,Rinia 97,,,,,,,Rinia 97,,,,,,,,,,,,,Rinia 97,,,,,,,
20.9277266,41.9427811,cafe,Mujo,Mujo,,,,,,,Mujo,,,,,,,,,,,,,Mujo,,,,,,,
20.9272881,41.9444009,restaurant,Restoran Elita,Restaurant Elita,,101,1221,,,,Restoran Elita,,,,,,,,,,,,,Restoranti Elita,,,,,,,
20.9284227,41.9445205,drinking_water,Voda za pienje,Drinking water,,,,,,,Voda za pienje,,,,,,,,,,,,,Uji i pijeshëm,,,,,,,
20.929929,41.9485098,restaurant,Niki,Niki,,,,,,,Niki,,,,,,,,,,,,,Ëmbëltore NIKI,,,,,,,
21.000334,41.9425223,drinking_water,,,,,,,,,,,,,,,,,,,,,,,,,,,,,
20.9398801,41.976507,restaurant,Nes Komerc,Nes Komerc,,,,,,,Nes Komerc,,,,,,,,,,,,,Nes Komerc,,,,,,,
22.8186239,41.9752689,restaurant,Рибник Воденица,Vodenica Fish Restaurant,seafood,Road Route A3,2320,,08:00 - 00:00,Delchevo,,outside,yes,,,,yes,,,,,,,,,,,,,,yes
22.8201711,41.9759762,drinking_water,Fountain with natural water,,,,,,,,Чешма со природна вода,,,,,,,,,,,,,,,,,,,,
22.8211477,41.9762515,drinking_water,Света вода,Holly Water,,,,,,,,,,,,,,,,,,,,,,,,,,,
21.4565032,41.9729164,restaurant,Тарапана,,,,,,,,,,,,,,,,,,,,,,,,,,,,
21.4820381,41.9782792,restaurant,Ресторан Рагуза 919,Restaurant Ragusa 919,,,,,,,,,,,,,,,,,,,,,,,,,,,
21.4853971,41.9755946,restaurant,1 у 1 (Панда),,,,,,,,,,,,,,,,,,,,,,,,,,,,
21.4059587,42.0015351,fast_food,Вили,,,,,,,,,,,,,,,,,,,,,,,,,,,,
21.4069546,42.0060914,restaurant,Bonimi,Bonimi,regional,Булевар 8-ми Септември,,,Mo-Su 20:00-00:00,,Bonimi,,yes,,,,,https://m.facebook.com/bonimimkd/,,,,,,,,,,,,,
21.4082395,42.0051454,cafe,Cafeteria,,,,,,,,,,,,,,,,,,,,,,,,,,,,
21.4061819,42.0062605,bar,Minus Eden,,,,,,Tu-Sa 00:00-04:00,,,,,,,,,,,,,,,,,,,,,,
21.4063144,42.0062651,restaurant,Барбакан,Barbakan,,Булевар 8-ми Септември,1000,,08:00 - 01:00,Cкoпje,,,yes,18,,,,,,,,,,,,,,,,,
21.403605,42.0092296,cafe,,,,,,,,,,,,,,,,,,,,,,,,,,,,,
21.4073405,42.0114641,drinking_water,,,,,,,,,,,,,,,,,,,,,,,,,,,,,
21.404147,42.0137478,cafe,Coffeeshop Company lounge,Mezzo Coffee & Lounge,local,,,,,,,,,,,,,,,Sistina,,,,,,,,,,,
21.4100468,42.0127048,restaurant,Меана Б Јавор Мрзенци,,,,,,,,,,,,,,,,,,,,,,,,,,,,
21.4117168,42.0131608,restaurant,Фиш,,fish,,,,,,,,,,,,,,,,,,,,,,,,,,
21.4037096,42.0818924,restaurant,Ribimiluss,,pizza,,,,,,,,,,,,,,,,,,,,,,,,,,
21.3979429,42.0034744,fast_food,Tripod King,,asian,,,,,,,,,,,,yes,,,,,,,,,,,,,,
21.3981384,42.0033204,cafe,Prikazna,,,,,,,,,,,,,,,,,,,,,,,,,,,,
21.398346,42.0034224,cafe,Fluid,Fluid,,,,,,,Флуид,,,,,,,,,,,,,,,,,,,,
21.3989291,42.000855,restaurant,Веки,,,Варшавска,,,,,,,,14,,,,,,,,,,,,,,,,,
21.3992299,42.0017742,restaurant,Фотка,,macedonian,,,,,,,,,,,,,,,,,,,,,,,,,,
21.3986571,42.0032279,pub,,,,,,,,,,,,,,,,,,,,,,,,,,,,,
21.3986642,42.0034137,restaurant,Thong Thai,,thai,,,,Sa-Su 10:00-01:00,,,outside,,,,071 661 234,yes,,,Thong Thai,,,,,,,,,,,
21.3991821,42.0034483,cafe,Giovani,Giovani,regional,,,,,,Џовани,,,,,,,,,,,,,,,,,,,,
21.3994796,42.0030494,cafe,Sugarland,,,,,,,,,,,,,,,,,,,,,,,,,,,,
21.3999451,42.0031059,cafe,Мартини,,,,,,,,,,,,,,,,,,,,,,,,,,,,
21.3995191,42.0031464,restaurant,Енрико,,italian,,,,,,,,,,,,,,,,,,,,,,,,,,
21.3995909,42.0034064,restaurant,Ана Кристи,,barbecue,,,,,,,,,,,,,,,,,,,,,,,,,,
21.4000902,42.0029952,fast_food,Foodio,,,,,,,,,,,,,,,,,,,,,,,,,,,,
21.4002154,42.0030463,restaurant,Бабе,,fish,,,,,,,,,,,,,,,,,,,,,,,,,,
21.4001853,42.0031615,restaurant,Буре,,Macedonian,,,,,,,,,,,,,,,,,,,,,,,,,,
21.4005479,42.0031488,fast_food,7,7,,,,,,,7,,,,,,,http://www.7.mk,,,,,,,,,,,,,
21.400699,42.0028979,fast_food,Жужу Бургер,,,,,,,,,,,,,,,,,,,,,,,,,,,,
21.4012616,42.0032708,fast_food,Magic,,,,,,,,,,,,,,,,,,,,,,,,,,,,
21.3970638,42.0038026,cafe,Led Zeppelin,,,,,,,,,,,,,,,,,,,,,,,,,,,,
21.3975417,42.0035286,restaurant,Старо Буре,,international,,,,,,,,,,Staro Bure,,,,,,,,,,,,,,,,
21.4010837,42.0084895,restaurant,бед бунар,,,,,,,,,,,,,,,,,,,,,,,,,,,,
21.4020786,42.0065896,fast_food,Etna,,,,,,,,,,,,,,,,,,,,,,,,,,,,
21.3990452,42.0151641,cafe,Tonnis Bakeri,,,,,wlan,,,,outside,,,,,,,,Tonnish Bakeri,,no,,,,,,,,,
21.4014607,42.0162622,biergarten,ветер и магла бифе,Veter I Magla,,,,,,,,,,,,,,,,,,,,,,,,,,,
21.3488605,42.0308712,fast_food,,,,,,,,,,,,,,,,,,,,,,,,,,,,,
21.3498744,42.030668,fast_food,,,,,,,,,,,,,,,,,,,,,,,,,,,,,
21.3508185,42.0299906,restaurant,Meraklii,,regional,,,,,,,,,,,,,,,,,,,,,,,,,,
21.3479915,42.0313055,cafe,,,,,,,,,,,,,,,,,,,,,,,,,,,,,
21.3482758,42.0316681,fast_food,,,,,,,,,,,,,,,,,,,,,,,,,,,,,
21.3418406,42.0433297,cafe,Makreshanki,,,,,,,,,,,,,,,,,,,,,,,,,,,,
21.3462963,42.0464013,restaurant,Restoran Tomi,,regional,,,,,,,,,,,,,,,,,,,,,,,,,,
21.3465234,42.045674,drinking_water,,,,,,,,,,,,,,,,,,,,,,,,,,,,,
21.3469347,42.0455608,restaurant,,,,,,,,,,,,,,,,,,,,,,,,,,,,,
21.4378942,42.0131776,cafe,Te Flladi,,balkan,Џон Кенеди,1000,wlan,Mo-Su 06:00-02:00,,,,,,,+38978324244,,,,Nazim Sulejmani,,,,,,,,,,,
21.3679919,41.9953546,restaurant,Вила Веранда,Vila Veranda,local,,,,,,,outside,,,,,,,,,,,,,,,,,,,
21.3602983,42.0110921,bar,КАМИН КАМА,Kamin Kama,,Лука Геров,1000,,Mo-Su 10:00-00:00,Скопје,КАМИН КАМА,,,,,,,,,,,,,,,,,,,,
21.3651314,42.0067805,restaurant,,,,,,,,,,,,,,,,,,,,,,,,,,,,,
21.3651275,42.0069568,restaurant,,,,,,,,,,,,,,,,,,,,,,,,,,,,,
21.3678533,42.0084679,restaurant,Ubac,,,Булевар Ѓорче Петров,1000,wlan,,,,,,2,,072555005,,,,,,,,,,,,,,,
21.3688665,42.0078535,bar,Hazard Club,,,,,,,,,,,,,,,,,,,,,,,,,,,,
21.3695897,42.0078102,fast_food,Пинк,Pink,,,,,,,,,,,Pink,,,,,,,,,,,,,,,,
21.3544426,42.0186405,fast_food,,,,,,,,,,,,,,,,,,,,,,,,,,,,,
21.3546974,42.0184891,fast_food,,,,,,,,,,,,,,,,,,,,,,,,,,,,,
21.4342834,41.9932054,drinking_water,,,,,,,,,,,,,,,,,,,,,,,,,,,,,
21.4318165,41.9944177,fast_food,BubbleWaffle's,,waffle,Димитрие Чуповски,1000,,10:00-21:00,Скопје,,,no,2,,+389 78 243 483,yes,https://www.facebook.com/bubblewaffleskopje/,,,,,,,,,,,,,
21.4319604,41.9947506,restaurant,Destan,,kebab,11 Октомври,1000,,08:00-23:00,Скопје,,separated,yes,,,,,,yes,,MK,,,,Skopje,11 Oktomvri,,,,,
21.4317257,41.9950911,restaurant,Ла Тераца,,italian,11 Октомври,1000,,"08:00-24:00, Fr-Sa 08:00-01:00",Скопје,,separated,yes,2,La Terrazza,+389 2 3113380,,,yes,,MK,,,,Skopje,11 Oktomvri,,,,,
21.4324491,41.9950653,cafe,Up Cafe,,,,,,,,,,,,,,,,,,,,,,,,,,,,
21.4342799,41.9943261,restaurant,Кај Џино,Gino,italian,,,,,,,outside,yes,,,+389 2 3121109,,http://www.restorangino.mk/,,,,,contact@restorangino.mk,,,,,,,,
21.4315704,41.9953933,restaurant,Пелистер,Pelister,italian,Плоштад Македонија,1000,,Mo-Th 07:00-00:00; Fr-Sa 07:00-01:00; Su 10:30-00:00,Скопје,,,,,Pelister,,,https://www.pelisterhotel.com.mk/,yes,,,,,,,,,,,,
21.4320378,41.9957057,pub,Колектив,Kolektiv,,,,,,,,outside,yes,,,,,,,Колектив,,,,,,,,,yes,,
21.4320988,41.9956625,pub,,Pivnika Temov,,,,,,,,,,,,,,,,,,,,,,,,,,,
21.4330712,41.9958677,cafe,Telekom Trend Lounge Bar,,ice_cream;pizza;pasta,Кеј 13 Ноември,1000,wlan,"Mo-Su 00:00-00:45,08:00-24:00",Cкoпje,,separated,yes,,,,,,yes,,MK,no,,,,,,,,,
21.4335119,41.995703,restaurant,Дион,,italian,,,,,,,,,,Dion,,,,,,,,,,,,,,,,
21.4340509,41.9955386,bar,Етно-бар,Etno Bar,,Кеј 13 Ноември,1000,,,Cкoпje,,outside,yes,,,,,,,Etno Bar,MK,,,,Skopje,Kay 13th November,,Gradski Trgovski Centar Skopje,,,
21.4342829,41.9954679,pub,Даблинер,,,Кеј 13 Ноември,1000,,,Скопје,,no,no,,The Dubliner,,no,,,The Dubliner,MK,,,,Skopje,Kay 13th November,,Gradski Trgovski Centar Skopje,,,
21.4341686,41.9955027,pub,Ало ало,,,Кеј 13 Ноември,1000,,,Скопје,,no,no,,Cafe Alo Alo,,no,,,Cafe Alo Alo,MK,,,,Skopje,Kay 13th November,,Gradski Trgovski Centar Skopje,,,
21.4338587,41.9955972,restaurant,Соул кичен,Soul-Kitchen,international,Кеј 13 Ноември,1000,,,Cкoпje,,outside,yes,,,,,,,Soul-Kitchen,MK,,,,Skopje,Kay 13th November,,Gradski Trgovski Centar Skopje,,,
21.4345059,41.9951019,bar,,,,,,,,,,,,,,,,,,,MK,,,,,,,,,,
21.4352156,41.9951834,pub,Карпе дием,Carpe Diem,,Кеј 13 Ноември,1000,,,Cкoпje,,separated,yes,,Carpe Diem,,,,,,MK,,,,Skopje,Kay 13th November,,Gradski Trgovski Centar Skopje,,,
21.4355402,41.9949989,restaurant,Амика,,international,Кеј 13 Ноември,1000,,,Cкoпje,,,,,Amica,,,,,,MK,,,,Skopje,Kay 13th November,,Gradski Trgovski Centar Skopje,,,
21.4355937,41.9950681,pub,Ирски паб Св. Патрик,St. Patrick Irish Pub,,Кеј 13 Ноември,1000,wlan,"10:00-24:00, Fr-Sa 10:00-01:00",Cкoпje,,separated,yes,,,,,http://www.irishpub.com.mk/,yes,,MK,,,,Skopje,Kay 13th November,,Gradski Trgovski Centar (GTC),,,
21.4383755,41.9945181,bar,,Old lady beer bar,,,,,,,,,,,,,,,,,,,,,,,,,,,
21.4343506,41.9954474,pub,Casa Cubana,,,Кеј 13 Ноември,1000,wlan,"10:00-24:00, Fr-Sa 10:00-01:00",Скопје,,outside,yes,28,,,no,,yes,Casa Cubana,MK,no,,,Skopje,Kay 13th November,,Gradski Trgovski Centar Skopje,,,
21.4347685,41.9953199,restaurant,Бела виста,Bella Vista,international,Кеј 13 Ноември,1000,,"10:00-24:00, Fr-Sa 10:00-01:00",Cкoпje,,,,2/4,,,,www.bellavistaskopje.mk,,,MK,,,,Skopje,Kay 13th November,,Gradski Trgovski Centar Skopje,,,
21.4348936,41.9952816,fast_food,Ла Пуерта,,mexican,,,,,,,,no,,La Puerta,,yes,,,,,,,,,,,,,,
21.4350117,41.9952456,restaurant,Плаза де Торос,,Latin_American,Кеј 13 Ноември,1000,,,Cкoпje,,,,,Plaza de Toros,,,,,,MK,,,,Skopje,Kay 13th November,,Gradski Trgovski Centar Skopje,,,
21.4343838,41.9956859,drinking_water,,,,,,,,,,,,,,,,,,,,,,,,,,,,,
21.4357732,41.9952912,drinking_water,,,,,,,,,,,,,,,,,,,,,,,,,,,,,
21.4367281,41.995288,restaurant,,,,,,,,,,,,,,,,,,,,,,,,,,,,,
21.4343571,41.9973371,pub,Lounge Bar Divan,,pizza,,,,,,,separated,yes,,,,,,,Hotel Stone Bridge,,,,,,,,,,,
21.434577,41.9973163,restaurant,Sky ресторанот,Sky Restaurant,international,,,,,,,,,,,,,,,Hotel Stone Bridge,,,,,,,,,,,
21.4349757,41.9974686,pub,Lounge Bar Divan,,pizza,,,,,,,separated,yes,,,,,,,Hotel Stone Bridge,,,,,,,,,,,
21.4353025,41.9989349,fast_food,,Gelateria Mony,kebab,,,wlan,,,,,,,,,,,,,,,,,,,,,,,
21.4358564,41.9993401,bar,Менада,Menada,,,,,,,,,,,,,,,no,,,,,,,,,,,,
21.4368849,41.999241,cafe,Old Town,,,,,,,,,,,,,,,,,,,,,,,,,,,,
21.4355402,41.9994953,restaurant,Австриска палта,Austrian Palace,,,,,,,Austrian Palace,,,,,,,,,,,,,,,,,,,,
21.4353545,41.9999118,bar,,,,,,,,,,,,,,,,,,,,,,,,,,,,,
21.4355238,42.0005355,drinking_water,,,,,,,,,,,,,,,,,,,,,,,,,,,,,
21.4361151,41.9995917,restaurant,СНОШТИ МИНАВ,SNOSTI MINAV,local,,,wlan,,,,,,,,,,,,,,,,,,,,,,,
21.436081,41.9996701,restaurant,Destan,,,,,,,,Destan,,,,,,,,,,,,,,,,,,,,
21.4362086,41.9996644,restaurant,Kaj Гоце,,,,,,,,,,,,,,,,,,,,,,,,,,,,
21.4362461,41.9996618,restaurant,Kaj Serdarot,,,,,,,,Kaj Cerdarot,,,,,,,,,,,,,,,,,,,,
21.4363148,41.9996587,bar,tavce gravce,,,,,,,,,,,,,,,,,,,,,,,,,,,,
21.4358296,41.9998288,bar,Rakija Bar,,,,,,,,,,,,,,,,,,,,,,,,,,,,
21.4358699,42.0000003,cafe,Nargile Cafe,,,,,,,,,,,,,,,,,,,,,,,,,,,,
21.4366272,41.9993602,drinking_water,,,,,,,,,,,,,,,,,,,,,,,,,,,,,
21.4366103,41.9994358,cafe,Clique Bar,,,,,wlan,24/7,,,,,,,,,,,,,,,,,,,,,,
21.4366123,41.9995926,restaurant,кај сердарот,Kaj Serdarot,local;barbecue,,,,,,,,yes,,,,,,,,,,,,,,,,,,
21.4366005,42.0000179,restaurant,Пивница АН,Beerhouse AN,regional,Градиште,1000,wlan,Mo-Sa 09:00-24:00; Su 12:00-24:00,Cкoпje,,separated,yes,14,,+389 02 321 2111,,http://pivnicaan.mk/,,,MK,no,pivnicaan@yahoo.com,,Skopje,Gradiste,,Капан АН,,,
21.4367578,41.9999897,bar,beer cafe,,,,,,,,,,,,,,,,,,,,,,,,,,,,
21.4358622,42.0001818,pub,,Winery Temov,,,,,,,,,,,,,,,,,,,,,,,,,,,
21.4360203,42.0001822,pub,,Damar,,,,,,,,,,,,,,,,,,,,,,,,,,,
21.4361778,42.0002555,cafe,k8,,crepe;coffee_shop;cake;ice_cream,,,,,,,,,,,,,,,,,,,,,,,,,,
21.4369808,42.0001669,bar,Клуб Капан Ан,,,,,,,,,,,,,,,,,,,,,,,,,,,,
21.4367576,42.0003099,restaurant,Туpиcт,Turist,regional,,,,,,,,,,,,,,,,,,,,,,,,,,
21.4373453,41.9984414,cafe,,,,,,,,,,,,,,,,,,,,,,,,,,,,,
21.4371953,42.0002786,restaurant,Pçela,,barbecue;local,,,,,,,,,,,,,,,,,,,,,,,,,,
21.4369106,42.0017616,drinking_water,,,,,,,,,,,,,,,,,,,,,,,,,,,,,
21.4370632,42.0017629,cafe,Cafe Old Bazaar,,"Coffee,_Tea,_cold_drinks",,1000,yes,08:00-23:00,Cкoпje,,outside,,,,,,,,,MK,,,,Skopje,,,,,,
21.4352595,42.0022334,drinking_water,,,,,,,,,,,,,,,,,,,,,,,,,,,,,
21.4375923,42.0011325,cafe,Shisha,,,,,,,,,,yes,,,,,,,,,,,,,,,,,,
21.4376398,42.0013523,biergarten,Ла кања,,,,,,,,,,,,La Kaña,,,,,,,,,,,,,,,,
21.4378235,42.001291,bar,Syri,,,,,,,,,,,,,,,,,,,,,,,,,,,,
21.4378319,42.0021215,restaurant,,,,,,,,,,,,,,,,,,,,,,,,,,,,,
21.4387967,42.0027291,fast_food,,,,,,,,,,,,,,,,,,,,,,,,,,,,,
22.1981705,41.7441882,cafe,,,,,,,,,,,,,,,,,,,,,,,,,,,,,
22.2011852,41.7471233,restaurant,Кафе Канал 77,,,,,,,,,,,,,,,,,,,,,,,,,,,,
22.3331186,41.8823767,restaurant,,,,,,,,,,,,,,,,,,,,,,,,,,,,,
22.4104385,41.9172558,restaurant,Aquarium,,,,,,,,,,,,,,,,,,,,,,,,,,,,
22.4105645,41.9172318,cafe,Avangard Cafe,,,,,,,,,,,,,,,,,,,,,,,,,,,,
22.4105591,41.9174015,cafe,Klasic Cafe,,,,,,,,,,,,,,,,,,,,,,,,,,,,
22.4105671,41.9173176,cafe,Cinema Cafe,,,,,,,,,,,,,,,,,,,,,,,,,,,,
22.4105189,41.9175052,cafe,Uni Pub Cafe,,,,,,,,,,,,,,,,,,,,,,,,,,,,
22.410527,41.917611,cafe,Pacadili Cafe,,,,,,,,,,,,,,,,,,,,,,,,,,,,
22.4104224,41.9176668,restaurant,Капри,,,,,,,,,,,,,,,,,,,,,,,,,,,,
22.4104015,41.9177905,restaurant,,,,,,,,,,,,,,,,,,,,,,,,,,,,,
22.4107281,41.9176649,cafe,Delikates Cafe,,,,,,,,,,,,,,,,,,,,,,,,,,,,
22.4102588,41.918076,restaurant,Balkanlux,,,,,,,,,,,,,,,,,,,,,,,,,,,,
22.4108276,41.9172527,fast_food,,,,,,,,,,,,,,,,,,,,,,,,,,,,,
22.4101783,41.9187207,restaurant,Bakery Kamel,,,,,,,,,,,,,,,,,,,,,,,,,,,,
22.443836,41.8539102,bar,,Kafe Bar Rio,,,,wlan,,,,,,,,,,,,,,,,,,,,,,,
22.4126749,41.9153295,restaurant,Пролет,Prolet,,,,,,,,,,,Prolet,,,,,,,,,,,,,,,,
22.4123703,41.9157236,cafe,,Coffee Station,,,2300,wlan,,,,,,,,,,,,,,,,,,,,,,,
22.5058453,41.886544,cafe,Pancir Cafe,,,Кочо Рацин,,,,,,,,,,,,,,,,,,,,,,,,,
22.50587,41.8865523,cafe,Панцир Кафе,,,Кочо Рацин,,,,,,,,,,,,,,,,,,,,,,,,,
22.5103667,41.8881131,bar,Bife Mal Minhen,,,,,,24/7,,,,,,,,,,,,,,,,,,,,,,
22.5114929,41.8903339,bar,Bife Mal Minhen,,,,,,,,,,,,,,,,,,,,,,,,,,,,
22.1935924,41.7384195,cafe,,,,,,,,,,,,,,,,,,,,,,,,,,,,,
22.193667,41.7384275,fast_food,,,,,,,,,,,,,,,,,,,,,,,,,,,,,
22.1937687,41.7376171,restaurant,Piaza Liberta,,,,,,,,,,,,,,,,,,,,,,,,,,,,
22.1941525,41.7378263,cafe,,,,,,,,,,,,,,,,,,,,,,,,,,,,,
22.193884,41.7383062,fast_food,,,pizza,,,,,,,,,,,,,,,,,,,,,,,,,,
22.1942983,41.7382806,pub,Square pub,,,,,,,,,,,,,,,,,,,,,,,,,,,,
22.1928555,41.7390109,restaurant,Верона,,,,,,,,,,,,,,,,,,,,,,,,,,,,
22.1940792,41.7384717,fast_food,Хамби,,,,,,,,,,,,,,,,,,,,,,,,,,,,
22.1943429,41.7385085,cafe,Café Bar Illusion,,,,,,,,,,,,,,,,,,,,,,,,,,,,
22.1948335,41.7384574,drinking_water,,,,,,,,,,,,,,,,,,,,,,,,,,,,,
22.1952544,41.7372052,cafe,Кафе-Бар Симбол,,,,,wlan,,,,,,,,,,,,,,,,,,,,,,,
22.1956835,41.7382123,cafe,Сајбер,,,,,,,,Сајбер,,,,,,,,,,,,,,,,,,,,
22.1957213,41.7388923,cafe,Нова Кафе,,,,,,,,,,,,,,,,,,,,,,,,,,,,
22.1957776,41.7389133,bar,Версај,,,,,,,,,,,,,,,,,,,,,,,,,,,,
22.1959414,41.738556,cafe,Кофи Лаб,Coffee Lab,,Кеј Маршал Тито,2000,wlan,Su-Th 08:00-00:00; Fr-Sa 08:00-01:00,,,,,6,,,,,,,,,,,,,,,,,
22.1963608,41.7386743,fast_food,Стојанче Кубаската,,kebab;sandwich,,,,,,,,,,,,,,,,,,,,,,,,,,
22.1958272,41.7389273,bar,Кафе-Бар Марсеј,,,,,,,,,,,,,,,,,,,,,,,,,,,,
22.1958775,41.7389458,bar,Кафе бар Карма,,,,,wlan,,,Кафе бар Карма,,,,,,,,,,,,,,,,,,,,
22.1969715,41.7386184,fast_food,Зимбако,,burger;regional;sandwich;kebab,,,,,,,,,,,,,,,,,,,,,,,,,,
22.1970264,41.7386272,fast_food,,,,,,,,,,,,,,,,,,,,,,,,,,,,,
22.1966748,41.7388546,restaurant,Кебапчилница Тасе,,,,,,,,Кебапчилница Тасе,,,,,,,,,,,,,,,,,,,,
22.1984513,41.7422847,drinking_water,,,,,,,,,,,,,,,,,,,,,,,,,,,,,
22.1909766,41.7365575,drinking_water,,,,,,,,,,,,,,,,,,,,,,,,,,,,,
22.1907365,41.7368287,restaurant,Ресторан Сан-Ремо,,,,,,,,,,,,,,,,,,,,,,,,,,,,
22.1921751,41.7368665,pub,Даблин,,,,,,,,,,,,,,,,,,,,,,,,,,,,
22.1901494,41.7371339,restaurant,Универзитетски Ресторант,,pizza;regional;burger;coffee_shop;sandwich;kebab;chicken;ice_cream,,,,,,,,,,,,,https://www.facebook.com/uniklub,,,,,,,,,,,,,
22.1903941,41.737641,restaurant,,,,,,,,,,,,,,,,,,,,,,,,,,,,,
22.1912175,41.7375045,restaurant,Classic Restaurant,,sandwich;balkan;breakfast;pizza;kebab;local;pasta;coffee_shop;ice_cream,,,wlan,Mo-Su 07:00-00:00,,,,,,,,,,,,,,,,,,,,,,
22.1921152,41.7371987,cafe,Пијано Бар,,,,,,,,,,,,,,,,,,,,,,,,,,,,
22.1925351,41.7364436,drinking_water,,,,,,,,,,,,,,,,,,,,,,,,,,,,,
22.1928042,41.7364789,drinking_water,,,,,,,,,,,,,,,,,,,,,,,,,,,,,
22.1931278,41.7370336,restaurant,Наше Кино,,,,,,,,,,,,,,,,,,,,,,,,,,,,
22.1932005,41.7370604,cafe,Тафката,,,,,,,,,,,,,,,,,,,,,,,,,,,,
22.1928607,41.7374044,fast_food,,,,,,,,,,,,,,,,,,,,,,,,,,,,,
22.1933812,41.7371183,fast_food,JA-JA,,,,,,,,,,,,,,,,,,,,,,,,,,,,
22.1934589,41.7371381,fast_food,Bambi,,,,,,,,,,,,,,,,,,,,,,,,,,,,
22.1938869,41.73738,cafe,Vami Cafe 1,,,,,,,,,,,,,,,,,,,,,,,,,,,,
22.1885691,41.7231075,drinking_water,,,,,,,,,,,,,,,,,limited,Курт Бунар,,,,,,,,,,,
22.1892414,41.735564,drinking_water,Ашај Теќе чешма,,,,,,,,,,,,,,,,,,,,,,,,,,,,
22.188611,41.7357572,drinking_water,,,,,,,,,,,,,,,,,,,,,,,,,,,,,
22.1880031,41.7350012,drinking_water,,,,,,,,,,,,,,,,,,,,,,,,,,,,,
22.1876356,41.7385146,drinking_water,,,,,,,,,,,,,,,,,,,,,,,,,,,,,
20.8894257,41.2434073,restaurant,Dedo Dimo,Dedo (Grandfather) Dimo,balkan,Kuratica,6036,wlan,Mo-Su 12:00-00:00,,,,,,,+38946279595,,http://www.dedodimo.mk,,,,,dimodedo@yahoo.com,,,,,,,,
21.0863428,41.2986459,restaurant,Рибник Бабино,Ribnik Babino,,,,,,,,,,,Ribnik Babino,,,,,,,,,,,,,,,,
22.2451062,41.6337365,restaurant,Рибник,,,,,,,,,,,,,,,,,,,,,,,,,,,,
22.2151154,41.7110243,drinking_water,Струмина Чешма,,,,,,,,,,,,,,,,no,,,,,,,,,,,,
22.2008848,41.7368002,drinking_water,,,,,,,,,,,,,,,,,,,,,,,,,,,,,
22.1991187,41.73743,cafe,,,,,,,,,,,,,,,,,,,,,,,,,,,,,
22.1998828,41.7377635,drinking_water,,,,,,,,,,,,,,,,,,,,,,,,,,,,,
22.1984858,41.7384555,drinking_water,,,,,,,,,,,,,,,,,yes,,,,,,,,,,,,
22.1922397,41.7382087,restaurant,Рома,,,,,,,,,,,,,,,,,,,,,,,,,,,,
22.1921774,41.7383603,restaurant,У Сокако,,,,,,,,,,,,,,,,,,,,,,,,,,,,
20.6340352,41.0488849,bar,,,,,,,,,,,,,,,,,,,,,,,,,,,,,
20.6439111,41.0505076,restaurant,Korca,,,,,,,,,,,,,,,,,,,,,,,,,,,,
20.6461097,41.0522864,restaurant,,,,,,,,,,,,,,,,,,,,,,,,,,,,,
20.8042407,41.0983462,bar,Ambrosia,,,,,,,,,,,,,,,,,,,,,,,,,,,,
20.8049971,41.0999773,bar,Kadmo Beach Club,,,,,,,,,,,,,,,,,,,,,,,,,,,,
20.8059198,41.1010587,bar,Cuba Libre Beach Club,,,,,,,,,,,,,,,,,,,,,,,,,,,,
20.8077142,41.1036801,drinking_water,,,,,,,,,,,,,,,,,,,,,,,,,,,,,
20.8079475,41.104151,restaurant,,,,,,,,,,,,,,,,,,,,,,,,,,,,,
20.8066006,41.1080463,bar,Pardise,,,,,,,,,,,,,,,,,,,,,,,,,,,,
20.8071883,41.1073742,cafe,Liquid,,,,,,,,Ликвид,,,,,,,,,,,,,,,,,,,,
20.807528,41.1069789,restaurant,Ristorante Stazione,,italian,,,,,,,,,,,,,,,,,,,,,,,,,,
20.8039749,41.1104511,restaurant,Ла Бела,La Bella,,,,,,,,,,,,,,,,,,,,,,,,,,,
20.8052329,41.109536,restaurant,Royal View,,,,,,,,,,,,,,,,,,,,,,,,,,,,
20.8056768,41.1090118,pub,Irish Pub Dublin,,,,,,,,,,,,,,,,,,,,,,,,,,,,
20.8081755,41.1048119,fast_food,Big Pi,,,,,,,,,,,,,,,,,,,,,,,,,,,,
20.8148703,41.1028959,restaurant,Ресторан Биљанини Извори,Biljanini Izvori Restaurant,,,,,,,,,,,,,,,,,,,,,,,,,,,
20.8123651,41.1084477,restaurant,Restoran Gros,,,,,,,,,,,,,,,,,,,,,,,,,,,,
20.8033532,41.1109264,fast_food,,,,,,,,,,,,,,,,,,,,,,,,,,,,,
20.8091572,41.1120004,restaurant,,,,,,,,,,,,,,,,,,,,,,,,,,,,,
20.8086261,41.1127562,restaurant,,,,,,,,,,,,,,,,,,,,,,,,,,,,,
20.8127336,41.1242491,restaurant,,,,,,,,,,,,,,,,,,,,,,,,,,,,,
20.811971,41.1245943,cafe,,,,,,,,,,,,,,,,,,,,,,,,,,,,,
20.8157042,41.1259308,restaurant,Ресторан Панорама,Restoran Panorama,,,,,Mo-Su 07:00-23:55,,,,,,,,,,,,,,,,,,,,,,
20.847073,41.101833,drinking_water,Ponik,,,,,,,,,,,,,,,,,,,,,,,,,,,,
22.2542859,41.338844,drinking_water,,,,,,,,,,,,,,,,,no,,,,,,,,,,,,
22.8045867,41.3208709,drinking_water,,,,,,,,,,,,,,,,,,,,,,,,,,,,,
21.7914933,41.70103,drinking_water,,,,,,,,,,,,,,,,,,,,,,,,,,,,,
21.7686668,41.7098459,cafe,Дома,,,Александар Несторов,,,,,,,,,,,,,,,,,,,,,,,,,
21.7798939,41.713692,drinking_water,,,,,,,,,,,,,,,,,,,,,,,,,,,,,
21.7787405,41.7150515,drinking_water,,,,,,,,,,,,,,,,,,,,,,,,,,,,,
21.7841775,41.7145048,drinking_water,,,,,,,,,,,,,,,,,,,,,,,,,,,,,
21.7870287,41.7138225,cafe,Kafe slatkarnica Turist,,,,,,,,Kafe slatkarnica Turist,,,,,,,,,,,,,,,,,,,,
21.7753509,41.7170862,restaurant,Снупи,,,,,,,,,,,,,,,,,,,,,,,,,,,,
21.7755708,41.7170863,cafe,,,,,,,,,,,,,,,,,,,,,,,,,,,,,
21.7775232,41.7176332,restaurant,Официрски,,,,,,,,,,,,,,,,,,,,,,,,,,,,
21.7774454,41.7177205,drinking_water,,,,,,,,,,,,,,,,,,,,,,,,,,,,,
21.7777592,41.7176653,restaurant,Снупи,,,,,,,,,,,,,,,,,,,,,,,,,,,,
21.7781552,41.7175779,pub,,Pivnica Pub,,Благој Ѓорев,1400,wlan,Mo-Su 09:00-00:00,,,,,28,,0038943230212,,,,,,,pivnicapub@gmail.com,,,,,,,,
21.7788314,41.7177173,restaurant,Гостилница Сокаче,Gostilnica Sokace,,Благој Ѓорев,1400,wlan,Mo-Su 08:00-00:00,,,,,16,,+38978349043,,https://m.facebook.com/profile.php?id=572126203244707&ref=content_filter,,,,,,,,,,,,,
21.7828824,41.7176771,fast_food,Ројал,,,,,,,,,,,,,,,,,,,,,,,,,,,,
21.7829849,41.717722,cafe,Капри Кафе,,,,,,,,,,,,,,,,,,,,,,,,,,,,
21.7842383,41.7153245,restaurant,Сина Сала,,,,,,,,,,,,,,,,,,,,,,,,,,,,
21.7842139,41.7154688,restaurant,Розе Сала,,,,,,,,,,,,,,,,,,,,,,,,,,,,
21.7833196,41.717557,bar,Езе Бар,Ezze Bar,,,,,,,,,,,,,,,,,,,,,,,,,,,
21.4591155,41.9191256,restaurant,Ресторан Бела,Restaurant Bella,regional,,,,,,,,,,,,,,,,,,,,,,,,,,
21.4958564,41.916628,drinking_water,,,,,,,,,,,,,,,,,,,,,,,,,,,,,
21.5712443,41.9150979,restaurant,Грин Вилиџ,Green Village,,,,,Mo-Su 11:00-23:00,,,,,,,,,,,,,,,,,,,,,,
21.9456465,41.8634014,restaurant,Мечкоеска Куќа - Пуже,Mečkoeska house - Puže,,,,,,,Мечкоеска Куќа - Пуже,,,,,,,,,,,,,,,,,,,,
21.6320595,41.5475438,restaurant,Рибник Ресторан Оморани,Fish Restaurant Omorani,fish,,,,,,,,,,,,,,,,,,,,,,,,,,
20.9685294,41.8333963,cafe,Алфа,,,,,,,,,,,,,,,,,,,,,,,,,,,,
20.9959598,41.8333192,drinking_water,Burimi,,,,,,,,,,,,,,,,,,,,,,,,,,,,
20.9723139,41.8366298,cafe,,Kafiteria TETI,,cegran,,wlan,,,,,,,,,,,,,,,,,,,,,,,
20.9724025,41.8386183,drinking_water,,,,,,,,,,,,,,,,,,,,,,,,,,,,,
20.9743998,41.8377412,cafe,Боси,,,,,,,,,,,,,,,,,,,,,,,,,,,,
20.9744776,41.8379148,cafe,,,,,,,,,,,,,,,,,,,,,,,,,,,,,
20.9748504,41.8383485,drinking_water,,,,,,,,,,,,,,,,,,,,,,,,,,,,,
20.9772429,41.8411626,drinking_water,Burimiii,,,,,,,,,,,,,,,,,,,,,,,,,,,,
20.9734955,41.8453568,restaurant,Restaurant Oaza,,,,,,,,,,,,,,,,,,,,,,,,,,,,
20.978648,41.8450656,cafe,Рина,,,,,wlan,,,,,,,,,,,,,,,,,,,,,,,
20.981323,41.8578789,restaurant,,Fish house Delfin,,,,,,,,,,,,,,,,,,,,,,,,,,,
20.9467534,41.9158317,cafe,саранда,,,,,wlan,Mo-Su 07:00-23:00,,,,,,,,,,,,,,,Saranda,,,,,,,
20.5881905,41.2401095,restaurant,Kurmičevica,,regional;kebab;balkan,,,,,,,,,,,,,,,,,,,,,,,,,,
20.5959852,41.2357204,restaurant,Via Ignatia,,,,,,,,,,,,,,,,,,,,,,,,,,,,
20.5887025,41.2397324,restaurant,Pectopahot,,regional;kebab;balkan,,,,,,,,,,,,,,,,,,,,,,,,,,
20.5918028,41.2398677,cafe,,,,,,,,,,,,,,,,,,,,,,,,,,,,,
20.5926742,41.2404691,cafe,,,,,,,,,,,,,,,,,,,,,,,,,,,,,
20.5928624,41.2404605,cafe,,,,,,,,,,,,,,,,,,,,,,,,,,,,,
20.6356959,41.2541143,restaurant,,,,,,,,,,,,,,,,,,,,,,,,,,,,,
20.6798797,41.1742024,bar,Metropolis,,,Партизанска,,wlan,,,,,,,,,,,,,,,,,,,,,,,
20.6801971,41.176543,pub,Irish Pub The Harp,,,,,,,,,,,,,,,,,,,,,,,,,,,,
20.6762151,41.1769374,restaurant,Т'ГА ЗА ЈУГ,,regional,15 Корпус,36330,,,,,,,5,,,,,,,,,,,,,,национален ресторан,,,
20.6763146,41.1776197,cafe,Leone,,,,,,,,,,,,,,,,,,,,,,,,,,,,
20.676795,41.1778398,restaurant,Bonaca,,,,,,,,,,,,,,,,,,,,,,,,,,,,
20.6790916,41.1783994,cafe,EMPIRE,,,,,,,,,,,,,,,,,,,,,,,,,,,,
20.6516188,41.2239348,restaurant,Grand restaurant,,,,,,,,,,,,,,,,,,,,,,,,,,,,
21.2191049,41.0331866,restaurant,,,,,,,,,,,,,,,,,,,,,,,,,,,,,
21.264369,41.0314361,restaurant,,,regional,,,,,,,,,,,,,,,,,,,,,,,,,,
21.1044742,41.0654417,drinking_water,,,,,,,,,,,,,,,,,,,,,,,,,,,,,
21.1140261,41.0661743,cafe,,,,,,,,,,,,,,,,,,,,,,,,,,,,,
21.552257,41.3431784,restaurant,Стојче-Метропол,,,,,,,,,,,,,,,,,,,,,,,,,,,,
21.5498466,41.3456079,cafe,Pizza Bar Academy,,,,,,,,,,,,,,,,limited,,,,,,,,,,,,
21.5520655,41.3444724,restaurant,Александрија,Aleksandria,,Јане Сандански,7500,,Mo-Su 09:00-22:00,,,,,,,048 424 000,,,,Goran,,,,,,,,,,,
21.5521929,41.344918,cafe,Шар,Shar,,,,,,,,,,,,,,,,,,,,,,,,,,,
21.5536992,41.3453183,cafe,Ди Каприо,Di Caprio,,,,,,,,,,,Di Caprio,,,,,,,,,,,,,,,,
21.5539309,41.3452345,cafe,Вирус,Virus,,,,,,,,,,,Virus,,,,no,,,,,,,,,,,,
21.5543097,41.3453989,restaurant,Пинк Пантер,Pink Panter,,,,,,,,,,,,,,,limited,,,,,,,,,,,,
21.5548486,41.3454489,drinking_water,,,,,,,,,,,,,,,,,,,,,,,,,,,,,
21.553795,41.3460965,cafe,The Summer Gallery House Pub,,,,,wlan,08:00-01:00,,,,,,,+38970208693,,,,,,no,,,,,,,,,
21.5539772,41.3458302,cafe,,Coffee House,,,,,,,,,,,,,,,,,,,,,,,,,,,
21.5541527,41.3456817,cafe,Тејк Фајв,Take Five,,,,,,,,,,,Sonic,,,,limited,,,,,,,,,,,,
21.5543797,41.3460137,restaurant,Парадизо,Paradizo,,,,,,,,,,,Paradizo,,,,yes,,,,,,,,,,,,
21.5546262,41.3459768,restaurant,Каспер,,,,,,,,,,,,,,,,,,,,,,,,,,,,
21.5548409,41.346236,cafe,Alfa1,,,,,,,,,,,,,,,,,,,,,,,,,,,,
21.5551082,41.3462523,restaurant,Порта,Tuborg,,,,,,,,,,,,,,,,,,,,,,,,,,,
21.5541674,41.3466009,cafe,Леоне,,,,,,,,,,,,,,,,no,,,,,,,,,,,,
21.55497,41.346541,cafe,Kaffeine,,,,,,,,Kaffeine,,,,,,,,,,,,,,,,,,,,
21.5567739,41.3448994,restaurant,Spase,,,,,,,,Спасе,,,,,,,,,,,,,,,,,,,,
21.5554324,41.3459748,restaurant,Magic Food,,,,,,,,,,,,,,,,,,,,,,,,,,,,
21.555502,41.3465494,restaurant,,Cafe Stara Carsija,,,,,,,,,,,,,,,,,,,,,,,,,,,
21.555721,41.3468894,restaurant,Gostilnica AJ PO EDNA,,balkan,Илинден,,wlan,24/7,,,,,16b,,+38948615400,,,,,,,,,,,,,,,
21.556594,41.3463358,restaurant,Лидер,Lider,,,,,,,,,,,Lider,,,,,,,,,,,,,,,,
21.3885778,42.0229571,cafe,AvAv Dog Park,,,,,,,,,,,,,,,,,,,,,,,,,,,,
21.4080594,41.993167,restaurant,Два Елена,Dva Elena,,,,,,,,,,,,,,,,,,,,,,,,,,,
21.4096304,41.9933749,drinking_water,,,,,,,,,,,,,,,,,,,,,,,,,,,,,
21.4099065,41.9953743,restaurant,Носталгија,Nostalgija,,Митрополит Теодосиј Гологанов,1000,wlan,,,,,,,,023060708,,,,,,,,,,,,,,,
21.411556,41.9956061,cafe,,,,,,,,,,,,,,,,,,,,,,,,,,,,,
21.4120688,41.9971695,fast_food,,,,,,,,,,,,,,,,,,,,,,,,,,,,,
21.4122694,41.9979155,restaurant,Топаз,,,Рузвелтова,,,,,,,,25,,,,,,,,,,,,,,,,,
21.4134001,41.9933305,drinking_water,,,,,,,,,,,,,,,,,,,,,,,,,,,,,
21.4134179,41.9939247,drinking_water,,,,,,,,,,,,,,,,,,,,,,,,,,,,,
21.4135121,41.9947932,restaurant,,,,,,,,,,,,,,,,,,,,,,,,,,,,,
21.4138028,41.9947703,bar,нола Бар,Nola Bar,international,Митрополит Теодосиј Гологанов,1000,,"Mo-Fr 09:00-24:00; Sa,Su 00:00-01:00,09:00-24:00",Скопје,,separated,yes,67,,+389 2 2444542,,http://hotelimakedonija.com.mk/en/Restaurant/1073/In-Vino-Restaurant,,,MK,,,,Skopje,Mitroplit Teodosij Gologanov,,,,,
21.4140669,41.9947432,restaurant,Интермецо,,,,,,,,,,,,,,,,,,,,,,,,,,,,
21.4147832,41.9964357,pub,Дринкерс Парадајз,Drinkers Paradise,,Христо Смирненски,,,"Mo-Su 00:00-01:00,10:00-24:00",,,outside,,,,,,,,,,,,,,,,,,,
21.4150033,41.997012,pub,Конак,,,,,,,,,,,,,,,,,,,,,,,,,,,,
21.4142348,41.9986877,restaurant,,,,,,,,,,,,,,,,,,,,,,,,,,,,,
21.4127725,41.999411,cafe,Концепт37,Concept37,,,,,,,,,,,Koncept37,,,,,,,,,,,,,,,,
21.4142706,42.0006556,fast_food,Fatness house,,,,,,,,,,,,,,,,,,,,,,,,,,,,
21.4149006,42.0005187,restaurant,Fitness house,,,,,,,,,,,,,,,,,,,,,,,,,,,,
21.415982,41.9985008,restaurant,Боеми,,,,,,,,,,,,,,,,,,,,,,,,,,,,
21.4158769,42.0003534,cafe,,,,,,,,,,,,,,,,,,,,,,,,,,,,,
21.415006,42.0038265,cafe,The Gallery,,,,1000,,,Cкoпje,,,,,,,,,,,,,,,,,,,,,
21.4146731,42.0042809,cafe,Cafe Bela,,,,1000,,09:00 - 00:00,Cкoпje,,,,,,,,,,,,,,,,,,,,,
21.4154682,42.0037034,restaurant,,,,,,,,,,,,,,,,,,,,,,,,,,,,,
21.4151255,42.0039722,cafe,MonAmi,,,,1000,,,Cкoпje,,,,,,,,,,,,,,,,,,,,,
21.415173,42.0040547,cafe,Жапон Кафе Бар,Zapon Coffee Bar,,,1000,,07:30 - 23:30,Cкoпje,,,,,,,,,,,,,,,,,,,,,
21.4159604,42.0047028,cafe,Бугати,Bugatti,,,,,,,,,,,,,,,,,,,,,,,,,,,
21.3862677,42.004606,cafe,Ch2pter,Ch2pter,,Љубљанска,,,09:00-23:45; Fr-Sa 09:00-23:45,Cкoпje,,separated,yes,4,,+389 75 490 155,,http://www.caffetrend.mk/,,,MK,,,,,Ljubljanska,,,,,
21.4578943,41.0416246,restaurant,,,,,,,,,,,,,,,,,,,,,,,,,,,,,
21.4579426,41.0416084,bbq,,,,,,,,,,,,,,,,,,,,,,,,,,,,,
20.8912406,41.7797343,ice_cream,gelateria AIDA --Baska,,,,,,,,,,,,,,,,,,,,,,,,,,,,
20.8048116,41.7208328,drinking_water,,,,,,,,,,,,,,,,,,,,,,,,,,,,,
20.8363637,41.7653321,restaurant,Панорама,,,,,,,,,,,,,,,,,,,,,,,,,,,,
20.8375411,41.765046,restaurant,Burimi Tre,,,,,,,,,,,,,,,,,,,,,,,,,,,,
20.8459093,41.7704206,restaurant,Riben Restoran Bigor,,,,,,,,,,,,,,,,,,,,,,,,,,,,
20.8928941,41.5034917,restaurant,Фурна,Furna,,,,,,,,,,,,,,,,,,,,,,,,,,,
20.8839683,41.5106535,restaurant,Рибен Ресторан Добреноец,Fish Restaurant Dobrenoec,fish,,,,,,,,,,Riben Restoran Dobrenoec,,,,,,,,,,,,,,,,
20.8540545,41.6714481,fast_food,Стража,Strazha,,,,,,,,,,,Straža,,,,,,,,,,,,,,,,
20.8544996,41.6714632,restaurant,Стража,Strazha,,,,,,,,,,,Straža,,,,,,,,,,,,,,,,
21.0274021,41.9941572,restaurant,,Petrol Company Restaurant,balkan,,,wlan,,,,,,,,,,,,,,,,,,,,,,,
21.3889793,41.9987825,drinking_water,,,,,,,,,,,,,,,,,,,,,,,,,,,,,
21.3918782,41.9985413,fast_food,Лап Лап,,,,,,,,,,,,,,,,,,,,,,,,,,,,
21.3899358,42.0007595,fast_food,Вили - Лесковачка Скара,,burger,,,,,,,,,,Vili - Grill,,,,,,,,,,,,,,,,
21.3871902,42.0039263,ice_cream,Палма,Palma,,Булевар Партизански Одреди,1000,,,Скопје,,,,121,,,,,,Палма,,,,,,,,,,,
21.3878449,42.0038168,restaurant,Domino's,,pizza,,,,,,,,,,,,only,,,Domino's,,,,,,,,,,,
21.3926682,42.0028498,restaurant,Две капки,Bosphorus Turkish Restaurant,,Хелсинки,,,,,,,,158а,,,,,,,,,,,,,,,,,
21.3909265,42.0041936,cafe,Trend Food Bar,Trend Food Bar,,,,,08:00-00:00; Fr-Sa 08:00-01:00,,,separated,yes,,,+389 70 306425,,http://www.caffetrend.mk/,,,,,trendcitymall@caffetrend.mk,,,,,,,,
21.3910004,42.0045421,restaurant,Brooklyn Lounge Bar,,italian,,,,08:00-00:00; Fr-Sa 08:00-01:00,,,separated,yes,,,,,,yes,,,,,,,,,,,,
21.3921091,42.0038662,cafe,,,,,,,,,,,,,,,,,,,,,,,,,,,,,
21.3931934,42.0044372,restaurant,Pizza Jakomo,,pizza,Никола Русински,1000,,,Cкoпje,,,yes,15,,+37976338668;+38978338668,,http://www.pizzajakomo.com/,,,,,,,,,,,,,yes
21.3936186,42.0045887,restaurant,Срна,Srna,regional,Никола Русински,,,,,,outside,,,,,,,,,,,,,,,,,,,
21.393778,42.004566,cafe,Krem,,,,,,,,,,,,,,,,,,,,,,,,,,,,
21.3963477,42.0026669,fast_food,Вегера,Vegera,regional,,,,"Mo-Sa 06:00-24:00, Su 08:00-24:00",,,outside,yes,,Vegera,,yes,,,,,,,,,,,,,,
21.3813769,42.0057641,pub,Pub,,,,,,,,,,,,,,,,,,,,,,,,,,,,
21.3909815,42.0049046,fast_food,Chicken House,Chicken House,,,,,,,Chicken House,,,,,,,,,,,,,,,,,,,,
21.3910392,42.0048738,cafe,Juicy and Co,,vegan,,,,,,,,,,,,,,,,,,,,,,,,,,
21.3912646,42.0048773,fast_food,Burger King,,burger,Љубљанска,1000,,,Cкoпje,,,,,,,,,,,MK,,,,Skopje,Ljubljanska,,Skopje City Mall,,,
21.3944391,42.009249,drinking_water,,,,,,,,,,,,,,,,,,,,,,,,,,,,,
21.3274583,41.9953819,restaurant,River Side,,,,,,,,,,,,,,,,,,,,,,,,,,,,
21.3278644,41.9996839,cafe,,,,,,,,,,,,,,,,,,,,,,,,,,,,,
21.3323916,42.003391,restaurant,Ореов Лад,Oreov Lad,Macedonian,,,,,,,,,,Oreov Lad,,,,,,,,,,,,,,,,
21.3328887,42.0068376,restaurant,,GARDEN,,Булевар Ѓорче Петров,1000,wlan,Mo-Su 09:00-00:00,,,,,,,+389 78 239 711,,,,,,,,,,,,,,,
21.3337137,42.0066455,restaurant,,,,,,,,,,,,,,,,,,,,,,,,,,,,,
21.3382502,42.0003455,drinking_water,,,,,,,,,,,,,,,,,,,,,,,,,,,,,
21.3362989,42.0073873,restaurant,,,,,,,,,,,,,,,,,,,,,,,,,,,,,
21.3510028,42.0064872,restaurant,,,,,,,,,,,,,,,,,,,,,,,,,,,,,
20.7888593,41.1111163,drinking_water,,,,,,,,,,,,,,,,,,,,,,,,,,,,,
20.790543,41.1109837,restaurant,,Kaj Kanevche,,,,,,,,,,,,,,,,,,,,,,,,,,,
20.7912119,41.1122617,bar,,,,,,wlan,,,,,,,,,,,,,,,,,,,,,,,
20.7914964,41.11464,cafe,,,,,,,,,,,,,,,,,,,,,,,,,,,,,
20.7954009,41.1121065,restaurant,,Saraishte,balkan;italian,,,,,,,,,,,,,,,,,,,,,,,,,,
20.7957353,41.112082,drinking_water,,,,,,,,,,,,,,,,,,,,,,,,,,,,,
20.7957462,41.1121126,drinking_water,,,,,,,,,,,,,,,,,,,,,,,,,,,,,
20.7967146,41.1118183,cafe,Kadmo bar,,,,,,,,,,,,,,,,,,,,,,,,,,,,
20.7969483,41.1118507,restaurant,Dalga,,,,,,,,Dalga,,,,,,,,,,,,,,,,,,,,
20.7934666,41.1148473,restaurant,Гладиатор,Gladiator,,,,,,,,,,,,,,,,,,,,,,,,,,,
20.7946414,41.1150882,drinking_water,,,,,,,,,,,,,,,,,,,,,,,,,,,,,
20.7971991,41.1118551,restaurant,,Terrazza Aquarius,,,,,,,,,,,,,,,,,,,,,,,,,,,
20.7971539,41.1118748,restaurant,,Noa,balkan;italian,,,wlan,,,,,,,,,,,,,,,,,,,,,,,
20.7980562,41.1121475,restaurant,Pizza Aleksandrija,,,,,,,,,,,,,,,,,,,,,,,,,,,,
20.7982792,41.112178,restaurant,Порта,Porta,,,,,,,Порта,,,,,,,,,,,,,,,,,,,,
20.7972577,41.1124024,restaurant,Ресторан Антико,,,,,,,,,,,,,,,,,,,,,,,,,,,,
20.798032,41.1124235,restaurant,Kaj Ksantani Restaurant,,,,,wlan,,,,,,,,,,,,,,,,,,,,,,,
20.7981623,41.1122361,restaurant,НЕМО Пица Александриа,NEMO Pizza Aleksandrija,italian_pizza,Цар Самоил,6000,wlan,Su-Th 09:00-00:00; Fr-Sa 09:00-01:00,,,,,,,+389 46 253 355,,http://www.pizzanemo.com,,,,,contact@pizzanemo.com,,,,,,,,
20.7987652,41.1126257,restaurant,,Lihnidos,,,,,,,,,,,,,,,,,,,,,,,,,,,
20.798737,41.1126873,fast_food,,,,,,,,,,,,,,,,,,,,,,,,,,,,,
20.799048,41.1129098,cafe,ВЛАДИ,,,,,,,,,,,,,,,,,,,,,,,,,,,,
20.7990978,41.1129743,cafe,Instinct,,,,,,,,,,,,,,,,,,,,,,,,,,,,
20.799142,41.1130197,cafe,Slavica Kafe,,,,,,,,,,,,,,,,,,,,,,,,,,,,
20.7992077,41.1130834,cafe,Galerija,,,,,,,,,,,,,,,,,,,,,,,,,,,,
20.7992346,41.1131208,cafe,Milenium,,,,,,,,,,,,,,,,,,,,,,,,,,,,
20.7995188,41.1131665,cafe,Dva Bisera,,,,,,,,,,,,,,,,,,,,,,,,,,,,
20.799568,41.1133047,restaurant,Letnica Kitchen & Bar,,,,,,,,,,,,,,,,,,,,,,,,,,,,
20.7996516,41.113377,bar,,Shilla,,,,wlan,,,,,,,,,,https://www.facebook.com/ShillaCoffeeBar/,,,,,,,,,,,,,
20.8001818,41.1121042,drinking_water,,,,,,,,,,,,,,,,,,,,,,,,,,,,,
20.801555,41.1119481,restaurant,Ривиера,Riviera,,,,,,,,,,,,,,,,,,,,,,,,,,,
20.7998658,41.1127888,fast_food,Гиро Летница,Giro Letnica,,,,,,,,,,,,,,,,,,,,,,,,,,,
20.8011769,41.1123103,restaurant,Белведере,Belvedere,regional,,,,,,,outside,,,,,,,,,,,,,,,,,,,
20.8001299,41.1135504,fast_food,Pink Panter,,,,,,,,,,,,,,,,,,,,,,,,,,,,
20.801058,41.1135786,cafe,Cafe Experience,,,,,,,,,,,,,,,,,,,,,,,,,,,,
20.8021988,41.1124655,cafe,Mojito,,,,,,,,,,,,,,,,,,,,,,,,,,,,
20.8022889,41.1127338,fast_food,,,,,,,,,,,,,,,,,,,,,,,,,,,,,
20.8023447,41.1127823,cafe,,,,,,,,,,,,,,,,,,,,,,,,,,,,,
20.7997775,41.1137008,fast_food,Burger Station,,,,,,,,,,,,,,,,,,,,,,,,,,,,
20.800047,41.11542,restaurant,Pizzeria Americano,,italian,,,wlan,,,,outside,yes,,,,,,,,,,,,,,,,,,
20.8006878,41.1150114,pub,Irish Pub,,,Македонски Просветители,6000,,,Охрид,,,,1,,,,,,,,,,,,,,,,,
20.8012066,41.1156043,restaurant,Macedonska Sofra,,,,,,,,,,,,,,,,,,,,,,,,,,,,
20.800088,41.115966,restaurant,,,,,,,,,,,,,,,,,,,,,,,,,,,,,
20.8003611,41.1159894,drinking_water,,,,,,,,,,,,,,,,,,,,,,,,,,,,,
20.8027449,41.1126013,bar,Connect,,,,,,,,,,,,,,,,,,,,,,,,,,,,
20.8026136,41.1140172,restaurant,Фopтунa,Fortuna,regional,Димитар Влахов,6000,,Mo-Su 07:00-24:00,Охрид,,outside,,20a,,,,,,,,,,,,,,,,,
20.7985841,41.1169309,restaurant,Exclusive Art Cuisine,Exklusive Art Cuisine,,,,,,,Exklusive Art Cuisine,,,,,,,,,,,,,,,,,,,,
20.7984934,41.116952,cafe,Çajtorja Luan,Cafe Luan,,,,,,,Çajtorja Luan,,,,,,,,,,,,,,,,,,,,
20.7986796,41.1168867,restaurant,Brioni 2008,Brioni 2008,,,,,,,Brioni 2008,,,,,,,,,,,,,,,,,,,,
20.7992364,41.1166966,restaurant,,Adana II,regional,,,wlan,,,,,,,,,,,,,,,,,,,,,,,
20.7990387,41.1180922,fast_food,City Chicken,,,,,,,,,,,,,,,,,,,,,,,,,,,,
20.799258,41.1179637,drinking_water,,,,,,,,,,,,,,,,,,,,,,,,,,,,,
20.8002909,41.116341,restaurant,Meydan,,,,,,,,,,,,,,,,,,,,,,,,,,,,
20.8006074,41.1163875,restaurant,,,,,,,,,,,,,,,,,,,,,,,,,,,,,
20.8011081,41.1166205,restaurant,Dr. Falafel,,vegetarian,7 Ноември,6000,,"Mo-Sa 09:30-22:30, Su 16:00-23:00",,,,,8,,+389 77 897 167,,,,,,,,,,,,,,,
22.1818453,41.9940411,pub,Irish Pub Belfast,,,,,,,,,,,,,,,www.belfast.com.mk,,,,,,,,,,,,,
22.3576731,41.9952271,restaurant,Осоговска Куќа,Osogovska Kukja,,,,,,,,,,,,,,,,,,,,,,,,,,,
22.7108763,41.9874986,drinking_water,,,,,,,,,,,,,,,,,,,,,,,,,,,,,
22.8465255,41.9848252,drinking_water,,,,,,,,,,,,,,,,,,,,,,,,,,,,,
22.8487454,41.9858879,drinking_water,,Natural Spring,,,,,,,,,,,,,,,,,,,,,,,,,,,
21.40994,42.0047408,cafe,,,,,,,,,,,,,,,,,,,,,,,,,,,,,
21.410023,42.0053622,fast_food,Spizzicotto,,pizza,,,,,,,,,,,,yes,,,,,,,,,,,,,,
21.4101783,42.0053452,fast_food,Bon Appetit,,sandwich,,,,,,,,,,,,,,,ЈОНС-ТРОЈКА Кетеринг,,,,,,,,,,,
21.4106644,42.0053295,bar,Tesla Bar,,,,,,,,,,,,,,,,,,,,,,,,,,,,
21.4108497,42.0055031,cafe,Joy Café & Bakery,,sandwich;coffee_shop;bakery;ice_cream,Никола Тесла,1000,,,Cкoпje,,,yes,9A,,+389 2 307 6955,,https://www.facebook.com/joycafeandbakery/,,,,,,,,,,,,,
21.4145137,42.0051241,restaurant,Сокаче,Sokache,,Драган Ѓаконовски Шпато,1000,,08:00 - 00:00,Cкoпje,,,,,Sokače,,,,,,,,,,,,,,,,
21.4139237,42.0069784,cafe,,,,,,,,,,,,,,,,,,,,,,,,,,,,,
21.3056706,41.9797275,cafe,,,,,,,,,,,,,,,,,,,,,,,,,,,,,
21.316191,41.9908973,restaurant,Er & Bi,,,,,,,,,,,,,,,www.erbi.com.mk,,,,,contact@erbi.com.mk,,,,,,,,
21.3047327,42.0566059,drinking_water,,,,,,,,,,,,,,,,,,,,,,,,,,,,,
21.3069591,42.058837,drinking_water,,,,,,,,,,,,,,,,,,,,,,,,,,,,,
21.2998727,42.0706251,drinking_water,,,,,,,,,,,,,,,,,,,,,,,,,,,,,
21.3236858,42.0597023,restaurant,Старо Буре,Staro Bure,,,,,,,,,,,Staro Bure,,,,,,,,,,,,,,,,
21.2795514,42.0436939,cafe,БАМИЛА,BAMILA,chicken;burger;sandwich;grill;breakfast;kebab;tea;coffee_shop;diner;beef_bowl,Gorno Svilare,,wlan,,,БАМИЛА,,,,,,,,,Refik,,,,,,,,,,,
21.3023049,42.1455695,restaurant,Lindi,,,,,,,,,,,,,,,,,,,,,,,,,,,,
21.2984886,42.1501564,restaurant,Oslo,,,,,,,,,,,,,,,,,,,,,,,,,,,,
21.3000961,42.1491782,restaurant,Shell,,,,,,,,,,,,,,,,,,,,,,,,,,,,
21.2991401,42.154497,bar,linee addittional,,,,,,,,,,,,,,,,,,,,,linee addittional,,,,,,,
21.3027217,42.1451824,restaurant,Bleta,,,,,,,,,,,,,,,,,,,,,,,,,,,,
21.3429406,41.0115995,drinking_water,,,,,,,,,,,,,,,,,,,,,,,,,,,,,
21.3430442,41.0115023,bar,,,,,,,,,,,,,,,,,,,,,,,,,,,,,
21.34668,41.0130595,restaurant,Vavilon,,,,,,,,,,,,,,,,,,,,,,,,,,,,
21.0116539,41.0893491,cafe,Таверна Џез,Jazz Taverna,,,,wlan,,,Таверна Џез,,,,,,,,,,,,,,,,,,,,
21.0137006,41.0891028,fast_food,Сендвичара Преспа Мефо,Mefo Prespa,,,,,,,,,,,,,,,,,,,,,,,,,,,
21.0130069,41.0913864,restaurant,Стар сокак,Old sokac,,,,,,,,,,,,,,,,,,,,,,,,,,,
21.0067043,41.1085785,restaurant,Етно Куќа,,,,,,,,,,,,,,,,,,,,,,,,,,,,
20.6520247,41.5946328,restaurant,,,,,,,,,,,,,,,,,,,,,,,,,,,,,
20.6586863,41.5938633,cafe,,,,,,,,,,,,,,,,,,,,,,,,,,,,,
20.7161824,41.632758,pub,Галичко Бачило,,,,,,,,,,,,Galičko Bačilo,,,,,,,,,,,,,,,,
20.721296,41.6368854,fast_food,Трифкова Колиба,,,,,,,,,,,,Trifkova Koliba,,,,,,,,,,,,,,,,
20.7329999,41.641262,pub,Старото Бачило,,,,,,,,,,,,Staroto Bačilo,,,,,,,,,,,,,,,,
20.7362858,41.6510336,restaurant,Glamour,,,,,,,,,,,,,,,,,,,,,,,,,,,,
20.7372293,41.6492257,restaurant,,,,,,,,,,,,,,,,,,,,,,,,,,,,,
20.7296857,41.6612502,drinking_water,,,,,,,,,,,,,,,,,,,,,,,,,,,,,
20.7334682,41.661514,restaurant,,,,,,wlan,Mo-Su 08:00-01:00,,,,,,,,,,,,,,,,,,,,,,
20.7348149,41.6799268,drinking_water,,,,,,,,,,,,,,,,,,,,,,,,,,,,,
20.6885837,41.7096884,restaurant,,,,,,,,,,,,,,,,,,,,,,,,,,,,,
20.7566903,41.7010655,drinking_water,,,,,,,,,,,,,,,,,,,,,,,,,,,,,
20.756666,41.7014251,restaurant,Кај Тетка Вики,,,,,,,,,,,,,,,,,,,,,,,,,,,,
20.7573957,41.7018616,restaurant,Ресторан Мал Одмор,,,,,,,,,,,,,,,,,,,,,,,,,,,,
20.7578648,41.7024216,bar,,,,,,,,,,,,,,,,,,,,,,,,,,,,,
20.7583652,41.7030313,restaurant,,,,,,,,,,,,,,,,,,,,,,,,,,,,,
20.767546,41.7208379,drinking_water,,,,,,,,,,,,,,,,,,,,,,,,,,,,,
20.599321,41.6107279,restaurant,,,,,,,,,,,,,,,,,,,,,,,,,,,,,
20.607177,41.6226607,restaurant,House of Miyaks Ethno Restaurant,,regional;coffee_shop;sandwich;ice_cream;international;turkish;steak_house,,1254,wlan,Mo-Su 09:00-21:00,Mavrovo and Rostushe,Куќа на Мијаците,isolated,yes,,,+389 070 378 333,yes,http://kukjanamijacite.mk,yes,,,no,contact@kukjanamijacite.mk,,,,,,,,
20.9508952,41.5115542,restaurant,Atva,,regional,,,,,,,,,,,,,,,,,,,,,,,,,,
20.9502187,41.5124844,drinking_water,,,,,,,,,,,,,,,,,,,,,,,,,,,,,
20.9587583,41.5092951,cafe,Cross Roads,,,Рудничка,,,,,,,,16,,,,,,,,,,,,,,,,,
20.9578247,41.5098564,restaurant,,,,,,,,,,,,,,,,,,,,,,,,,,,,,
20.9568698,41.5109089,cafe,,,,,,,,,,,,,,,,,,,,,,,,,,,,,
20.9569188,41.5109384,bar,,,,,,,,,,,,,,,,,,,,,,,,,,,,,
20.9588224,41.5114391,cafe,,,,,,,,,,,,,,,,,,,,,,,,,,,,,
20.9588224,41.5115516,bar,,,,,,,,,,,,,,,,,,,,,,,,,,,,,
20.9594822,41.5118075,restaurant,Gallery,,italian;pizza;regional,,,,,,,,,,,,,,,,,,,,,,,,,,
20.9575994,41.5131504,fast_food,,,,,,,,,,,,,,,,,,,,,,,,,,,,,
20.9578568,41.5122184,fast_food,,,,,,,,,,,,,,,,,,,,,,,,,,,,,
20.9587779,41.5120976,fast_food,,,,,,,,,,,,,,,,,,,,,,,,,,,,,
20.9600276,41.5129834,cafe,Romanse,,,,,,,,Romansa,,,,,,,,,,,,,,,,,,,,
20.9622235,41.5126282,restaurant,,,,,,,,,,,,,,,,,,,,,,,,,,,,,
20.9632802,41.5129446,cafe,Kvadrat,Kvadrar,,,,,,,,,,,,,,,,,,,,,,,,,,,
20.9637148,41.5127808,bar,,,,,,,,,,,,,,,,,,,,,,,,,,,,,
20.9637041,41.5129174,cafe,,,,,,,,,,,,,,,,,,,,,,,,,,,,,
20.9652703,41.5131222,drinking_water,,,,,,,,,,,,,,,,,,,,,,,,,,,,,
21.3761209,42.0254423,drinking_water,,,,,,,,,,,,,,,,,,,,,,,,,,,,,
21.3963673,42.0413574,restaurant,Аликас,Alikas,,Ul Качанички пат,,,,,Аликас,,,,,,,,,,,,,,,,,,,,
20.6089416,41.0657321,bar,,,,,,,,,,,,,,,,,,,,,,,,,,,,,
20.5758597,41.0888026,bar,,,,,,,,,,,,,,,,,,,,,,,,,,,,,
20.6384606,41.0660317,bar,,,,,,,,,,,,,,,,,,,,,,,,,,,,,
20.6395201,41.0666472,restaurant,Leza,,regional,,,,,,Лежа,,,,,,,,limited,,,,,,,,,,,,
20.6400567,41.0663381,restaurant,Restorant Rrema,,,,,,,,Ресторан „Рема“,,,,,,,,,,,,,Restorant Prema,,,,,,,
20.5757957,41.0892836,bar,,,,,,,,,,,,,,,,,,,,,,,,,,,,,
20.5760601,41.0889816,bar,,,,,,,,,,,,,,,,,,,,,,,,,,,,,
20.5749461,41.0903871,bar,,,,,,,,,,,,,,,,,,,,,,,,,,,,,
20.5739587,41.0993672,bar,,,,,,,,,,,,,,,,,,,,,,,,,,,,,
20.5751593,41.0986044,drinking_water,,,,,,,,,,,,,,,,,,,,,,,,,,,,,
20.6276204,41.1378541,drinking_water,,Drinking water,,,,,,,,,,,,,,,,,,,,,,,,,,,
20.6499422,41.1438939,drinking_water,,,,,,,,,,,,,,,,,,,,,,,,,,,,,
20.6512188,41.151185,restaurant,,Galija,fish,,,,,,,,,,,,,,,,,,,,,,,,,,
20.804929,41.0035617,restaurant,Бане 2,Bane 2,,,,,,,,,,,,,,,,,,,,,,,,,,,
20.8197886,41.0270117,drinking_water,,,,,,,,,,,,,,,,,,,,,,,,,,,,,
20.8663458,41.0272506,drinking_water,,,,,,,,,,,,,,,,,,,,,,,,,,,,,
20.8031982,41.0459402,restaurant,Dva Bisera,,Spécialités_Locales,,,,,,,,,,,,,,,,,,,,,,,,,,
20.8023035,41.0613241,restaurant,,,,,,,,,,,,,,,,,,,,,,,,,,,,,
20.8012888,41.0653986,restaurant,,,,,,,,,,,,,,,,,,,,,,,,,,,,,
20.8009009,41.0666434,restaurant,Granit,,,,,wlan,,,,,,,,+389 46207100,,http://www.hotelgranit.com.mk,,,,no,reservation@hotelgranit.com.mk,,,,,,,,
20.8125826,41.0544299,restaurant,Terasa Utarna,,,,,,,,,,,,,,,,,,,,,,,,,,,,
20.8142337,41.0514529,drinking_water,,,,,,,,,,,,,,,,,,,,,,,,,,,,,
20.814032,41.0611406,drinking_water,,,,,,,,,,,,,,,,,,,,,,,,,,,,,
20.8016787,41.0678423,restaurant,Prestol,,,,,wlan,07:00-21:00,,,,,,,+389 46277858,,http://www.hotelprestol.com,,,,no,,,,,,,,,
20.8016318,41.076418,restaurant,Македонска куќа,,,,,,,,,,,,,,,,,,,,,,,,,,,,
20.8235871,41.0789861,drinking_water,,,,,,,,,,,,,,,,,,,,,,,,,,,,,
20.8281268,41.0835755,drinking_water,,,,,,,,,,,,,,,,,,,,,,,,,,,,,
20.799108,41.0902867,restaurant,БИЧ ЕНД ЛОУНЏ ЏОВАНИ,Giovani Beach Lounge Bar,,Naum Ohridski,,wlan,Mo-Sa 08:00-01:00; Su 09:00-00:00,,БИЧ ЕНД ЛОУНЏ ЏОВАНИ,,,10A,,070230030,,,,,,,beachgiovani@gmail.com,,,,,,,,
20.8003063,41.0925073,pub,,,,,,,,,,,,,,,,,,,,,,,,,,,,,
20.8411339,41.0763387,drinking_water,Горни Студенец,,,,,,,,,,,,Gorni Studenec,,,,,,,,,,,,,,,,
21.4330638,41.9855468,fast_food,Go Get Burger,,,,,,,,,,,,,,,,,,,,,,,,,,,,
21.4313196,41.98705,fast_food,four seasons,,pizza,,,,,,,,,,,,,,,,,,,,,,,,,,
21.4368796,41.9869006,restaurant,иВ,iV,,,,,,,,,,,,,,,,,,,,,,,,,,,
21.4375301,41.98567,fast_food,,,,,,,,,,,,,,,,,,,,,,,,,,,,,
21.4365756,41.9871974,restaurant,Makedonska sofra,,,Јужен Булевар,,wlan,Mo-Sa 08:00-01:00,,,,,,,078929010,,,,,,,,,,,,,,,
21.4223968,41.9914096,fast_food,,,,,,,,,,,,,,,,,,,,,,,,,,,,,
21.4223088,41.9916485,restaurant,Gostilnica Gurman,guest house Gurman,,,1000,wlan,Mo-Su 07:00-22:00,,,,,,,023176200,,,,,,,ristovskidac@yahoo.com,,,,,,,,
21.4231542,41.9917018,restaurant,Dal Fufo - Galija,,,,,,,Скопје,,,,,,,,,,,,,,,,,,,,,
21.4230113,41.9948604,cafe,AMG,,,,,,,,,,,,,,,,,,,,,,,,,,,,
21.4232268,41.9948867,cafe,Benneton,,,,,,,,,,,,,,,,,,,,,,,,,,,,
21.4230134,41.9958526,cafe,New Age,,,,,,,,,,,,,,,,,,,,,,,,,,,,
21.4228991,41.9972228,restaurant,,,,,,,,,,,,,,,,,,,,,,,,,,,,,
21.4245254,41.9947645,restaurant,Pastel Wine & Dine,Pastel Wine & Dine,international,Булевар Климент Охридски,,wlan,Mo-Fr 06:30-21:00; Sa 06:30-17:00; Su 06:30-16:00,Cкoпje,,outside,,66,,+389 2 3214447,yes,http://pastel.mk/,yes,,MK,no,,,Skopje,Kliment Ohridski Boulevard,,,,,
21.4238539,41.9952491,fast_food,Burger Friends,,burger,Митрополит Теодосиј Гологанов,1000,,,Cкoпje,,,,28,,,only,http://www.burgerfriends.mk/,,,MK,,,,Skopje,,,,,,
21.424583,41.9965778,fast_food,American best burger,,,,,,,,,,,,,,,,,,,,,,,,,,,,
21.4253358,41.9955693,cafe,Стрип,,,Димитрија чуповски,,,,,,,,24,,,,,,,,,,,,,,,,,
21.425567,41.9955107,fast_food,Domino's Pizza,,pizza,Димитрие Чуповски,1000,,Mo-Su 10:00-24:00,Cкoпje,,,yes,26,,,yes,,,,,,,,,,,,,,yes
21.4233514,41.9970085,cafe,,,,,,,,,,,,,,,,,,,,,,,,,,,,,
21.4238695,41.9975168,fast_food,,,,,,,,,,,,,,,,,,,,,,,,,,,,,
21.4239699,41.9981195,pub,Паб Порта,Pub Porta,,Булевар Партизански Одреди,1000,,"Mo-Th 09:00-00:00, Fr-Sa 09:00-01:00",Cкoпje,,isolated,yes,21/A2-1,,,,,,,,,,,,,,,,,
21.4239494,41.9982041,fast_food,,,,,,,,,,,,,,,,,,,,,,,,,,,,,
21.4244255,41.9980418,cafe,,,,,,,,,,,,,,,,,,,,,,,,,,,,,
21.4238693,41.9988648,restaurant,,BistRaw,vegan,,,,Mo-Fr 12:00-20:00,,,,,,,,,,,,,,,,,,,,,,
21.4236496,41.9990664,restaurant,Gostilnica Estel,,kebab,,,,,,,,yes,,,,,,,Estel,,,,,,,,,,,
21.4242861,41.9987593,cafe,,7 Grama Espresso Studio,,,,,,,,,,,,,,,,,,,,,,,,,,,
21.4253762,41.9986406,cafe,Винил,Vinyl,,Булевар Партизански Одреди,1000,,,Cкoпje,,,,14,,,,https://www.facebook.com/vinylmk/,,,,,,,,,,,,,
21.4254663,41.998844,drinking_water,,,,,,,,,,,,,,,,,,,,,,,,,,,,,
21.4237032,42.0000584,fast_food,Пемпеле,Pempele's Pizza,,,,,,,,,,,,,yes,http://www.pizzapempele.mk,,,,,,,,,,,,,yes
21.4252581,42.0001581,restaurant,Бруклински,Bruklinski,,Орце Николов,,,,Скопје,,separated,yes,75,Brukilnski,+389 2 6091844,,,limited,,MK,,,,Skopje,Orce Nikolov,,,,,
21.4268596,42.0003611,fast_food,Жито Леб,,,,,,,,,,,,,,,,,,,,,,,,,,,,
21.4268797,42.0007066,bar,Thirio,,,Булевар Илинден,,,,,,,,38,,,,,,,,,,,,,,,,,
21.4239655,42.0028235,restaurant,Костарика,Kostarika,,,,,,,,,,,,,,,,,,,,,,,,,,,
21.4240111,42.0028813,restaurant,Старо Скупи,Staro Skupi,,,,,,,,,,,,,,,,,,,,,,,,,,,
21.4240218,42.0030128,restaurant,Занзибар,Zanzibar,pizza,,,,,,,,,,,,,,,,,,,,,,,,,,
21.4242333,42.003366,restaurant,Калабалак,Kalabalak,,,,,,,,,,,,,,,,,,,,,,,,,,,
21.4280925,42.0039853,restaurant,Парк,Park,,,,,,,,,,,,,,,,,,,,,,,,,,,
21.427293,42.0059792,restaurant,Four,,international;italian;fish,,,wlan,,,,outside,yes,,,,,,,Hotel Park Spa,,no,,,,,,,,,
21.4264446,42.0068068,bar,Bar Reka,,,,,,,,,,,,,,,,,,,,,,,,,,,,
21.4273688,42.0062927,bar,Брик бар,BRICK Bar,,ул.1732,1000,,Mon - Sun: 09:00 - 01:00,Cкoпje,,,,бр.4,,,,,,,,,,,,,,,,,
21.4280517,41.9858428,drinking_water,,,,,,,,,,,,,,,,,,,,,,,,,,,,,
21.4260361,41.9907255,cafe,Coffee O'Clock,,,,,,,,,,,,,,,,,,,,,,,,,,,,
21.4276864,41.9913338,restaurant,Star Ocean,,,,,,,,,,,,,,,,,,,,,,,,,,,,
21.4280088,41.9913688,restaurant,Бифиња - Рамстор,Food Court Ramstore,,,,,,,,,,,,,,,,,,,,,,,,,,,
21.4279999,41.9915759,fast_food,Burger King,,,,,,,,,,,,,,,,,,,,,,,,,,,,
20.9059889,41.7926372,cafe,Кафе Клуб 97,Cafe Club 97,,,1230,,,,,,,,,,,,,,,,,,,,,,,,
20.9049674,41.8009922,cafe,Dani,,,,,,,,,,,,,,,,,,,,,,,,,,,,
20.9082428,41.7922445,restaurant,,,,,,,,,,,,,,,,,,,,,,,,,,,,,
20.9080722,41.7932482,bar,Loune Bar Fantastica,,,,,wlan,24/7,,,,,,,,,,,,,,,,,,,,,,
20.9090036,41.7928399,restaurant,Familijar Restaurant,Family Restaurant,,,,,,,,,,,,,,,,,,,,,,,,,,,
20.9079995,41.7939504,cafe,Liquid,,,,,,,,,,,,,,,,,,,,,,,,,,,,
20.9103122,41.7926594,cafe,Kaçamaku,,,,,wlan,Mo-Su 10:00-01:00,,Kaçamaku,,,,,,,,,,,,,Kaçamaku,,,,,,,
20.9113126,41.7929887,cafe,Чајџилница кај Гоце ,,,Димитар Влахов,,,24/7,,,,,2,,,,,,,,,,,,,,,,,
20.9094352,41.7954918,drinking_water,,,,,,,,,,,,,,,,,,,,,,,,,,,,,
20.9135714,41.798662,fast_food,Happy M grill,,,,,wlan,Mo-Su 09:00-02:00,,,,,,,,,,,,,,,,,,,,,,
20.8982089,41.8060047,cafe,Чајџилница кај Басто,,,Млаки 2,,,24/7,,,,,,,,,,,,,,,,,,,,,,
21.3146943,41.7865161,drinking_water,,,,,,,,,,,,,,,,,,,,,,,,,,,,,
21.4237345,41.7918174,restaurant,Планинарски дом Караџица,,,,,,,,,,,,,,,,,,,,,,,,,,,,
21.6880899,41.8285421,drinking_water,,,,,,,,,,,,,,,,,,,,,,,,,,,,,
20.8892639,41.7940598,ice_cream,,Gelateria--GARDEN,,,,,,,,,,,,,,,,,,,,,,,,,,,
20.8894169,41.7940939,ice_cream,gelateria JIMMY,,,JNA,1230,,,,,,,,,,,,,,,,,,,,,,,,
20.8840093,41.8299622,cafe,Elfat,,,,,,,,,,,,,,,,,,,,,,,,,,,,
20.8857573,41.8413949,cafe,Nebi,,,,,,,,,,,,,,,,,,,,,,,,,,,,
20.8909686,41.8650269,cafe,Kafe Bar “Bonton”,Coffee Bar “Bonton”,,,,,,,,,,,,,,,,,,,,,,,,,,,
20.9163058,41.923353,cafe,,Passage,,102,1220,wlan,Mo-Su 05:30-00:00,,,,,,,,,,,,,,,Pasazh,,,,,,,
21.4197114,41.9898526,cafe,,,,,,,,,,,,,,,,,,,,,,,,,,,,,
21.4197501,41.9898733,fast_food,,,,,,,,,,,,,,,,,,,,,,,,,,,,,
21.4204907,41.9904847,restaurant,Marana,,regional,,,,,Скопје,,,,,,,yes,,,,,,,,,,,,,,
21.4207515,41.9906511,fast_food,MFC - Macedonian Fried Chicken,,burger,,,,,,,,,,,,,,,,,,,,,,,,,,
21.4192046,41.9927714,cafe,Изи,Izzi,,,,,,,,,,,,,,,,,,,,,,,,,,,
21.4186412,41.9946427,cafe,,,,,,,,,,,,,,,,,,,,,,,,,,,,,
21.4207756,41.9946111,restaurant,,,,,,,,,,,,,,,,,,,,,,,,,,,,,
21.4216262,41.9951391,bar,,Brown Sugar Café & Bar,,,,,,,,,,34,,,,,,,,,,,,,,,,,
21.4188403,41.9965743,bar,,,,,,,,,,,,,,,,,,,,,,,,,,,,,
21.4199442,41.9959518,restaurant,Restoran Frosina,,local,,,,,,,,,,,,,,,,,,,,,,,,,,
22.3532041,42.0371055,restaurant,Осоговски Бисер,,regional,,,,,,,,,,,,,,,,,,,,,,,,,,
20.783355,41.1229455,drinking_water,,,,,,,,,,,,,,,,,,,,,,,,,,,,,
22.625661,41.4072696,restaurant,,,,,,,,,,,,,,,,,,,,,,,,,,,,,
22.6261197,41.4075854,drinking_water,,,,,,,,,,,,,,,,,,,,,,,,,,,,,
22.6314738,41.4370534,drinking_water,,,,,,,,,,,,,,,,,,,,,,,,,,,,,
22.6466559,41.4262687,drinking_water,,,,,,,,,,,,,,,,,,,,,,,,,,,,,
22.6328921,41.4352537,restaurant,Loven Dom,,regional,Neretva,,,,,,,,,,,,,,,,,,,,,,,,,
22.6382644,41.4372542,cafe,BU Coffee to go,,,,,wlan,,,,,,,,,,,,,,,,,,,,,,,
22.6389491,41.4389263,cafe,City Cafe,,,,,,,,,,,,,,,,,,,,,,,,,,,,
22.6389577,41.4389263,bar,Gala Live,,,,,,,,,,,,,,,,,,,,,,,,,,,,
22.6390002,41.4390286,cafe,Inside Cafe,,,,,,,,,,,,,,,,,,,,,,,,,,,,
22.6378848,41.4395247,cafe,Cafe 19,,,,,,,,,,,,,,,,,,,,,,,,,,,,
22.6377556,41.4397043,cafe,PR Cafe,,,,,,,,,,,,,,,,,,,,,,,,,,,,
22.6379105,41.4395826,fast_food,23,,,,,,,,,,,,,,,,,,,,,,,,,,,,
22.637799,41.4397692,cafe,Extreme Cafe,,,,,,,,,,,,,,,,,,,,,,,,,,,,
22.6383287,41.4403734,cafe,Conept Cafe,Concept Cafe,,,,,,,Concept Cafe,,,,,,,,,,,,,,,,,,,,
22.6390517,41.4390994,cafe,Inside Cafe,,,,,,,,,,,,,,,,,,,,,,,,,,,,
22.6481556,41.4327076,cafe,Кафе за носење - Стори,"Coffee To Go "" STORY """,,Младинска,2400,wlan,Mo-Su 08:00-00:00,,,,,165,,0038975313833,,,,,,,coffeetogostory@gmail.com,,,,,,,,
22.6452777,41.4378354,restaurant,Вкус,,regional,Гоце Делчев,,,,Струмица,,,,,,,,,,,,,,,,,,Вкус,,,
22.6490943,41.4385145,fast_food,Bakers,,,,,,,,,,,,,,,,,,,,,,,,,,,,
22.6502444,41.4392415,restaurant,Luna 2,,,,,,,,,,,,,,,,,,,,,,,,,,,,
22.6388602,41.4409617,restaurant,Salomon fud,,,,,,,,Salomon fud,,,,,,,,,,,,,,,,,,,,
22.6433683,41.4433529,restaurant,Чамовски,Chamovski,,,,,,,Чамовски,,,,,,,,,,,,,,,,,,,,
22.7549262,41.3823542,drinking_water,,,,,,,,,,,,,,,,,,,,,,,,,,,,,
22.7547196,41.3827929,restaurant,,,,,,,,,,,,,,,,,,,,,,,,,,,,,
22.755122,41.3830948,bar,,,,,,,,,,,,,,,,,,,,,,,,,,,,,
22.8068618,41.3695675,bbq,,,,,,,,,,,,,,,,,,,,,,,,,,,,,
22.7711548,41.3827719,drinking_water,,,,,,,,,,,,,,,,,,,,,,,,,,,,,
22.798482,41.3790614,restaurant,,,,,,,,,,,,,,,,,,,,,,,,,,,,,
22.812486,41.3766989,cafe,,,,,,,,,,,,,,,,,,,,,,,,,,,,,
22.8123582,41.3827043,drinking_water,,,,,,,,,,,,,,,,,,,,,,,,,,,,,
22.8155652,41.3818009,restaurant,,,,,,,,,,,,,,,,,,,,,,,,,,,,,
22.8161568,41.3816253,drinking_water,,,,,,,,,,,,,,,,,,,,,,,,,,,,,
22.819584,41.3811426,restaurant,Ресторан СОНЦЕ - Restaurant SONCE,,regional,,,,,,,,,,,,,,,,,,,,,,,,,,
22.75488,41.4167113,drinking_water,,,,,,,,,,,,,,,,,,,,,,,,,,,,,
22.705272,41.4404325,cafe,Национал,,,,,,,,,,,,,,,,,,,,,,,,,,,,
22.6153456,41.5162501,restaurant,ЈаворШпед,,,,,,,,,,,,,,,,,,,,,,,,,,,,
22.6113229,41.5197731,drinking_water,,,,,,,,,,,,,,,,,,,,,,,,,,,,,
22.6876979,41.1949131,drinking_water,Фердинанка,,,,,,,,,,,,,,,,,,,,,,,,,,,,
22.7242971,41.180711,restaurant,Нота,,fish,,,,,,,,,,,,,,,,,,,,,,,,,,
22.7219422,41.1842982,restaurant,Фук Так,,fish;grill,,,wlan,,,,,,,,,,,,,,,,,,,,,,,
22.6991213,41.2271802,restaurant,,,,,,,,,,,,,,,,,,,,,,,,,,,,,
22.9334101,41.3949925,drinking_water,,,,,,,,,,,,,,,,,,,,,,,,,,,,,
22.9390355,41.3951875,restaurant,,,,,,,,,,,,,,,,,,,,,,,,,,,,,
22.9686915,41.6570517,restaurant,,Klepalo,,,,,,,,,,,,,,,,,,,,,,,,,,,
22.9354984,41.7301724,restaurant,Дивине,Divine,,,,,,,,,,,,,,,,,,,,,,,,,,,
22.9422359,41.7297622,restaurant,Идила,Idila,,,,,,,,,,,Idila,,,,,,,,,,,,,,,,
22.9842612,41.7702564,drinking_water,,,,,,,,,,,,,,,,,,,,,,,,,,,,,
22.587663,42.0179585,restaurant,Osmica,,regional,,,,,,,,,,,,,,,,,,,,,,,,,,
22.5877841,42.0248909,restaurant,Elita,,regional,,,,,,,,,,,,,,,,,,,,,,,,,,
22.5874645,42.0255684,bbq,Restaurant Idnina,,,,,,,,,,,,,,,,,,,,,,,,,,,,
22.5914449,42.0170338,restaurant,"""Kaj Govedoto"" Restaurant",,balkan;regional,,,,,,,isolated,yes,,,,yes,,,,,,,,,,,,,,no
22.5886582,42.0178835,restaurant,Shizik Restaurant,,regional;pizza;kebab;chicken,,,,,,,outside,yes,,,,yes,,,,,,,,,,,,,,yes
22.5899229,42.0195336,restaurant,"""Koko"" Restaurant",,kebab;regional;barbecue,,,,,,,outside,yes,,,,,,,,,,,,,,,,,,yes
22.5925757,42.0178073,restaurant,Zlatina,,fish;regional,,,,,,,,,,,,,,,,,,,,,,,,,,
22.5892057,42.0218468,cafe,Delirium,,,,,wlan,Mo-Su 08:00-24:00,,,outside,yes,,,,,,,,,,,,,,,,,,
22.5890919,42.0225504,fast_food,Bumbarche,,,,,,,,,,,,,,,,,,,,,,,,,,,,
22.5893701,42.0217484,cafe,Клиф,Cliff of Moher,,,,,,,,,,,,,,,,,,,,,,,,,,,
22.5900047,42.021859,cafe,District Lounge Bar,,,,,wlan,Mo-Su 08:00-24:00,,,outside,yes,,,,,,,,,,,,,,,,,,
22.590261,42.0228743,fast_food,Jafer,,,,,,,,,,,,,,,,,,,,,,,,,,,,
22.5900747,42.0229302,bar,Hawaii Lounge Bar,,,,,,,,,outside,,,,,,,,,,,,,,,,,,,
22.5889401,42.0244107,restaurant,Шизик,,,,,,,,,,,,,,,,,,,,,,,,,,,,
20.8820185,42.0113442,restaurant,Конак,,,,,,,,,,,,,,,,,,,,,,,,,,,,
20.9426914,42.0062579,restaurant,,,,,,,,,,,,,,,,,,,,,,,,,,,,,
20.8866832,42.0138371,restaurant,casa leone,,italian,,,,,,,,,,,,,,,,,,,,,,,,,,
20.9351278,42.0189508,restaurant,Driada,,,,,,,,,,,,,,,,,,,,,,,,,,,,
22.8987305,41.3670383,drinking_water,,,,,,,,,,,,,,,,,,,,,,,,,,,,,
22.8992522,41.3690402,drinking_water,,,,,,,,,,,,,,,,,,,,,,,,,,,,,
22.90042,41.3709709,restaurant,Ресторан АтлантиС Смоларски Водопат,Restaurant AtlantiS Smolare Waterfall,fish;barbecue;local;grill,Smolare,2400,wlan,Mo-Su 10:00-22:00,,Ресторан АтлантиС Смоларски Водопат,,,,,38978314212,,http://www.atlantis.mk,,Sashko Donchovski,,,manager@atlantis.com.mk,,,,,,,,
22.9007918,41.3766637,drinking_water,,,,,,,,,,,,,,,,,,,,,,,,,,,,,
22.8968221,41.3881711,restaurant,Лебедово езеро,,,,,,,,,,,,,,,,,,,,,,,,,,,,
22.8808076,41.4126312,restaurant,,,,,,,,,,,,,,,,,,,,,,,,,,,,,
22.882079,41.4128968,restaurant,,,,,,,,,,,,,,,,,,,,,,,,,,,,,
22.8810812,41.4130818,restaurant,,,,,,,,,,,,,,,,,,,,,,,,,,,,,
22.8455594,41.7363868,drinking_water,,,,,,,,,,,,,,,,,,,,,,,,,,,,,
22.8383014,41.7381241,cafe,miss Stoun,,,,,,,,,,,,,,,,,,,,,,,,,,,,
22.85985,41.70396,restaurant,Ристово Меанче 2,Ristovo Meanche 2,,,,,,,,,,,,,,,,,,,,,,,,,,,
22.8645,41.69802,restaurant,Мило,Milo,,,,,,,,,,,,,,,,,,,,,,,,,,,
22.8569192,41.7060133,cafe,,,,,,,,,,,,,,,,,,,,,,,,,,,,,
22.8568848,41.706135,cafe,,,,,,,,,,,,,,,,,,,,,,,,,,,,,
22.85717,41.70471,restaurant,Мрс,Mrs,,,,,,,,,,,,,,,,,,,,,,,,,,,
22.8570994,41.7060838,cafe,,,,,,,,,,,,,,,,,,,,,,,,,,,,,
22.8581787,41.7058839,restaurant,Чардак,Cardak,balkan,Страшо Пинџур,,wlan,,,Чардак,,,,,+38978465474,,http://www.cardak.mk,,,,,info@cardak.mk,,,,,,,,
22.8570737,41.7062055,cafe,,,,,,,,,,,,,,,,,,,,,,,,,,,,,
22.86112,41.70425,pub,Јуовец,Juovec,,,,,,,,,,,,,,,,,,,,,,,,,,,
22.8525277,41.7103402,bar,Калипсо,Kalipso,,,,,,,,,,,,,,,,,,,,,,,,,,,
22.8869357,41.7619502,restaurant,Хотел Гогов,Hotel Gogov,,,,,,,,,,,,,,,,,,,,,,,,,,,
22.4988477,41.1373679,restaurant,Restoran Sarisa,,regional,Маршал Тито,,,,Гевгелија,,,,193,,+389 78717607,,,,,,,,,,,,,,,
22.4963093,41.1622759,restaurant,Јавор Агапи,Javor Agapi,,,,,,,,,,,Javor Agapi,,,,,,,,,,,,,,,,
22.5026472,41.1399706,drinking_water,,,,,,,,,,,,,,,,,,,,,,,,,,,,,
22.50221,41.1407806,drinking_water,,,,,,,,,,,,,,,,,,,,,,,,,,,,,
22.5037713,41.1404895,restaurant,,,,,,,,,,,,,,,,,,,,,,,,,,,,,
22.5047905,41.140319,cafe,Арт кафе Гевгелија,Art Kafe Gevgelija,,,,,,,Арт кафе Гевгелија,,,,,,,,,,,,,,,,,,,,
22.5015157,41.141866,restaurant,,,,,,wlan,Mo-Su 09:00-01:00,,,,,,,,,,,,,,,,,,,,,,
22.5004906,41.1429058,restaurant,,,,,,,,,,,,,,,,,,,,,,,,,,,,,
22.5008587,41.1426925,restaurant,,,,,,,,,,,,,,,,,,,,,,,,,,,,,
22.5034378,41.1414088,restaurant,Идила,Idila,,,,wlan,,,,,,,,,,,,,,,,,,,,,,,
22.5105141,41.1426813,drinking_water,,,,,,,,,,,,,,,,,,,,,,,,,,,,,
22.5006463,41.1458606,drinking_water,,,,,,,,,,,,,,,,,,,,,,,,,,,,,
22.5011779,41.146047,restaurant,ТДЦ-3,,,,,,,,,,,,,,,,,,,,,,,,,,,,
22.5088216,41.1479268,drinking_water,,,,,,,,,,,,,,,,,,,,,,,,,,,,,
22.5122122,41.1439034,drinking_water,,,,,,,,,,,,,,,,,,,,,,,,,,,,,
22.5224464,41.147343,restaurant,,,,,,,,,,,,,,,,,,,,,,,,,,,,,
22.504514,41.1651247,restaurant,Јавор Џоко,Javor Dzhoko,,,,,,,,,,,Javor Džoko,,,,,,,,,,,,,,,,
21.472086,41.9827451,drinking_water,,,,,,,,,,,,,,,,,,,,,,,,,,,,,
21.4725098,41.9824716,restaurant,Pizza Amica,,,,,,,,,,,,,,,,,,,,,,,,,,,,
21.4711307,41.9830723,bar,Coffeelix,,coffee_shop,Булевар Јане Сандански,1000,,Mo-Su 09:00-00:00,,,,,,,,,,,,,,,,,,,,,,
21.470952,41.984095,drinking_water,,,,,,,,,,,,,,,,,,,,,,,,,,,,,
21.4742918,41.9793307,drinking_water,,,,,,,,,,,,,,,,,,,,,,,,,,,,,
21.4755231,41.9811549,fast_food,Royal Burger,,burger,Булевар Видое Смилевски Бато,1000,,,Skopje,,outside,,55,,,yes,,,,,,,,,,,,,,yes
21.4755669,41.9799593,bar,Игротека Be Happy,,,,,,,,,,,,,,,,,,,,,,,,,,,,
21.477457,41.9807959,drinking_water,,,,,,,,,,,,,,,,,,,,,,,,,,,,,
21.4728692,41.9832734,drinking_water,,,,,,,,,,,,,,,,,,,,,,,,,,,,,
21.4762981,41.9815558,bar,Игротека Чекорче,,,,,,,,,,,,,,,,,,,,,,,,,,,,
21.4730837,41.986839,drinking_water,,,,,,,,,,,,,,,,,,,,,,,,,,,,,
21.4767981,41.9846972,drinking_water,,,,,,,,,,,,,,,,,,,,,,,,,,,,,
21.4730033,41.9882027,drinking_water,,,,,,,,,,,,,,,,,,,,,,,,,,,,,
21.4749784,41.9881751,drinking_water,,,,,,,,,,,,,,,,,,,,,,,,,,,,,
21.4758817,41.9894222,cafe,Кафе Мамбо,,,,,,,,,,,,,,,,,,,,,,,,,,,,
21.4768613,41.9897212,cafe,Кафе Писта,,,,,,,,,,,,,,,,,,,,,,,,,,,,
21.4826074,41.9788465,restaurant,Ресторан Златник,,,,,,,,,,,,,,,,,,,,,,,,,,,,
21.4801551,41.9821779,drinking_water,,,,,,,,,,,,,,,,,,,,,,,,,,,,,
21.4808444,41.9837709,restaurant,Segreto Plus,,,,,,,,,,,,,,,,,,,,,,,,,,,,yes
21.4813353,41.9832426,drinking_water,,,,,,,,,,,,,,,,,,,,,,,,,,,,,
21.4868617,41.9834046,bar,Игротека Вини Пу,Grafikaprint,,Тодор Чангов 41,1000,,Mo-Fr 09:00-18:00,,Графикапринт,,,43,,,,http://www.grafikaprint.mm,,,,,info@grafikaprint.mk,,,,,,,,
21.4798923,41.9860857,drinking_water,,,,,,,,,,,,,,,,,,,,,,,,,,,,,
21.4871492,41.9843967,restaurant,Рибен ресторан Рибар (Одисеја),,fish,,,,,,,,,,,,,,,,,,,,,,,,,,
21.3722969,42.0071574,cafe,Badu,,,,,,,,,,,,,,,,,,,,,,,,,,,,
21.3740403,42.0063483,restaurant,Aleksandrija,,,,,,,,,,,,,,,,,,,,,,,,,,,,
21.3741187,42.0065185,restaurant,62,,regional,,,,,,,,,,At 62,,,,,,,,,,,,,,,,
21.8645555,42.1324603,restaurant,Fratelis,,fish,,,,,,,,,,,,,,,,,,,,,,,,,,
21.8626404,42.1574387,restaurant,Етно Село,Etno Village,regional,,,,,,,,,,Etno Selo,,,,,,,,,,,,,,,,
22.1898092,41.7408418,fast_food,,,,,,,,,,,,,,,,,,,,,,,,,,,,,
22.1905697,41.744575,cafe,,,,,,,,,,,,,,,,,,,,,,,,,,,,,
22.1926393,41.7427284,cafe,Angel's Caffe,,,,,,,,,,,,,,,,,,,,,,,,,,,,
22.4462291,41.7887361,drinking_water,,,,,,,,,,,,,,,,,,Терзелиска Чешма,,,,,,,,,,,
22.4235397,41.7972973,drinking_water,,,,,,,,,,,,,,,,,,,,,,,,,,,,,
22.6230389,41.8339517,restaurant,Ribnik Blatec,,,,,,,,,,,,,,,,,,,,,,,,,,,,
22.624069,41.833525,restaurant,,,,,,,,,,,,,,,,,,,,,,,,,,,,,
22.1834072,41.735007,drinking_water,Ридарска чешма,,,,,,,,,,,,,,,,,,,,,,,,,,,,
22.1844523,41.7350696,drinking_water,Чешма “Св.Спас“,,,,,,,,,,,,,,,,,,,,,,,,,,,,
22.1762339,41.7531208,cafe,,,,,,,,,,,,,,,,,,,,,,,,,,,,,
22.4239825,41.5673231,drinking_water,,,,,,,,,,,,,,,,,,,,,,,,,,,,,
22.44631,41.629596,restaurant,Magmar,,barbecue,,,,,,,no,no,,,,,,,,,,,,,,no,,no,,
22.455839,41.632766,bar,Diamond disco,,,,,,,,,,,,,,,,,,,,,,,,,,,,
22.456789,41.633895,restaurant,Santa Maria pizza,,italian,,,,,,,,,,,,,,,,,,,,,,,,,,
22.464019,41.63414,restaurant,Gone,,barbecue,,,no,,,,no,no,,,,yes,,yes,,,no,,,,,no,,no,no,
22.464331,41.632865,fast_food,,,burger,,,no,,,,,,,,,,,,,,no,,,,,no,,,,
22.46449,41.633496,restaurant,Sopka,,barbecue,,,no,,,,no,yes,,,,yes,,,,,no,,,,,no,,no,no,
22.4648163,41.6341662,cafe,Coffe House Downtown,,,,,wlan,,,,outside,yes,,,,,,,,,no,,,,,,,,,
22.465724,41.634656,restaurant,Vrteska,,barbecue,Самуилова,2420,no,,Radovis,,no,no,,,,no,,no,,MK,no,,,,,no,,no,no,
22.46373,41.635577,restaurant,,,barbecue,,,no,,,,no,no,,,,yes,,no,,,no,,,,,no,,no,no,
22.462943,41.636566,restaurant,Karagjoz,,barbecue,,,,,,,no,yes,,,,yes,,limited,,,,,,,,no,,no,no,
22.461848,41.637946,fast_food,Fast Food Melani,,burger,,,wlan,,,,,,,,,,,yes,,,yes,,,,,no,,,,
22.462999,41.636975,cafe,Virus,,coffee_shop,22 Октомври,2420,wlan,,Radovis,,no,yes,,,,no,,no,,MK,yes,,,,,,,,,
22.463272,41.637611,restaurant,Makedonsko Sonce,,regional,,,no,,,,no,no,,,,yes,,,,,no,,,,,no,,no,no,
22.465528,41.637782,restaurant,Lipa,,barbecue,,,no,,,,no,yes,,,,yes,,,,,no,,,,,no,,no,no,
22.4698529,41.6337176,restaurant,Restoran Shampion,,,,,,,,,,,,,,,,,,,,,,,,,,,,
22.460143,41.639155,cafe,Escape,,coffee_shop,,,wlan,,,,no,yes,,,,no,,no,,,no,,,,,,,,,
22.460403,41.638283,restaurant,,,barbecue,,,no,,,,no,no,,,,yes,,,,,no,,,,,no,,no,no,
22.461401,41.638261,cafe,Ti-Amo,,coffee_shop,Коста Сусинов,2420,wlan,,Radovis,,no,yes,,,,no,,limited,,MK,yes,,,,,,,,,
22.461327,41.639065,restaurant,Beverli hils,,barbecue,,,,,,,no,no,,,,yes,,,,,,,,,,no,,no,no,
22.460188,41.639759,restaurant,Target,,italian,Ана Поцкова,2420,,,Radovis,,no,yes,,,,no,,no,,MK,,,,,,no,,no,no,
22.461378,41.640184,restaurant,Getsbi pizza,,italian,Кеј 8ми Септември,2420,,,Radovis,,no,yes,,,,yes,,no,,MK,,,,,,no,,,no,
22.460412,41.640957,restaurant,Jocker pizza,,italian,Кеј 8ми Септември,2420,wlan,,Radovis,,no,yes,,,,yes,,no,,MK,yes,,,,,no,,no,no,
22.46164,41.638201,fast_food,Grill Melani,,burger,22 октомври,2420,no,,,,,,,,,,,yes,,MK,no,,,,,no,,,,
22.462186,41.639133,restaurant,Sona,,barbecue,,,no,,,,no,yes,,,,yes,,,,,no,,,,,no,,no,no,
22.462199,41.63925,restaurant,Lastik,,barbecue,,,,,,,no,no,,,,yes,,,,,,,,,,,,no,,
22.46306,41.638767,restaurant,Maslac,,barbecue,,,no,,,,no,yes,,,,yes,,,,,no,,,,,no,,no,no,
22.46373,41.63951,restaurant,,,barbecue,,,wlan,,,,no,no,,,,yes,,,,,no,,,,,no,,no,no,
22.004638,41.4347168,restaurant,Moskva,,,,,,,,,,,,,,,,,,,,,,,,,,,,
22.0082761,41.434568,drinking_water,,,,,,,,,,,,,,,,,,,,,,,,,,,,,
22.0116142,41.4331716,restaurant,Aleksandrija,,regional,,,,,,,,,,,,,,,,,,,,,,,,,,
22.0130335,41.4327641,restaurant,Buki,,,,,,,,,,,,,,,,,,,,,,,,,,,,
22.0117213,41.4336468,pub,Toskano,,,,,,,,,,,,,,,,,,,,,,,,,,,,
22.0116563,41.4341433,fast_food,Marilyn,,,,,,,,,,,,,,,,,,,,,,,,,,,,
22.0116649,41.4348833,bar,Energi's,,,,,,,,,,,,,,,,,,,,,,,,,,,,
22.0136796,41.4337258,restaurant,Makedonska Kuka,,regional,,,,,,,,,,,,,,,,,,,,,,,,,,
22.0137691,41.4339698,fast_food,Fast Food,,burger,,,,,,,,,,,,,,,,,,,,,,,,,,
22.0143629,41.4332378,bar,Kaj Roka,,,,,,,,,,,,,,,,,,,,,,,,,,,,
22.0157848,41.4345938,fast_food,Marilyn,,,,,,,,,,,,,,,,,,,,,,,,,,,,
22.0110054,41.4362719,drinking_water,,,,,,,,,,,,,,,,,,,,,,,,,,,,,
22.0110601,41.437027,cafe,Roma,,,,,,,,,,,,,,,,,,,,,,,,,,,,
22.0110153,41.4372049,cafe,Total,,,,,,,,,,,,,,,,,,,,,,,,,,,,
22.0104295,41.4398268,cafe,Picaso,,,,,,,,,,,,,,,,,,,,,,,,,,,,
22.0113116,41.4358281,cafe,Лего,Lego,,Илинденска,1430,,,,Лего,,,42,,,,,,,,,,,,,,,,,
22.0131384,41.4352466,cafe,Blue Cafe,,,,,,,,,,,,,,,,,,,,,,,,,,,,
22.0333387,41.397022,restaurant,Tropic,,,,,,,,,,,,,,,,,,,,,,,,,,,,
22.0167719,41.4343878,cafe,Light Cofee,,,,,,,,,,,,,,,,,,,,,,,,,,,,
22.0204395,41.4344573,restaurant,,,,,,,,,,,,,,,,,,,,,,,,,,,,,
22.0215553,41.4347276,restaurant,Brioni,,,,,,,,,,,,,,,,,,,,,,,,,,,,
22.0228438,41.4334495,restaurant,Винска Куќа,,regional,,,,,,,,,,Wine House,,,,,,,,,,,,,,,,
22.0187521,41.4389417,restaurant,Moneta,,,,,,,,,,,,,,,,,,,,,,,,,,,,
22.0096102,41.4410295,restaurant,Exclusive,,,,,,,,,,,,,,,,,,,,,,,,,,,,
22.0111128,41.4412564,restaurant,Kico,,,,,,,,,,,,,,,,,,,,,,,,,,,,
22.0115107,41.4412063,restaurant,Ramazzoti,,,,,,,,,,,,,,,,,,,,,,,,,,,,
22.0121336,41.4411582,restaurant,Spandja,,,,,,,,,,,,,,,,,,,,,,,,,,,,
22.0135418,41.4407867,restaurant,Riben restorant,,,,,,,,,,,,,,,,,,,,,,,,,,,,
21.9409117,41.7885089,drinking_water,,,,,,,,,,,,,,,,,,,,,,,,,,,,,
22.3059103,42.1902652,restaurant,Борче,,regional,Konopnica,,,,Крива Паланка,,,,,,,,,,,,,,,,,,с.конопница,,,
22.3089155,42.192289,restaurant,Облаче,,regional,,1330,,,Kriva Palanka,,,,,,,,,,,,,,,,,,,,,
22.3298813,42.1994853,restaurant,,Ellite Pizza,pizza,,,wlan,,,,,,,,,,,,,,,,,,,,,,,
22.3330151,42.1999158,bar,,,burger;fish;breakfast;hotdog;ice_cream;cake;coffee_shop;balkan;chicken;fish_and_chips;diner;barbecue,,,wlan,,,,,,,,,,,,,,,,,,,,,,,
22.3345505,42.2018022,bbq,Promes Grill,,,Свети Јоаким Осоговски,1330,,,Kriva Palanka,Промер Грил,,,,,,,,,,,,,,,,,,,,
22.3355446,42.2022003,cafe,Select Caffe,,,Joakim Osogovski,1330,wlan,Mo-Su 08:00-01:00,Kriva Palanka,,isolated,,,,,,,,,,,,,,,,,,,
22.335623,42.2026632,restaurant,Аквариум,Akvarium,,Свети Јоаким Осоговски,,wlan,24/7,,,,,,,,,,,,,,,,,,,,,,
22.3355793,42.2027771,restaurant,Restaurant Osogovec,,regional,Marshal Tito,1330,,,Kriva Palanka,ресторант осоговец,isolated,terrace,,,,yes,,,,,,,,,,,,,,no
22.3362079,42.2056104,cafe,Galerija,,,Свети Јоаким Осоговски,1330,wlan,Mo-Su 09:00-01:00,,,,,,,,,,,,,,,,,,,,,,
22.336137,42.205828,restaurant,Royal Lounge Bar,,,,,,,,Royal Lounge Bar,,,,,,,,,,,,,,,,,,,,
22.3365517,42.2058845,cafe,Fashion cafe,,,Свети Јоаким Осоговски,1330,wlan,Mo-Su 08:00-01:00,,,,,,,,,,,,,,,,,,,,,,
22.3598489,42.19038,restaurant,Vodenicata 3,,,,,,,,,,,,,,,,,,,,,,,,,,,,
22.0980414,42.1712493,restaurant,Гого Монд,,fish,,,,,,,,,,Gogo Mond,,,,,,,,,,,,,,,,
22.1639057,42.1826707,restaurant,Park,,fish,,,,,,,,,,Парк,,,,,,,,,,,,,,,,
21.5737139,41.9973758,fast_food,Gyroland,,,,,,,,,,,,,,,,,,,,,,,,,,,,
21.5888229,41.9864102,restaurant,Royal Food Zlate,,,,,,,,,,,,,,,,,,,,,,,,,,,,
21.5798143,41.9972131,fast_food,,,,,,,,,,,,,,,,,,,,,,,,,,,,,
21.590491,41.9911364,cafe,,,,,,,,,,,,,,,,,,,,,,,,,,,,,
21.6126147,41.9953625,restaurant,Конак Јазбиње,Jazbinje House,,,,,,,Конак Јазбиње,,,,,,,,,,,,,,,,,,,,
21.4395864,41.996842,fast_food,,,,,,,,,,,,,,,,,,,,,,,,,,,,,
21.4401224,41.9954993,drinking_water,,,,,,,,,,,,,,,,,,,,,,,,,,,,,
21.4397416,42.0012102,drinking_water,,,,,,,,,,,,,,,,,,,,,,,,,,,,,
21.4391711,42.0024656,drinking_water,,,,,,,,,,,,,,,,,,,,,,,,,,,,,
21.4451457,42.0123976,restaurant,,,,,,,,,,,,,,,,,,,,,,,,,,,,,
21.4537864,42.0093292,drinking_water,,,,,,,,,,,,,,,,,,,,,,,,,,,,,
21.5078989,41.9932328,restaurant,Гостилница Софра,Gostilnica Sofra,,Париска Комуна,,,,,,,,,,,,,,,,,,,,,,,,,
21.5099084,41.9951884,restaurant,Пицерија Кремисимо,Picerija Kremisimo,,,,,,,,,,,,,,,,,,,,,,,,,,,
21.503868,41.9953026,drinking_water,,,,,,,,,,,,,,,,,,,,,,,,,,,,,
21.5093746,41.9956244,fast_food,Ketering Vkusno,,,Париска Комуна,,,,,,,,,,,,,,,,,,,,,,,,,
21.5095817,41.9956704,drinking_water,,,,,,,,,,,,,,,,,,,,,,,,,,,,,
21.5029163,42.006626,fast_food,,City Fast Food,,Јужноморавски Бригади,,,,,,,,,,,,,,,,,,,,,,,,,
21.5137772,42.027601,cafe,Лав Фонтана,Lav Fontana,coffee_shop,,,wlan,,,Лав Фонтана,,,,,,,,,,,,,,,,,,,,
22.090258,41.4843216,cafe,,Amaro,tea;cake;coffee_shop;ice_cream,,,,,,,,,,,,,,,,,,,,,,,,,,
22.2263765,41.4106825,restaurant,,,regional,,,,,,,,,,,,,,,,,,,,,,,,,,
22.2340904,41.4149646,restaurant,,,,,,,,,,,,,,,,,,,,,,,,,,,,,
22.2435881,41.4089539,restaurant,,,,,,,,,,,,,,,,,,,,,,,,,,,,,
22.2439153,41.4092999,restaurant,,,,,,,,,,,,,,,,,,,,,,,,,,,,,
22.2432474,41.4098411,restaurant,,,,,,,,,,,,,,,,,,,,,,,,,,,,,
22.2436498,41.4098049,fast_food,,,,,,,,,,,,,,,,,,,,,,,,,,,,,
22.2452001,41.4084933,restaurant,,,,,,,,,,,,,,,,,,,,,,,,,,,,,
22.2893311,41.4043292,drinking_water,,,,,,,,,,,,,,,,,,,,,,,,,,,,,
22.0953457,41.4895975,restaurant,Rubiko,,regional,,,,,,,,,,,,,,,,,,,,,,,,,,
22.2867513,41.5578367,drinking_water,,,,,,,,,,,,,,,,,,,,,,,,,,,,,
22.3171977,41.6245987,restaurant,Пилав Тепе,Pilav Tepe,,,,,,,,,,,,,,,,,,,,,,,,,,,
22.1466385,41.7581409,drinking_water,,,,,,,,,,,,,,,,,,,,,,,,,,,,,
21.6985476,42.1288686,restaurant,Restaurant Arcus,,,,,,,,,,,,,,,,,,,,,,,,,,,,
21.7055087,42.1322787,bar,eliba lounge bar,eliba lounge bar,,jna,1300,wlan,24/7,,eliba lounge bar,,,1300,,,,,,,,,,,,,,,,,
21.704157,42.1373364,bar,Kumanovo,English,,Србо Томовиќ,1300,wlan,24/7,,,,,25,,+38971611422,,,,,,,adrscreen@gmail.com,,,,,,,,
21.7041267,42.1375281,bar,adra,,,Србо Томовиќ,1300,wlan,Mo-Fr,,,,,25,,+38970626464,,http://www.zamunda.net,,,,,musicbar86@gmail.com,,,,,,,,
21.6999903,42.1395687,cafe,Mocha Caffe,,,11-ти Ноември,,,,,,,,,,,,,,,,,,,,,,,,,
21.733628,42.1208566,restaurant,Exclusive,,,,,,,,,,,,,,,,,,,,,,,,,,,,
21.7448727,42.1214792,restaurant,Terazza,,,,,,,,,,,,,,,,,,,,,,,,,,,,
21.7181577,42.1317263,restaurant,Рим-Париз,,,,,,,,,,,,Rim-Pariz,,,,,,,,,,,,,,,,
21.7173139,42.1325071,cafe,Julia,,,,,,,,,,,,,,,,,,,,,,,,,,,,
21.7187664,42.132536,drinking_water,,,,,,,,,,,,,,,,,,,,,,,,,,,,,
21.7206493,42.1320465,restaurant,Restoran Prado,,burger;sandwich;regional;international;grill;coffee_shop;pasta;balkan;pancake;pizza;fish_and_chips;diner;chicken;italian_pizza;fish;seafood;mediterranean;italian;fine_dining,Св. Кирил и Методиј,1300,wlan,Mo-Th 08:00-24:00; Fr-Sa 08:00-01:00; Su 10:00-24:00,,,,,1,,+38931430100,,https://m.facebook.com/prado.kumanovo/,,,,,,,,,,,,,
21.7207809,42.1319112,drinking_water,,,,,,,,,,,,,,,,,,,,,,,,,,,,,
21.7128683,42.1331153,cafe,Relax,,,,,,,,,,,,,,,,,,,,,,,,,,,,
21.712736,42.1333648,cafe,Donita,,,,,,,,,,,,,,,,,,,,,,,,,,,,
21.7131719,42.1333475,restaurant,Ambrella,,,,,,,,,,yes,,,,,,,,,no,,,,,,,,,
21.7162124,42.1329068,pub,Art Cafe CARIGRAD,,,Ilindenska,1300,,,,,,,31,,,,,,,,,,,,,,Art Cafe CARIGRAD,,,
21.7173429,42.1338027,fast_food,Аркадија,,,,,,,,,,,,Arkadija,,,,,,,,,,,,,,,,
21.7176862,42.1343433,bar,city,,,,,,,,city,,,,,,,,,,,,,,,,,,,,
21.718448,42.13429,cafe,Зафир,,,,,,,,,,,,Zafir,,,,,,,,,,,,,,,,
21.7183301,42.1345469,fast_food,Џу Џу Бургер,,,,,,,,,,,,,,,,,,,,,,,,,,,,
21.7189408,42.1341627,cafe,Франш,,,,,,,,,,,,Fransh,,,,,,,,,,,,,,,,
21.7189898,42.134282,cafe,Irish Pub,,,,,,,,,,,,,,,,,,,,,,,,,,,,
21.7187933,42.1343519,cafe,Корзо,,,,,,,,,,,,Korzo,,,,,,,,,,,,,,,,
21.7197998,42.1345864,bar,Revolution,,,,,,,,,,,,,,,,,,,,,,,,,,,,
21.719591,42.1350337,drinking_water,,,,,,,,,,,,,,,,,,,,,,,,,,,,,
21.7177097,42.1359989,drinking_water,,,,,,,,,,,,,,,,,,,,,,,,,,,,,
21.7174092,42.1366097,bar,Касапски круг,,,,,,,,,,,,Kasapski krug,,,,,,,,,,,,,,,,
21.7187383,42.1361779,cafe,Нама Кафе,,,,,,,,,,,,Nama Kafe,,,,,,,,,,,,,,,,
21.7190616,42.136391,bar,Клуб,,,,,,,,,,,,Klub,,,,,,,,,,,,,,,,
21.7192653,42.1366237,pub,W2,,,,,,,,,,,,W2,,,,,,,,,,,,,,,,
21.7187986,42.1373298,pub,Тунел,,,,,,,,,,,,Tunel,,,,,,,,,,,,,,,,
21.7204462,42.1365237,restaurant,Баба Цана,,,,,,,,,,,,Baba Cana,,,,,,,,,,,,,,,,
21.7279322,42.132763,cafe,Rafaela,,,,,,,,,,,,,,,,,,,,,,,,,,,,
21.728942,42.1325717,drinking_water,,,,,,,,,,,,,,,,,,,,,,,,,,,,,
21.7282115,42.1333614,restaurant,Помодоро,,,,,,,,,,,,,,,,,,,,,,,,,,,,
21.7266326,42.1355332,bar,Lollipop,,,,1300,,,Kumanovo,,,,,,,,https://www.facebook.com/clublollipop,,,,,,,,,,,,,
21.7241653,42.1381918,cafe,اخر نقطة تاع تران,,,,,,,,,,,,,,,,,,,,,,,,,,,,
21.7318423,42.1235585,restaurant,Корнер,,,,,,,,,,,,Korner,,,,,,,,,,,,,,,,
22.3309502,42.2075328,restaurant,Стар Лисец,Old Fox,,Македонска,,wlan,,,,,,,,+38970756364,,,,,,,,,,,,,,,
22.3379183,42.207696,food_court,Трнче,,,Свети Јоаким Осоговски,1330,,,Kriva Palanka,,isolated,,,,,,,,Ѓорѓиовски Бранко,,,,,,,,,,,
22.3466279,42.2123127,restaurant,македонија,,regional,Marshal Tito,1330,,,Крива Паланка,,,,,,,,,,,,,,,,,,,,,
22.3580161,42.2228585,restaurant,Pashina vodenica,Restaurant and rooms,,,,,,,,,,,,,,,,,,,,,,,,,,,
22.3895181,42.2241793,drinking_water,,,,,,,,,,,,,,,,,,,,,,,,,,,,,
22.389952,42.2246851,fast_food,Дервен,,,,,,,,,,,,,,,,,,,,,,,,,,,,
21.4461539,42.0157614,drinking_water,,,,,,,,,,,,,,,,,,,,,,,,,,,,,
21.4474069,42.018055,fast_food,Burek,,regional,Булевар Христијан Тодоровски Карпош,,,,Cкoпje,,,,,,,,,,Torbes,,,,,,,,,,,
21.4462164,42.0365961,restaurant,EZO,,,,,,,,,,,,,,,,,,,,,,,,,,,,
21.4163482,41.9922398,restaurant,511,,italian,,,,,,,,,,,,,,,,,,,,,,,,,,
21.416522,41.9922245,restaurant,Balila,,italian,,,,,,,,,,,,,,,,,,,,,,,,,,
21.4150613,41.9946354,restaurant,Крчма,,,,,,,,,,,,,,,,,,,,,,,,,,,,
21.4158549,41.9931627,bar,,,,,,,,,,,,,,,,,,,,,,,,,,,,,
21.4162239,41.9934306,cafe,9,,,,,,,,,,,,,,,,,,,,,,,,,,,,
21.4171739,41.9937283,cafe,Авантура,,,,,,,,,,,,,,,,,,,,,,,,,,,,
21.4164328,41.9939731,cafe,,,,,,,,,,,,,,,,,,,,,,,,,,,,,
21.4173314,41.9947238,cafe,,,,,,,,,,,,,,,,,,,,,,,,,,,,,
21.4160063,41.9969599,restaurant,Лавче,,,,,,,,,,,,,,,,,,,,,,,,,,,,
21.4170693,41.997226,restaurant,Еснаф кај даре,,regional,,,,,,,,,,,,,,,,,,,,,,,,,,
21.4021635,41.9959806,restaurant,МАКЕДОНСКА КУЌА,MACEDONIAN HOUSE,burger;regional;ice_cream;grill;crepe;coffee_shop;balkan;pancake;chicken;diner;fish;breakfast;tea;sausage;local;fine_dining;kebab;barbecue,Митрополит Теодосиј Гологанов,1000,wlan,Mo-Su 08:00-00:00,,,,,63,,023296415,,http://www.makedonskakuka.com,,Kiro Ilijeski -Kambero,,,contact@makedonskakuka.com,,,,,,,,
21.4032227,41.9959185,drinking_water,Чешма,,,,,,,,,,,,,,,,,,,,,,,,,,,,
21.4020366,41.9979148,restaurant,Кај Маршалот,Kaj Marsalot,regional,Прашка,,,,,,outside,,1,,,no,,,,,,,,,,,,,,no
21.4093297,41.995913,cafe,,,,,,,,,,,,,,,,,,,,,,,,,,,,,
21.4086858,41.9972323,restaurant,Акорд,Acorde,,,,,,,,,,,,,,,,,,,,,,,,,,,
21.4091295,41.997291,cafe,Ли,Lee,coffee_shop,,,,,,,,,,,,,,,,,,,,,,,,,,
21.4078483,41.9997295,restaurant,Рустикана,Rustikana,burger;regional;breakfast;grill;mediterranean;balkan;chicken;kebab,Римска,1000,wlan,Mo-Su 10:00-00:00,,,,,6,,071383382,,,,Saso Gligorovski Tate,,,dinamic.ksk@gmail.com,,,,,,,,
21.4168806,41.9984995,cafe,Belier,,,Владимир Полежановски,1000,,,,,,,,,,,,,,,,,,,,,,,,
21.4172361,41.9990907,cafe,,,,,,,,,,,,,,,,,,,,,,,,,,,,,
21.417224,41.9992004,cafe,,,,,,,,,,,,,,,,,,,,,,,,,,,,,
21.416703,42.0001541,cafe,Броз Кафе,Broz Cafe,,,,,,,,,,,,,,,,,,,,,,,,,,,
21.4184652,41.9989695,fast_food,,,,,,,,,,,,,,,,,,,,,,,,,,,,,
21.4184238,41.9993211,fast_food,,,,,,,,,,,,,,,,,,,,,,,,,,,,,
21.420417,41.998742,restaurant,Дестан,,barbecue,,,,,,,separated,yes,,,,,,,,,,,,,,,,,,
21.4204573,41.9989335,pub,Браво,Bravo,,,,,,,,outside,,,,,,,,,,,,,,,,,,,
21.4191901,42.0005946,restaurant,Кантина,,burger;coffee_shop;sandwich;ice_cream,Радњанска,1000,,Monday- Satudray 09:00-24:00,Cкoпje,,outside,yes,4,,,yes,,,,,,,,,,,,,,
21.4207447,41.9987097,restaurant,Пицерија Либертас,,pizza,T.C Bunjakovec prv kat lok 36,1000,,,,,,,,,070567295,,,,,,,,,,,,libertas,,,
21.4217901,41.9990725,fast_food,Гирадико,,kebab,,,,,,,,,,,,,,,,,,,,,,,,,,
21.4231958,41.9983035,drinking_water,,,,,,,,,,,,,,,,,,,,,,,,,,,,,
21.4211669,42.0004422,bar,# hash bar,,,,,,,,,,,,,,,,,,,,,,,,,,,,
21.4231465,41.9999867,fast_food,Dogs bar,,,,,,,,,,yes,,,,,,,,,,,,,,,,,,
21.4173939,42.0008922,fast_food,Сендвичара Попе,,sandwich,,,,,,,,,,,,,,,,,,,,,,,,,,
21.417262,42.0009888,cafe,Кафе Змија,,,,,,,,,,,,,,,,,,,,,,,,,,,,
21.4175044,42.0007963,cafe,Кафе Филипос,,coffee_shop,Благој Давков,,,,,,,,2,,,,,,,,,,,,,,,,,
21.4175412,42.0011509,pub,Кафе Кино Карпош,,,,,,,,,,,,,,,,,,,,,,,,,,,,
21.4170443,42.003398,fast_food,Royal Burger,,,,,,,,,,,,,,,,,,,,,,,,,,,,
21.4167758,42.0035281,fast_food,DM Restaurant,,regional,Орце Николов,,,10:00-00:00,Скопје,,,,,,,,,,,,,,,,,,,,,
21.420049,42.0007591,restaurant,Дебар Маало,Gostilnica Ilinden,,,,,,,,,,,,,,,,,,,,,,,,,,,
21.4200655,42.0009079,restaurant,"Кафана ""Дебар Маало""","Kafana ""Debar Maalo""",savory_pancakes;german;chicken;diner;american;local;barbecue;tea;fine_dining;cake;pasta;international;french;greek;seafood;fish_and_chips;pancake;sandwich;vegan;coffee_shop;balkan;mediterranean;croatian;ramen;turkish;fish;kebab;grill,Живко Чинго,1000,wlan,Mo-Th 08:00-00:00; Fr-Su 08:00-01:00,,,,,,,071 279 660,,,,,,,,,,,,,,,
21.4205747,42.0013292,restaurant,Дебар Маало,Debar Maalo,chicken;diner;beef_bowl;american;ice_cream;local;tea;pizza;burger;cake;pasta;french;italian_pizza;seafood;crepe;pancake;sandwich;vegan;coffee_shop;balkan;mediterranean;croatian;fish;kebab;breakfast;grill,Живко Чинго,1000,wlan,Su-Th 08:00-00:30; Fr-Sa 08:00-01:00,,,,,,,076219654,,,,,,,,,,,,,,,
21.4206632,42.0010941,restaurant,Фрути Ди Маре,Fruti Di Mare,,,,,,,,,,,,,,,,,,,,,,,,,,,
21.4210921,42.0013712,restaurant,Идадија,Idadija,,,,,,,,,,,,,,,,,,,,,,,,,,,
21.4216953,42.0013652,cafe,Laika,,,,,,,,,,,,,,,,,,,,,,,,,,,,
21.4208615,42.0014888,restaurant,Кај Перо,Kaj Pero,,,,,,,,,,,,,,,,,,,,,,,,,,,
21.4214837,42.001453,restaurant,Наџак,Nadzak,,,,,,,,,,,,,,,,,,,,,,,,,,,
21.423008,42.0012294,cafe,fourplay,,,Орце Николов,1000,,,Cкoпje,,,,93,,,,,,,,,,,,,,,,,
21.4216722,42.0021654,bar,Kaldrma,,,,,,,,,,,,,,,,,,,,,,,,,,,,
21.4217791,42.0022762,bar,Van Gogh,,,,,,,,,,,,,,,,,,,,,,,,,,,,
21.4218407,42.0023198,cafe,Кахава,Cahawa,,,1000,,,,,,,,,,,,,,,,,,,,,,,,
21.4206742,42.0048032,drinking_water,,,,,,,,,,,,,,,,,,,,,,,,,,,,,
21.4181784,42.0087916,cafe,Централ Парк,,,,,,,,,,,,,,,,,,,,,,,,,,,,
21.4229473,42.0085511,drinking_water,,,,,,,,,,,,,,,,,,,,,,,,,,,,,
21.4215315,42.0097827,drinking_water,,,,,,,,,,,,,,,,,,,,,,,,,,,,,
21.423451,42.0002331,bar,Radio bar,,,,,,,,,,,,,,,,,,,,,,,,,,,,
21.4235498,42.00231,bar,Speakeasy,,,,,,,,,,,,,,,,,,,,,,,,,,,,
21.4235595,42.0023813,restaurant,МЦМ Мезе Бар,MCM Meze Bar,balkan,Булевар Илинден,1000,wlan,Mo-Su 00:00-00:00,,,,,80,,+38970250420,,,,,,,mezebarmcm@gmail.com,,,,,,,,
21.4235182,42.0043046,drinking_water,,,,,,,,,,,,,,,,,,,,,,,,,,,,,
21.4166293,42.0126654,drinking_water,,,,,,,,,,,,,,,,,,,,,,,,,,,,,
21.4177576,41.9832059,drinking_water,,,,,,,,,,,,,,,,,,,,,,,,,,,,,
21.4193986,41.9868025,restaurant,Баба Цана,Baba Cana,macedonian,,,,,,,,,,,,,,,,,,,,,,,,,,
22.6366903,41.231591,restaurant,Elita,,fish,,,,,,,,,,,,,,,,,,,,,,,,,,
20.958638,41.986155,restaurant,Emka,,regional,Илинденска,,,,Тетово,,yes,,,,,,,,,,,,,,,,,,,
20.959654,41.9890195,restaurant,,Evergreen,balkan,Gostivarska bb,1200,wlan,Mo-Su 07:00-00:00,,,,,,,,,,,,,,,,,,,,,,
20.9602367,41.9912803,restaurant,Ultra,Ultra,,,,,,,Ultra,,,,,,,,,,,,,,,,,,,,
20.9602672,41.9913951,cafe,Ultra,Ultra,,,,,,,Ultra,,,,,,,,,,,,,,,,,,,,
20.959919,41.9916981,cafe,M House,,,,,wlan,,,,,,,,,,,,Nebi Mustafi,,,,,,,,,,,
20.9608123,41.992301,cafe,Ток 2000,Tok 2000,balkan,Илинденска,1200,wlan,Mo-Sa 07:00-19:00,,Ток 2000,,,,,044334065,,,,Ali,,,,Tok 2000,,,,,,,
20.9606249,41.9957283,bar,,,,,,,,,,,,,,,,,,,,,,,,,,,,,
20.961125,41.9976539,restaurant,Restaurant Boss,,burger;sandwich;ice_cream;grill;cake;coffee_shop;pasta;greek;balkan;pancake;pizza;fish_and_chips;diner;italian_pizza;fish;hotdog;breakfast;tea;italian,,,wlan,24/7,,Ресторант Босс,,,,,,,,,,,,,Restaurant Boss,,,,,,,
20.9614188,41.9995695,restaurant,Era,,burger;sandwich;breakfast;ice_cream;tea;cake;coffee_shop;pasta;pizza;diner,,,wlan,Mo-Su 09:00-00:00,,,,,,,,,,,,,,,Era,,,,,,,
20.9518032,42.0012645,cafe,Беко Кафе,Beko's Caffe,,"Street ""146""",1220,,Mo-Su 10:00-22:00,,,,,,,,,,,,,,,Kafja Bekos,,,,,,,
20.9565617,42.0049329,drinking_water,,,,,,,,,,,,,,,,,,,,,,,,,,,,,
20.9622336,41.9940024,cafe,,Check-in,grill;italian_pizza,Илинденска,1200,wlan,Mo-Sa 08:00-22:00,,,,,,,,,,,,,,,check-in,,,,,,,
20.9619853,41.999321,cafe,Riva Caffè,,burger;breakfast;pizza;ice_cream;tea;coffee_shop,,,wlan,Mo-Su 10:00-22:00,,,,,,,072545050,,,,,,,,,,,,,,,
20.9633055,42.0060772,cafe,Amaretta (Red&Black),Red'n'Black,coffee_shop;italian,Ѓорче Петров,1220,wlan,Mo-Su 07:00-23:30,,Црвено'Црните,yes,,,,,,,no,,,,,Kuq e Zinjtë,,,,,,,
20.9713496,42.0075938,cafe,Garden,Garden,,,,,,,Garden,,,,,,,,,,,,,,,,,,,,
20.9714342,42.0075662,cafe,Irish Pub,,burger;coffee_shop;fast_food;juice;cocktails;hookah,ул. Дервиш Цара  (ЈНА),1220,wlan,Mo-Su 09:00-01:00,Tetovo,,yes,yes,39,,,,https://instagram.com/irishpubofficial,,,,,,,,,,,,,
20.9721424,42.0072505,cafe,Tantra,Tantra,,,,,,,Tantra,,,,,,,,,,,,,,,,,,,,
20.971694,42.0073312,cafe,Maroon Bar,,,,,,,,,,,,,,,,,,,,,,,,,,,,
20.9718414,42.0073693,cafe,Barcode,Cavalli Club,,,,,Mo-Su 08:00-23:55,,Cavalli Club,,,,,,,,,,,,,Cavalli Club,,,,,,,
20.9746292,42.0073877,restaurant,11,,,,1200,wlan,,,11,,,,,,,,,,,,,,,,,,,,
20.9731075,42.0080851,restaurant,Maestro Cafe,,,,,,,,,,,,,,,,,,,,,,,,,,,,
20.9750309,42.0077518,restaurant,Restaurant Sirena,,pizza,Маршал Тито,1200,,07:00- 24:00,Tetovo,,isolated,,94,,+389 44 335 701,yes,,,,,,,,,,,,,,no
20.9737785,42.0100645,cafe,Стори Кафе,Story Cafe,,,,,,,Стори Кафе,,,,,,,,,,,,,,,,,,,,
20.9740134,42.0100196,cafe,Репаблик Кафе,Republic Cafe,,,,,,,Репаблик Кафе,,,,,,,,,,,,,,,,,,,,
20.9756816,42.009057,restaurant,Ресторан Еснав,,,,,,,,Ресторан Еснав,,,,,,,,,,,,,,,,,,,,
20.9758291,42.0089945,restaurant,Ресторан Тетовска Куќа,,,,,,,,Ресторан Тетовска Куќа,,,,,,,,,,,,,,,,,,,,
20.9758432,42.0095705,restaurant,Пица-Ресторан Пунто Верде,,,,,,,,Пица-Ресторан Пунто Верде,,,,,,,,,,,,,,,,,,,,
20.97935,42.0067252,restaurant,Гарден Ресторант,Garden Restaurant,,,,,,,Гарден Ресторант,,,,,,,,,,,,,,,,,,,,
20.9791319,42.0088358,cafe,Симпл Кафе,Simple Cafe,,,,,,,Симпл Кафе,,,,,,,,,,,,,,,,,,,,
20.9798693,42.0087006,cafe,Били Кафе,Bili Cafe,,,,,,,,,,,,,,,,,,,,,,,,,,,
20.9893133,42.0042922,fast_food,Шатци,Shatzi,,,,,,,,,,,,,,,,,,,,,,,,,,,
20.989483,42.0040789,cafe,Aksaraj,,,,,,,,,,,,,,,,,,,,,,,,,,,,
20.9895845,42.0041365,fast_food,Doner Kebab,,kebab,,,,,,,,,,,,,,,,,,,,,,,,,,
20.9894268,42.0041795,restaurant,Restaurant Emporium,,,,,,"Mo-Th 08:00-24:00, Fr-Sa 08:00-01:00, Su 08:00-24:00",,,,,,,+389 78 388 265,,,,,,,,,,,,,,,
20.989468,42.0042478,restaurant,Fontana Grill,,steak_house,,,,Mo-Su 08:00-24:00,,,,,,,+389 70 664 471,,,,,,,,,,,,,,,
20.9896305,42.0042064,fast_food,Chitir Chicken,,chicken,,,,Mo-Su 09:00-23:00,,,,,,,+389 76 222 066,yes,,,,,,memedfeim@gmail.com,,,,,,,,
20.9660018,42.0133094,restaurant,БЕЛАМИА,BELAMIA,fish;regional;international;ice_cream;crepe;seafood;coffee_shop;steak_house;balkan;pancake;pizza;diner;chicken;vegetarian,Гоце Делчев,1220,wlan,Mo-Su 09:00-23:00,,,,,108,,0038944331332,,http://belamia.mk,,nenad petrovic,,,bela_mia2004@yahoo.com,,,,,,,,
21.0271684,42.0664398,restaurant,Манастирски Ресторан,Manastirski Restoran,,,,,,,Манастирски Ресторан,,,,,,,,,,,,,,,,,,,,
21.0398878,42.0597188,fast_food,Ресторант Контраст,Restaurant Contrast,,,,wlan,,,Ресторант Контраст,,,,,+38970656757,,,,,,,,,,,,,,,
21.041931,42.0609612,cafe,Елита Кафе,,,,,,,,Елита Кафе,,,,,,,,,,,,,,,,,,,,
21.0503487,42.0705093,restaurant,Гостилница Боеми,Gostilnica Boemi,,,,,,,Ресторан Бади,,,,,,,,,,,,,,,,,,,,
21.0512358,42.072656,restaurant,Ресторан Трио,Restoran Trio,,,,,,,Ресторан Трио,,,,,,,,,,,,,,,,,,,,
21.0514706,42.0755301,restaurant,Ресторан Цуцла,Restoran Cucla,,,,,,,Ресторан Цуцла,,,,,,,,,,,,,,,,,,,,
21.1003121,42.1441425,restaurant,,,,,,,,,,,,,,,,,,,,,,,,,,,,,
21.4871217,42.0072516,restaurant,Hunter’s Lodge “Kamnik”,,steak_house,,,,,,,,,,,,,http://www.kamnik.com.mk/,,,,,,,,,,,,,
21.4941048,41.9977923,fast_food,Томи,,,,,,,,,,,,,,,,,,,,,,,,,,,,
21.4993803,41.9958519,drinking_water,,,,,,,,,,,,,,,,,,,,,,,,,,,,,
21.4960141,42.0013936,restaurant,Велково Меанче,,,,,,,,,,,,,,,,,,,,,,,,,,,,
21.4600445,41.9978436,restaurant,Dojrana Skopje,,,,1000,,,,Dojrana Skopje,,,,,,,,,,,,,,,,,,,,
21.4603461,42.0004829,fast_food,,,,,,,,,,,,,,,,,,,,,,,,,,,,,
21.4536007,42.0048106,drinking_water,,,,,,,,,,,,,,,,,,,,,,,,,,,,,
21.4605034,42.0026892,fast_food,Млечен ресторант АНЕ,,regional;sandwich,,,,,,,,,,,,,,,,,,,,,,,,,,
21.4614608,42.002646,bar,Ле Петит,Le Petit,,,1000,wlan,Mo-Su 08:00-01:00,,,,,,,,,,,,,,,,,,,,,,
21.4647397,42.0019716,restaurant,Тица - Елени,,barbecue,,,,,,,,,,,,,,,,,,,,,,,,,,
21.4650824,42.0019424,restaurant,,,barbecue,,,,,,,,,,,,,,,,,,,,,,,,,,
21.4648097,42.0030521,restaurant,Кај Тоше на Ќоше,,regional,,,,,,,,,,,,,,,,,,,,,,,,,,
21.4623906,42.0090765,drinking_water,,,,,,,,,,,,,,,,,,,,,,,,,,,,,
21.93801,42.2627474,bbq,,,,,,,,,,,,,,,,,,,,,,,,,,,,,
21.450695,42.0523407,restaurant,,,,,,,,,,,,,,,,,,,,,,,,,,,,,
21.4523161,42.0537503,restaurant,Дарвик,,,,,,,,,,,,,,,,,,,,,,,,,,,,
21.4484,42.0582551,cafe,Royal,,,,,,,,,,,,,,,,,,,,,,,,,,,,
21.4502266,42.060135,cafe,Шема,,,,,,,,,,,,,,,,,,,,,,,,,,,,
21.4514149,42.0578588,restaurant,Ресторан „Александар“,,,,,,,,,,,,,,,,,,,,,,,,,,,,
21.4510186,42.0618189,restaurant,,,,,,,,,,,,,,,,,,,,,,,,,,,,,
21.4888884,42.0903883,drinking_water,Чешма Сарачево,Cesma Saracevo,,,,,,,Чешма Сарачево,,,,,,,,,,,,,,,,,,,,
21.4391421,41.983244,restaurant,,,,,,,,,,,,,,,,,,,,,,,,,,,,,
21.4391463,41.9834793,drinking_water,Чешма,,,,,,,,,,,,,,,,,,,,,,,,,,,,
21.4390455,41.9841333,restaurant,Чешма,,,,,,,,,,,,,,,,,,,,,,,,,,,,
21.4422139,41.9922032,restaurant,Кај Злате,,,,,,,,,,,,,,,,,,,,,,,,,,,,
21.4427246,41.9922973,restaurant,Лезет,,,,,,,,,,,,,,,,,,,,,,,,,,,,
21.4449511,41.9911273,fast_food,,,,,,,,,,,,,,,,,,,,,,,,,,,,,
21.4414844,41.9931868,cafe,,O La La,,,,,,,,,,,,,,,,,,,,,,,,,,,
21.441755,41.9932121,bar,,,,,,,,,,,,,,,,,yes,,,,,,,,,,,,
21.441738,41.99462,bar,samocod,,,,,,,,,,,,,,,,,,,,,,,,,,,,
21.4457433,41.9878133,fast_food,Пицерија Џокер,Pizza Joker,sandwich;italian_pizza,,1000,,Mo-Fr 09:00-23:00; Sa 11:00-11:00; Su 12:00-20:00,,,,,,,076840031,,,,,,,bokiev44@gmail.com,,,,,,,,
21.4454673,41.9911127,cafe,,Cafe Jabolko,,,,wlan,Mo-Su 06:00-22:00,,,,,,,,,,,,,,,,,,,,,,
21.446918,41.991008,bar,Club Colloseum,,,,,,,,,,,,,,,,,,,,,,,,,,,,
21.4341981,42.0128215,cafe,Kandi,Kandy,coffee_shop;balkan;ice_cream;irish;regional;tea;turkish,,255,wlan,Mo-Su 07:15-00:00,,,,,,,,,,,Mensur&Hasan,,,,,,,,,,,
21.4349372,42.0198926,restaurant,Prince,,,,,,,,,,,,,,,,,,,,,,,,,,,,
21.4307185,42.0229923,restaurant,Beta,,,,,,,,,,,,,,,,,,,,,,,,,,,,
21.4412533,42.0195979,restaurant,Бизнис,,,Ресенска,,,,,Бизнис,,,1,,,,,,,,,,,,,,,,,
21.4409393,42.0277395,restaurant,,Restaurant ABC,,,,,,,,,,,,,,,,,,,,,,,,,,,
21.4448873,42.1382444,restaurant,Etna Elena,,balkan,,,,,,,,,,,,,,,,,,,,,,,,,,
21.8608797,41.4363985,drinking_water,,,,,,,,,,,,,,,,,,,,,,,,,,,,,
21.9045019,41.4755911,restaurant,,Restaurant Javor,,,,,,,,,,,,,,,,,,,,,,,,,,,
21.9243174,41.4876682,restaurant,,,,,,,,,,,,,,,,,,,,,,,,,,,,,
21.9462755,41.5215164,drinking_water,,,,,,,,,,,,,,,,,,,,,,,,,,,,,
21.9522494,41.5237914,restaurant,Kaj Zika,,regional,,,,,,,,,,,,,,,,,,,,,,,,,,
21.9361758,41.581813,restaurant,Vinarija Stobi,,,,,,,,,,,,,,,,,,,,,,,,,,,,
21.9748986,41.5502944,cafe,Стоби,Stobi,,,,,,,,,,,Stobi,,,,,,,,,,,,,,,,
21.4264143,41.9922468,cafe,DejaVu,,,,,,,,,,,,,,,,,,,,,,,,,,,,
21.4266738,41.9922273,cafe,Istanbul,,,,,,,,,,,,,,,,,,,,,,,,,,,,
21.4278104,41.9928812,ice_cream,Ескимо,,,,,,,,,,yes,,,,,,,,,,,,,,,,,,
21.4275081,41.9936252,fast_food,Гиро,,,,,,,,,,,,,,yes,,,,,,,,,,,,,,
21.427602,41.9938495,cafe,,,,,,,,,,,,,,,,,,,,,,,,,,,,,
21.4276093,41.9948293,restaurant,7 Скара Ресторан,7 Grill Restaurant,grill,Даме Груев,1000,,Mo-Th 08:00-24:00; Sa 08:00-01:00,Cкoпje,,,yes,7,,(02) 3 224 000,yes,http://7.mk/skara-restoran/,,,,,info@7.mk,,,,,,,,
21.4293734,41.9923772,cafe,Corsso,,,Даме Груев,1000,,,Скопје,,,,,,,,,,,,,,,,,,,,,
21.4297981,41.9925716,restaurant,Damaskino,,,Македонија,1000,,,Скопје,,,,,,,,,,,,,,,,,,,,,
21.429836,41.992653,cafe,Плеј Кафе,Play Cafe,,Македонија,1000,,,Скопје,,,,,,,,,,,,,,,,,,,,,
21.4298728,41.9927362,cafe,Caffe Bar Dolce Vita,,,Македонија,1000,,,Скопје,,,,,,,,,,,,,,,,,,,,,
21.4301208,41.9927317,restaurant,"Lounge Bar & Restaurant ""Square 21""",,,,,wlan,,,,,,,,,,,,,,,,,,,,,,,
21.4301511,41.9927909,fast_food,,,,,,,,,,,,,,,,,,,,,,,,,,,,,
21.4295835,41.9932203,bar,GastrotecaSiesta,,,,,,10:00-0:00,,,,yes,,,,,https://www.facebook.com/GastrotecaSiesta/,,GastrotecaSiesta,,,,,,,,,,,
21.4295835,41.9932432,restaurant,GastrotecaSiesta,,,,,,10:00-0:00,,,,,,,,,https://www.facebook.com/GastrotecaSiesta/,,,,,,,,,,,,,
21.4300742,41.9933026,restaurant,Amigos Мексиканска Кантина,Amigos Mexican Cantina,mexican,Македонија,1000,,,Скопје,,outside,yes,11,,+389 71 230314,yes,http://www.amigos.com.mk/,yes,,,,info@amigos.com.mk,,,,,,,,
21.4301082,41.9933851,cafe,Ливинг Рум,Living Room,,Македонија,1000,,"Mo-Th 08:00-24:00; Fr,Sa 08:00-01:00; Su 10:00-24:00",Скопје,,outside,yes,,,+389 75 898989,,,,,MK,,,,,,,,,,
21.4302256,41.9929701,cafe,Caffe Novo,,,Македонија,1000,,,Скопје,,,,,,,,,,,,,,,,,,,,,
21.4302496,41.9930256,fast_food,Pizza FRESKO,,italian,Македонија,1000,,,Скопје,Пицерија ФРЕСКО,,,12,,+389 70 567295,,http://www.facebook.com/Picerijafresko,yes,,,,,,,,,,,,
21.430365,41.9938562,cafe,Gnezdo,,,Македонија,1000,,,Скопје,,,,,,,,,,,,,,,,,,,,,
21.4290413,41.9947622,bar,Centar Bar,,,,1000,,Mo-Su 09:00-23:00,,,,,,,,,,,,,,,,,,,,,,
21.4306195,41.9944452,cafe,Bistro Skopje,,,Македонија,1000,,,Скопје,,separated,yes,41,,,,,yes,,,,,,,,,,,,
21.4308588,41.9949424,cafe,DRAMA coffee house,,,Македонија,1000,,08:00-01:00,Скопје,,,,,,,,,,,,,,,,,,,,,
21.426176,41.9955629,pub,Piazza Liberta,,,,,,,,Пјаца Либерта,,yes,,,,,http://piazzaliberta.mk/,,,,,,,,,,,,,
21.4271773,41.9954521,cafe,Крин,,,,,,,,,,yes,,,,,,,,,,,,,,,,,,
21.4268984,41.9964359,bar,Mr. Jack,,,,,,,,,,yes,,,,,,,,,,,,,,,,,,
21.4282008,41.9960837,ice_cream,Сладолед Младост,,,,,,,,,,yes,,,,,,,,,,,,,,,,,,
21.428439,41.9970171,cafe,,,,,,,,,,,,,,,,,,,,,,,,,,,,,
21.4284187,41.9971537,bar,,,,,,,,,,,,,,,,,,,,,,,,,,,,,
21.4284228,41.9971825,cafe,,Squeeze Me,,,,,,,,,,,,,,,,,,,,,,,,,,,
21.4301301,41.9957324,restaurant,Пекинг Гарден,,chinese,Максим Горки,1000,,Mo-Sa 11:00-24:00; Su 12:00-23:00,Cкoпje,,,,3,Peking Garden,+389 2 3221173,,www.pekinggarden.mk,,,MK,,reservation@pekinggarden.mk,,,Maksim Gorki,,,,,
21.4302915,41.9952825,restaurant,Арабеска,Arabesque,regional,,,,,,,,,,Arabeska,,,,,,,,,,,,,,,,
21.4308204,41.9955477,cafe,Боката,,,Никола Вапцаров,,yes,,,,,,1,Bokata,,,,limited,,,,,,,,,,,,
21.4302534,41.9957302,pub,London Pub,,,Никола Вапцаров,1000,,,Скопје,Паб „Лондон“,,,2/4,,,,,,Македонијатурист,,,,,,,,,,,
21.4304595,41.9957062,restaurant,Тренд,Trend,international,,,,,,,,,,Trend,,,,limited,,,,,,,,,,,,
21.4310013,41.9952414,cafe,Caffe Skopje,,,Македонија,1000,,08:00-12:00,Скопје,,,,,,,,,,,,,,,,,,,,,
21.4295352,41.9975241,bar,,,,,,,Mo-Fr 08:00-01:00; Sa 09:00-01:00; Su 10:00-18:00,,,,,,,,,,,,,,,,,,,,,,
21.4304538,41.9981594,bar,,,,,,,,,,,,,,,,,,,,,,,,,,,,,
21.4286168,42.0026007,drinking_water,,,,,,,,,,,,,,,,,,,,,,,,,,,,,
21.4307036,42.0047876,restaurant,Под Кале,,,,,,,,,,,,,,,,,,,,,,,,,,,,
21.6085975,41.2505962,drinking_water,,,,,,,,,,,,,,,,,,,,,,,,,,,,,
21.1755333,41.2330427,pub,Бифе,,,,,,,,,,,,,,,,,,,,,,,,,,,,
21.2969679,41.038185,restaurant,,,,,,,,,,,,,,,,,,,,,,,,,,,,,
21.338158,41.0213739,drinking_water,,,,,,,,,,,,,,,,,,,,,,,,,,,,,
21.3424348,41.0198474,bar,,,,,,,,,,,,,,,,,,,,,,,,,,,,,
21.322634,41.0324904,drinking_water,,,,,,,,,,,,,,,,,,,,,,,,,,,,,
21.334101,41.0273541,cafe,Cocktail Bar - Uno Mars,,,,,,8:00 - 00:00,,,outside,,,,,,,,,,,,,,,,,,,
21.3352456,41.0275558,pub,Бурбон Стрит,Bourbon Street,,Ленинова,7000,wlan,Su-Th 08:30-00:00; Fr-Sa 08:30-01:00,,Бурбон Стрит,,,17,,,,,,,,,,,,,,,,,
21.331219,41.0309947,restaurant,Гарден Имиџ,Garden Image,,,,,,,,,,,,,,,,,,,,,,,,,,,
21.3337145,41.0286733,bar,Порта Џез,Porta Jazz,,Кирил и Методиј,7000,wlan,Mo-Sa 08:00-01:00; Su 09:00-01:00,,Порта Џез,,,12,,047208033,,,,,,,,,,,,,,,
21.3353453,41.0296756,fast_food,SM-Sport,,,,,,,,,,,,,,,,,,,,,,,,,,,,
21.3354104,41.0300902,restaurant,,Miki Burger,,,,,,,,,,,,,,,,,,,,,,,,,,,
21.3367381,41.0240108,cafe,јагода,,,,,,,,јагода,,,,,,,,,,,,,,,,,,,,
21.3365737,41.0246534,cafe,Internet Club Alex,,,,,,,,,,,,,,,,,,,,,,,,,,,,
21.3365818,41.0247991,cafe,Globaltech,,,,,,,,,,,,,,,,,,,,,,,,,,,,
21.337129,41.0248295,cafe,Cafe Bar Touch,,,,,,,,,,,,,,,,,,,,,,,,,,,,
21.3368286,41.0256207,restaurant,Пицерија Лео,,,,,,,,,,,,,,,,,,,,,,,,,,,,
21.3366193,41.0257036,cafe,Art Cafе,,,,,,,,,,,,,,,,,,,,,,,,,,,,
21.3363912,41.0275814,cafe,Кафе Пајтон,,,,,,,,,,,,,,,,,,,,,,,,,,,,
21.3361237,41.0281914,bar,,Connect Cafe Bar,,,,,,,,,,,,,,,,,,,,,,,,,,,
21.3412151,41.0236829,restaurant,Скандал Рестпран,Scandal Fusion Cuisine,,Партизанска,7000,,,,,,,20,,,,,,,,,,,,,,,,,
21.3357344,41.0285753,cafe,,Iguchi Cafe Bar,,,,,,,,,,,,,,,,,,,,,,,,,,,
21.3356597,41.0287588,cafe,Dante,,,,,,,,,,,,,,,,,,,,,,,,,,,,
21.3359314,41.0284799,cafe,,Portal 2 Cafe,,,,,,,,,,,,,,,,,,,,,,,,,,,
21.3359033,41.0285254,cafe,,In Cafe,,,,,,,,,,,,,,,,,,,,,,,,,,,
21.3355792,41.0288234,cafe,,Millennium Cafe,,,,,,,,,,,,,,,,,,,,,,,,,,,
21.3356564,41.0295644,restaurant,Pizza Metro,,pizza,,,,,,,,,,,,,,,,,,,,,,,,,,
21.3528594,41.036449,restaurant,Аражок,,,,,,,,,,,,,,,,,,,,,,,,,,,,
21.3533345,41.0364578,restaurant,Арена,Arena,,,,,,,,,,,Arena,,,,,,,,,,,,,,,,
21.3539109,41.036449,restaurant,Балукс,,,,,,,,,,,,,,,,,,,,,,,,,,,,
21.4520444,41.9826324,restaurant,Gala Kujna,,,,,,,,,,,,,,,,,,,,,,,,,,,,
21.4559701,41.9815585,restaurant,Пошта,,mixed,,,,,,,,,,,,,,,,,,,,,,,,,,no
21.4519243,41.9874698,fast_food,Лесковачка Скара Вили,,,,,,,,,,,,,,,,,,,,,,,,,,,,no
21.4520843,41.9883207,restaurant,еквестријан,equestrian,,,,wlan,,,еквестријан,,,,,,,,,,,,,,,,,,,,
21.4531813,41.9877171,fast_food,Лесковачка Вили,,,,,,,,,,,,,,,,,,,,,,,,,,,,
21.453477,41.9885027,cafe,,Happy,,,,,,,,,,,,,,,,,,,,,,,,,,,
21.4534598,41.9885844,cafe,Палма,,,,,yes,,,,outside,yes,,,,,,no,,,no,,,,,,,,,
21.4492023,41.9899769,restaurant,Мезе Бар,Meze Bar,,,1000,wlan,Mo-Su 08:00-01:00,,,,,,,026121214,,,,,,,,,,,,,,,
21.4492638,41.9911648,drinking_water,,,,,,,,,,,,,,,,,,,,,,,,,,,,,
21.4504664,41.9915282,cafe,Red Caffe,,,,,,,,,,,,,,,,,,,,,,,,,,,,
21.4496023,41.9919726,cafe,,Get Caffe,,,,,,,,,,,,,,,,,,,,,,,,,,,
21.4522729,41.9914536,restaurant,Every Day,,,,,,,,,,,,,,,,,,,,,,,,,,,,
21.4542682,41.9901685,bar,Игротека Тиквичка,,,,,,,,,,,,,,,,,,,,,,,,,,,,
21.7772542,41.1456505,drinking_water,,,,,,,,,,,,,,,,,,,,,,,,,,,,,
22.1502361,41.1192472,drinking_water,,,,,,,,,,,,,,,,,,,,,,,,,,,,,
22.1549451,41.1175964,drinking_water,,,,,,,,,,,,,,,,,,,,,,,,,,,,,
22.1885161,41.1311418,drinking_water,,,,,,,,,,,,,,,,,,,,,,,,,,,,,
22.1490217,41.1330504,drinking_water,Kapetanova Tsesma,,,,,,,,,,,,,,,,,,,,,,,,,,,,
22.2108324,41.1690988,restaurant,Марково Бачило,,regional,,,,,,,,,,Markovo Bačilo,,,,,,,,,,,,,,,,
22.1994416,41.1775397,restaurant,Момина Чука,,regional,,,,,,,,,,Момина Čука,,,,,,,,,,,,,,,,
21.4597832,41.9896275,fast_food,Fast food 7,,,,,,,,,,,,,,,,,,,,,,,,,,,,
21.4659543,41.9851089,cafe,,,,,,,,,,,,,,,,,,,,,,,,,,,,,
21.4667276,41.9856123,restaurant,Campione lounge Bar,,italian,Boulevard Jane Sandanski,1000,,Mo-Su 08:00-01:00,Skopje,,,,71A,,+389 70 250 261,,,,Campione,MK,,,,,,,,,,
21.4670662,41.9856161,restaurant,"Пицерија ""Дени""","Pizza ""Deni""",pizza,,1000,,,,,,,,,076346201,,,,,,,,,,,,,,,
21.4661426,41.9859376,restaurant,DejaVu Lounge,,french,Boulevard Jane Sandanski,1000,,Mo-Su 08:00-01:00,Skopje,,,,71A,,,,,,DejaVu,MK,,,,,,,,,,
21.4630555,41.9882627,drinking_water,Чешмичка,,,,,,,,Чешмичка,,,,,,,,,,,,,,,,,,,,
21.4634495,41.9892217,fast_food,Лесковац,,,Булевар Јане Сандански,1000,,,Skopje,,isolated,,,,,,,,,,,,,,,,,,,
21.4635675,41.9893772,fast_food,Лесковачка Вили,,,,,,,,,,,,,,,,,,,,,,,,,,,,
21.4605154,41.9904509,drinking_water,,,,,,,,,,,,,,,,,,,,,,,,,,,,,
21.4633394,41.9914306,restaurant,Пицерија Фамилија,Pizza Familija,,,,,,,,,,,,,,,,,,,,,,,,,,,
21.4640869,41.9913259,restaurant,Т'га за југ,T'ga za jug,,,,,,,Т'га за југ,,,,,,,,,,,,,,,,,,,,
21.4650587,41.9909648,fast_food,,Kono pizza,,,,,,,,,,,,,,,,,,,,,,,,,,,
21.4655483,41.9915744,restaurant,Златна вилушка,,,Булевар АСНОМ,,,,,,,,24,,,,,,,,,,,,,,,,,
21.4652984,41.9927293,restaurant,,,,,,,,,,,,,,,,,,,,,,,,,,,,,
21.4661079,41.9937893,bar,Bar,,,,,,,,,,,,,,,,,,,,,,,,,,,,
21.6024384,41.3927749,drinking_water,,,,,,,,,,,,,,,,,,,,,,,,,,,,,
21.6179361,41.4226328,drinking_water,,,,,,,,,,,,,,,,,,,,,,,,,,,,,
21.7430472,41.3803841,drinking_water,,,,,,,,,,,,,,,,,,,,,,,,,,,,,
21.2151321,41.5065603,restaurant,Cardak,,chicken;diner;regional;pancake;sausage;coffee_shop;ice_cream;balkan;mediterranean;burger;fish;breakfast;grill,,,wlan,Mo-Su 08:00-02:00,,,,,,,+38978420959,,,,,,,,,,,,,,,
21.2163903,41.5067247,cafe,Кафе Бар Ш,Cafe Bar Š,,,,,,,,,,,,,,,,,,,,,,,,,,,
21.2166228,41.5068787,restaurant,Кај Чоме,Kaj Chome,,,,,,,,,,,,,,,,,,,,,,,,,,,
21.2168806,41.5069813,cafe,First,,,,,,,,,,,,,,,,,,,,,,,,,,,,
21.2170194,41.5070382,restaurant,Lisec,,,,,,,,,,,,,,,,,,,,,,,,,,,,
21.2168892,41.5075337,drinking_water,,,,,,,,,,,,,,,,,,,,,,,,,,,,,
21.2168174,41.5076854,restaurant,,,pizza,,,,,,,,,,,,,,,,,,,,,,,,,,
21.2160292,41.5081589,restaurant,Kaj Mame,,,,,,,,,,,,,,,,,,,,,,,,,,,,
21.2185145,41.5075708,fast_food,Бурек,Burek,,,,,,,,,,,,,,,,,,,,,,,,,,,
21.2196741,41.5100518,cafe,,,,,,,,,,,,,,,,,,,,,,,,,,,,,
21.2166302,41.5121022,fast_food,Млецен Ресторан Симед,,,,,,,,,,,,,,,,,,,,,,,,,,,,
21.2165604,41.5133537,cafe,Kardinal,,,,,,,,,,,,,,,,,,,,,,,,,,,,
21.2442677,41.541066,restaurant,Пешна,Peshna,fish,,,,,,,,,,Pešna,,,www.pesnamotel.com.mk,,,,,pesnamotel@yahoo.com,,,,,,,,
21.2494143,41.545315,restaurant,Меана Дедо Илија,Dedo Ilija,,,,,,,,,,,,,,,,,,,,,,,,,,,
21.2205193,41.6150472,restaurant,Извор,Izvor,fish,,,,,,,,,,Izvor,,,,,,,,,,,,,,,,
21.25468,41.6798669,restaurant,,Beliza,,,,,,,,,,,,,,,,,,,,,,,,,,,
21.3969429,41.7367962,drinking_water,,,,,,,,,,,,,,,,,,,,,,,,,,,,,
21.4504918,41.6059457,drinking_water,,,,,,,,,,,,,,,,,,,,,,,,,,,,,
21.4506254,41.7592124,drinking_water,,,,,,,,,,,,,,,,,,,,,,,,,,,,,
21.5383181,41.350405,restaurant,Делфина,,,,,,,,,,,,,,,,,,,,,,,,,,,,
21.5493787,41.350337,fast_food,Сникерс Грижо,,,,,,,,,,,,,,,,,,,,,,,,,,,,
21.5493109,41.3505012,fast_food,СиС,,,,,,,,,,,,,,,,,,,,,,,,,,,,
21.4700306,41.591053,restaurant,Ѕидан Мост,Dzidan Most,,,,,,,,,,,Dzidan Most,,,,,,,,,,,,,,,,
21.2481885,41.3682156,restaurant,Пица Андора,Pizza Andora,,,,,,,,,,,,,,,,,,,,,,,,,,,
21.2483529,41.3679722,cafe,Re-Publik,,,,,,,,,,,,,,,,,,,,,,,,,,,,
21.2485747,41.368101,restaurant,Skar,,italian_pizza;regional;balkan,,,wlan,,,,,,,,,,,,,,,,,,,,,,,
21.2487177,41.3680612,drinking_water,,,,,,,,,,,,,,,,,,,,,,,,,,,,,
21.2486257,41.3681312,restaurant,Beneton,,,,,,,,,,,,,,,,,,,,,,,,,,,,
21.2487033,41.3681712,cafe,Coffee bar Ljubov,,,,,,,,,,,,,,,,,,,,,,,,,,,,
21.2484945,41.3683487,cafe,Club Planet,,,,,,,,,,,,,,,,,,,,,,,,,,,,
21.2484517,41.3687255,drinking_water,,,,,,,,,,,,,,,,,,,,,,,,,,,,,
21.2491145,41.3678039,restaurant,Restaurant Shape,,regional,,,,,,,outside,,,,,,,,,,,,,,,,,,,
21.2492038,41.3678133,restaurant,,Picerija Roma,,,,,,,,,,,,,,,,,,,,,,,,,,,
21.3215065,41.4864416,restaurant,,,,,,,,,,,,,,,,,,,,,,,,,,,,,
