X,Y,shop,name,name:en,name:mk,addr:street,addr:postcode,opening_hours,addr:city,addr:housenumber,website,operator,phone,wheelchair,int_name,name:sq,organic,addr:country,email,addr:housename,addr:street:en,amenity,level
21.6178398,41.9371567,supermarket,Леон,leon,леон,22,1034,Mo-Su 08:00-22:00,,1,,,,,,,,,,,,,
21.5984638,41.9644066,supermarket,Debi,,,,1000,,,,,,,,,,,,,,,,
21.5997839,41.9667903,supermarket,,Debi,,,,,,,,,,,,,,,,,,,
21.6272786,41.9613034,kiosk,,,,,,,,,,,,,,,,,,,,,
21.5073363,41.9382051,supermarket,Гиго Трејд,,,,,,,,,,,,,,,,,,,,
21.5071218,41.9384126,supermarket,Кам,,,,,,,,,,,,,,,,,,,,
21.5103158,41.9392257,supermarket,Вајота 5,,,Славка Динкова,1000,Mo-Su 07:00-22:00,,14,,,,,,,,,vajota@yahoo.com,,,,
21.5212225,41.9323179,supermarket,,,,,,,,,,,,,,,,,,,,,
21.5291548,41.9310608,supermarket,Вајота 1,,,Јустинијан Први,1000,Mo-Su 07:00-22:00,,146,,,,,,,,,vajota@yahoo.com,,,,
21.513671,41.9394701,supermarket,Tinex Discount,,,,,,,,,,,,,,,,,,,,
21.5138463,41.9396863,supermarket,Kam,,,,,,,,,,,,,,,,,,,,
21.5163515,41.938954,supermarket,,,,,,,,,,,,,,,,,,,,,
21.5224241,41.9368193,supermarket,,,,,,,,,,,,,,,,,,,,,
21.5230194,41.9370886,supermarket,Вајота 2,,,Иван Хаџиниколов,1000,Mo-Su 07:00-22:00,,157,,,,,,,,,vajota@yahoo.com,,,,
21.4210729,41.9905755,kiosk,,,,,,,,,,,,,,,,,,,,,
21.4199718,41.9929149,supermarket,Тинекс,Tinex,Tinex,,1000,Mo-Su 08:00-22:00,,,,,,,,,,,,,,,
21.4207815,41.9948735,supermarket,Веро 5,Vero 5,,,,"08:00-22:00; May 01 off",,,https://vero.com.mk/Marketi/Vero5,Веро,+389 2 3220244,yes,,,,,,,,,
21.4199363,41.9966577,supermarket,,,,,,,,,,,,,,,,,,,,,
21.4177897,41.9994766,supermarket,,,,,,,,,,,,,,,,,,,,,
21.4175012,42.0007316,supermarket,КАМ,,,,,,,,,,,,,,,,,,,,
21.4187447,41.9992364,supermarket,,,,,,,,,,,,,,,,,,,,,
21.4220152,41.9990831,supermarket,Tinex,,,,,,,,,,,,,,,,,,,,
21.4168227,42.0011849,supermarket,,,,,,Mo-Sa 09:00-22:00,,,,,,,,,,,,,,,
21.4233757,41.9983625,supermarket,Kapael Tobacco,,,Булевар Партизански Одреди,1000,Mo-Su 08:00-01:00,,23,http://www.facebook.com/tobaccokapael/?fref=ts,,02 6090240,,,,,,,,,,
21.4010157,41.9938597,supermarket,Кам маркет Козле,Kam Market Kosle,,Козле,1000,"Mo-Sa 08:00-21:30; Su 08:00-16:00",Скопје,бб,http://www.kam.com.mk,,+389 2 3085233,yes,,,,,,,Kosle,,
21.4085105,41.9972875,supermarket,Рептил,Reptil,,Атинска,1000,,,,,,,,,,,,,,,,
21.3762625,42.0022775,supermarket,Tinex,,,,,,,,,Tinex,,,,,,,,,,,
21.3262394,41.9980134,supermarket,,,,,,,,,,,,,,,,,,,,,
21.331682,42.0035507,supermarket,,,,,,,,,,,,,,,,,,,,,
21.3340183,42.0078991,supermarket,Kipper,,,Борис Сарафов,,,,,,,,,,,,,,,,,
21.3349543,42.0080177,supermarket,,,,Борис Сарафов,,,,,,,,,,,,,,,,,
21.3396463,42.0076504,supermarket,,,,,,,,,,,,,,,,,,,,,
21.3831193,42.0050579,supermarket,Фреш маркет Бојди,,,Булевар Партизански Одреди,1000,,Скопје,,,,,,,,only,,,,,,
21.3832243,42.0050437,department_store,PAMS Shoe Store 2,,,,,,,,http://www.pams.mk/,,,,,,,,,,,,
21.3818169,42.0067318,supermarket,Tinex,,,,,,,,,,,,,,,,,,,,
21.3829246,42.006382,supermarket,,,,,,,,,,Tinex,,,,,,,,,,,
21.3842555,42.0079128,supermarket,Гранап,Granap,,,,,,,https://www.facebook.com/GranapMarket/,,,,,,,,,,,,
21.3922837,42.0048803,supermarket,Ramstore,,,Љубљанска,1000,08:00-22:00,Skopje,,http://ramstore.com.mk,,,,,City Mall,,,,Skopje City Mall,Ljubljanska,,0
21.393054,42.0065872,supermarket,Vero,,,Манапо,,,,,,,,,,,,,,,,,
21.307597,41.9816819,supermarket,,,,,,,,,,,,,,,,,,,,,
20.9583245,41.9991961,supermarket,БЕРО - ЖАМБО,VERO - JUMBO,,,,,,,,Veropoulos,,,,VERO JUMBO,,,,,,,
20.9589237,41.9990785,supermarket,JYSK,,,,,,,,,,,,,,,,,,,,
20.9715177,41.9979362,supermarket,Tendjerinja tetovo,Tendjerinja tetovo,Tendjerinja tetovo,,,,,,,,,,,,,,,,,,
20.9786298,41.993755,supermarket,продавница,shop,,Nikola Karev 4,1000,,,15,,,,,,,,,,Prodavnica,,,
20.9710281,42.0084835,supermarket,Tinex tetovo,Tinex tetovo,Tinex tetovo,,,,,,,,,,,,,,,,,,
20.9790915,42.0050636,supermarket,Кипер Маркет,Kiper Market,Кипер Маркет,,,,,,,,,,,,,,,,,,
20.979931,42.0054756,supermarket,Кам Маркет,Kam Market,Кам Маркет,,,,,,,,,,,,,,,,,,
20.9741832,42.0093957,supermarket,Рамстор 2 Тетово,Ramstor 2 Tetovo,Ramstor 2 tetovo,,,,,,,,,,,,,,,,,,
20.9903256,42.0054564,supermarket,Ramstore,,,,,,,,,,,,,,,,,,,,0
20.9778769,42.0168566,supermarket,ZEC Electronics Tetovo,,,Мирче Ацев,,Mo-Fr 09:00-17:00,Tetovo,,,ZEC Electronics 078/304030,,,,,,,,,,,
22.7727191,41.96422,supermarket,Жито Маркет,Zhito Market,,,,,,,,,,,,,,,,,,,
22.7721168,41.9648869,supermarket,Извор Маркет,Izvor Market,,,,,,,,,,,,,,,,,,,
22.7713264,41.9654181,supermarket,Кит-Го Супермаркет,Kit-go Supermarket,Кит-Го Супермаркет,,,,,,,,,,,,,,,,,,
22.775244,41.9670758,supermarket,Кит-Го Супермаркет,Kit-go Supermarket,Кит-Го Супермаркет,,,,,,,,,,,,,,,,,,
22.8019192,41.9663717,supermarket,Mederevec (Mini Market),Mederevec TP,Медеревец - ТП,A3,2320,Every day from 06:00 to 21:00,Delcevo,,,Mederevec TP,,limited,Mederevec TP,,,,,,,,
22.804392,41.967327,supermarket,Стрела Пром,Strela Prom,Стрела Пром,Кузманска,,Mo-Su 06:00-21:00,,,,,+38979202900,,,,,,,,,,
22.7799853,41.9680062,supermarket,Коста груп,Kosta group supermarket,Коста груп,,,,,,,,,,,,,,,,,,
22.9190506,41.3740068,supermarket,Supero,,,,,,,,,,,,,,,,,,,,
22.6294437,41.4384422,supermarket,Kit-go market,,Kit-go market,,,,,,,,,,,,,,,,,,
22.6470368,41.4263248,supermarket,,,,,,,,,,,,,,,,,,,,,
22.635881,41.4335847,supermarket,Djuli 2,,Djuli 2,,,,,,,,,,,,,,,,,,
22.6426896,41.4364848,supermarket,Zdavec strumica,,Zdavec strumica,,,,,,,,,,,,,,,,,,
22.6390034,41.4389708,department_store,Global Trade Center,,,,,,,,,,,,,,,,,,,,
22.6414839,41.4382823,supermarket,Tinex,,,,,,,,,,,,,,,,,,,,
22.6419646,41.43816,supermarket,Horizont,,,,,,,,,,,,,,,,,,,,
22.6442899,41.4317489,supermarket,Markator magacin,,Markator magacin,,,,,,,,,,,,,,,,,,
22.647951,41.4302406,supermarket,Kis 2,,Kis 2,,,,,,,,,,,,,,,,,,
22.6446147,41.4331994,supermarket,КИТГО Маркет,,,,,,,,,,,,,,,,,,,,
22.6519392,41.4324702,supermarket,Zdravec,,Zdravec,,,,,,,,,,,,,,,,,,
22.6444715,41.4385011,supermarket,Kisi market 1,,Kisi market 1,,,,,,,,,,,,,,,,,,
22.6595336,41.4401622,supermarket,Koda Magacin,,Koda Magacin,,,,,,,,,,,,,,,,,,
22.6335517,41.4422023,supermarket,Kis 4,,Kis 4,,,,,,,,,,,,,,,,,,
22.6391808,41.4406141,supermarket,,,,,,,,,,,,,,,,,,,,,
22.6408136,41.445272,supermarket,Zendolino 8 strumica,,Zendolino 8 strumica,Ленинова,,,,,,,,,,,,,,,,,
22.6485615,41.4409897,supermarket,Technomarket,,,,,,,,,,,,,,,,,,,,
22.6513455,41.4415567,supermarket,My Market,,,,,,,,,,,,,,,,,,,,
22.6513453,41.441659,supermarket,Kisi 5 market,,Kisi 5 market,,,,,,,,,,,,,,,,,,
22.6528305,41.4463225,supermarket,Roko 2000,,Roko 2000,,,,,,,,,,,,,,,,,,
22.811693,41.3811023,kiosk,,,,,,,,,,,,,,,,,,,,,
22.8153569,41.3812029,kiosk,Dana,,,,,,,,,,,,,,,,,,,,
22.8152228,41.3814283,kiosk,,,,,,,,,,,,,,,,,,,,,
20.6094306,41.3553915,supermarket,,,,,,,,,,,,,,,,,,,,,
20.7956761,41.1204424,department_store,Super market,,,Булевар Туристичка,,,,36,,,,,,,,,,,,,
22.8568015,41.7064092,supermarket,,,,,,,,,,,,,,,,,,,,,
22.1994144,41.7373008,supermarket,ХИТ Маркет,,ХИТ Маркет,,,,,,,,,,,,,,,,,,
22.1997569,41.7386458,supermarket,ХИТ Супермаркет,,,,,,,,,,,,,,,,,,,,
22.2004899,41.7385684,supermarket,КИТ ГО Супермаркет,,,,,,,,,,,,,,,,,,,,
22.1902158,41.7379576,supermarket,Грозделино,,,,,,,,,,,,,,,,,,,,
22.1921338,41.7393286,supermarket,Тер Маркет,Тера Маркет Промаја,Тера Маркет Промаја,Промаја,2000,"Mo-Sa 07:30-21:00; Su 08:00-15:00",,,,,,,,,,,,,,,
22.189931,41.7409827,supermarket,,,,,,Mo-Fr 09:00-19:00,,,,,,,,,,,,,,,
22.1918279,41.7434637,supermarket,,,,,,,,,,,,,,,,,,,,,
22.1910694,41.7463008,supermarket,Пакет Маркет 27,,,,,,,,,,,,,,,,,,,,
22.1816402,41.7356453,supermarket,,,,,,,,,,,,,,,,,,,,,
22.1864366,41.7472866,supermarket,Текома Магацин,,,,,,,,,,,,,,,,,,,,
22.1799554,41.751114,supermarket,KIT-GO Магацин,,,,,,,,,,,,,,,,,,,,
22.1752605,41.7567982,supermarket,Set Union Магацин Пакет Маркет,,Set Union Magacin Paket Stip,,,,,,,,,,,,,,,,,,
22.1761927,41.7569135,supermarket,Хит Маркет Магацин,,,,,,,,,,,,,,,,,,,,
20.810189,41.01764,supermarket,,,,,,,,,,,,,,,,,,,,,
20.8016076,41.0768608,supermarket,,,,,,,,,,,,,,,,,,,,,
20.8080334,41.1045087,kiosk,,,,,,,,,,,,,,,,,,,,,
20.8114425,41.1093692,supermarket,KAM Market,,,,,,,,,,,,,,,,,,,,
20.8127862,41.1096865,supermarket,Discount Tinex,,,,,,,,,,,,,,,,,,,,
20.8130481,41.1095503,supermarket,Tinex ohrid 2,Tinex ohrid 2,Tinex ohrid 2,,,,,,,,,,,,,,,,,,
20.8153273,41.1094377,supermarket,,Tamaro,,,,,,,,,,,,,,,,,,,
20.808771,41.11176,kiosk,,,,,,,,,,,,,,,,,,,,,
20.8103764,41.1119784,supermarket,,,,,,,,,,,,,,,,,,,,,
20.8092296,41.1127502,supermarket,,,,,,,,,,,,,,,,,,,,,
20.8144718,41.117125,supermarket,ВИПС,VIPS SUPERMARKET,ВИПС,Марко Цепенков,6000,Mo-Su 06:00-22:00,,1,,,046266230,,,,,,doo.vips@gmail.com,,,,
20.8141538,41.1177316,supermarket,Marando ohrid,Marando ohrid,Marando ohrid,,,,,,,,,,,,,,,,,,
20.8223449,41.121722,supermarket,Don Market,,,Ристо Чадо,6000,,Охрид,,,,,,,,,,,,,,
20.81112,41.12286,supermarket,Tinex,,,7 Ноември,,,,,,,,,,,,,,,,,
20.7815067,41.1219875,supermarket,Tamaro,,Tamaro,Сатеска,6000,,Ohrid,,,,,,,,,,,,,,
20.7829591,41.1232307,supermarket,Skor,,Шкор,Гоце Делчев,6000,08:00-02:00,Ohrid,,,,,limited,,,,,,,,,
22.1881355,41.7356982,supermarket,ХИТ Маркет,,ХИТ Маркет,,,,,,,,,,,,,,,,,,
22.1920509,41.7368407,supermarket,Тинекс,,,,,,,,,,,,,,,,,,,,
22.1927503,41.7369788,supermarket,ХИТ Маркет,,,,,,,,,,,,,,,,,,,,
22.1931572,41.7371532,supermarket,KAM,,,,,,,,,,,,,,,,,,,,
22.1941597,41.7344453,supermarket,БоБи,,БоБи,,,,,,,,,,,,,,,,,,
22.1970957,41.7345921,supermarket,,,,,,,,,,,,,,,,,,,,,
22.1965503,41.7366609,supermarket,,,,,,,,,,,,,,,,,,,,,
22.198854,41.7354588,supermarket,КИТ-ГО,,КИД-ГО,,2000,,,,,,,,,,,,,,,,
20.6117918,41.2633703,department_store,Fej-Daf kompani (magacin),Fej-Daf kompani (magacin) labu,Fej-Daf kompani (magacin),labuništa,6336,Sa-Th 07:00-19:00,,,,Flamur Fejzuloski,070232180,,,,,,,,,,
20.5958701,41.2683315,supermarket,Нуредини 2016 (2),Nuredini 2016 (2),Нуредини 2016 (2),,,Mo-Su 08:00-22:00,,,,,,,,,,,,,,,
20.5948705,41.2690711,supermarket,Нуредини 2016,Nuredini 2016,Нуредини 2016,,,,,,,,,,,,,,,,,,
20.6507625,41.1507147,supermarket,Market E-Komerc,,,,,,,,,,,,,,,,,,,,
20.6830475,41.1738364,supermarket,,,,,,,,,,,,,,,,,,,,,
20.6700275,41.1769513,supermarket,Ramstore struga marshal tito,Ramstor struga marshal tito,Ramstore struga marshal tito,,,,,,,,,,,,,,,,,,
20.6725904,41.1770395,supermarket,KAM Stores,,,,,,,,http://kam.com.mk,,,,,,,,,,,,
20.6724827,41.1841703,supermarket,GEGA STRUGA,GEGA STRUGA,GEGA STRUGA,,,,,,,,,,,,,,,,,,
20.6775173,41.180146,supermarket,Tinex struga,Tinex struga,Tinex struga,,,,,,,,,,,,,,,,,,
20.6788926,41.1815124,supermarket,Балкопром,,,,,,,,,,,,,,,,,,,,
20.6807065,41.1810013,supermarket,Tinex struga 1,Tinex struga 1,Tinex struga 1,,,,,,,,,,,,,,,,,,
20.680569,41.1810562,supermarket,Тинекс,,,,,,,,,,,,,,,,,,,,
21.3311181,41.3368744,supermarket,IGA Market,,,Маршал Тито,,Mo-Su 07:00-22:00,,,,,,,,,,,,,,,
21.5390029,41.3387449,supermarket,Viktorija tabako magacin,,Viktorija tabako magacin,,,,,,,,,,,,,,,,,,
21.5400419,41.3384652,supermarket,Aliansa,,Aliansa,,,,,,,,,,,,,,,,,,
21.5587427,41.3386149,supermarket,Zito market,,Zito market,,,,,,,,,,,,,,,,,,
20.9745375,41.8379549,supermarket,Вали Маркет,,,,,,,,,,,,,,,,,,,,
20.9771116,41.8428299,supermarket,Хаџи Кемо,,,,,,,,,,,,,,,,,,,,
20.9771137,41.842915,supermarket,Nusreti Magjik,,,,,,,,,,,,,,,,,,,,
21.5490679,41.3502361,supermarket,Fotura 13,,Fotura 13,,,,,,,,,,,,,,,,,,
21.1759614,41.2327283,supermarket,Supermarket,,,,,,,,,,,,,,,,,,,,
21.3012831,41.0318267,supermarket,Market Andzhela,,,Социјалистичка Револуција,7000,,Битола,,,,,,,,,,,,,,
21.3089047,41.02582,supermarket,MARKET IN,,,Тодор Паница,7000,,,11,,IVA PARTNER,,,IVA PARTNER,,,,,,,,
21.3413952,41.0196161,supermarket,,,,,,,,,,,,,,,,,,,,,
21.3211694,41.024414,supermarket,БАДО,BADO,БАДО,Партизанска,,,,,,,,,,,,,,,,,
21.3228577,41.0320861,supermarket,BEKOM,,,,,,,,,,,,,,,,,,,,
21.3251151,41.0235893,supermarket,ШИК,SHIK,ШИК,Партизанска,,,,,,,,,,,,,,,,,
21.3323992,41.025063,supermarket,Сезам,Sezam,Сезам,Солунска,,,,,,,,,,,,,,,,,
21.3294655,41.0300125,supermarket,ШИК,SHIK,ШИК,Цар Самоил,,,,,,,,,,,,,,,,,
21.3366299,41.0255458,department_store,Cinnamon,,,,,,,,,,,,,,,,,,,,
21.3368232,41.0251856,department_store,Антика,,,,,,,,,,,,,,,,,,,,
21.3437147,41.0158544,supermarket,Беком,Bekom,,,,,,,,,,,,,,,,,,,
21.0080887,41.0847569,kiosk,MitOil,,,,,,,,,Indipend.,,,,,,,,,,fuel,
21.0133908,41.0852775,supermarket,Мицале,Micale,,,,,,,,,,,,,,,,,,,
21.0134783,41.0852468,supermarket,Нов Пазар,New Bazzar,,,,,,,,,,,,,,,,,,,
21.0151314,41.0857428,supermarket,KAM market,,,,,,,,,,,,,,,,,,,,
21.0129214,41.0867663,supermarket,Пазар Ресен,Pazar Resen,Пазар Ресен,,,,,,,,,,,,,,,,,,
21.0230743,41.0830492,kiosk,Макпетрол,Makpetrol,,,,24/7,,,,,,,Makpetrol,,,,,,,fuel,
21.0114252,41.0890885,supermarket,Стар пазар,Old Bazzar,,,,,,,,,,,,,,,,,,,
21.0135953,41.0906153,supermarket,Свислион продавнива,Swisslion Supermarket,,,,,,,,,,,,,,,,,,,
21.0117196,41.0977968,kiosk,Макпетрол,Makpetrol,,,,,,,,,,,Makpetrol,,,,,,,fuel,
20.8603725,41.8782782,supermarket,Маркет,Grocery store,Маркет,,,Mo-Su 09:00-21:00,,,,,,,,Market,,,,,,,
20.9521843,41.5083266,supermarket,Maxi Market,,,,,,,,,,,,,,,,,,,,
20.9511304,41.5115584,supermarket,Atva,,,,,,,,,,+389 45 224 224,,,,,,,,,,
20.9541829,41.5126099,supermarket,,,,,,,,,,,,,,,,,,,,,
20.9563275,41.5128954,kiosk,,,,,,,,,,,,,,,,,,,,,
20.9554181,41.5142492,supermarket,,,,,,,,,,,,,,,,,,,,,
20.95877,41.5119479,kiosk,,,,,,,,,,,,,,,,,,,,,
20.958465,41.5126642,kiosk,,,,,,,,,,,,,,,,,,,,,
20.9597008,41.5138358,supermarket,,,,,,,,,,,,,,,,,,,,,
20.9617477,41.5194929,supermarket,Dukla kicevo,Dukla kicevo,Dukla kicevo,,,,,,,,,,,,,,,,,,
20.9870186,41.4888751,supermarket,,,,,,,,,,,,,,,,,,,,,
20.9870902,41.4889472,supermarket,,,,,,,,,,,,,,,,,,,,,
20.9627409,41.5126349,supermarket,Ramstore,,,,,Mo-Fr 08:00-22:00,,,,,,no,,,,,,,,,
20.9077023,41.7907152,supermarket,Kultura gostivar,Kultura gostivar,Kultura gostivar,,,,,,,,,,,,,,,,,,
20.907855,41.79495,supermarket,boss,,,braka,123,,,1230,,,,,,,,,,boss,,,
21.3165363,41.8005071,kiosk,They do not sell beer here!,,,,,,,,,,,,,,,,,,,,
20.8957656,41.7948862,supermarket,,ETC,,ЈНА,1230,,,318,,,,,,,,,,,,,
20.8840178,41.8300832,supermarket,SELO,,,,,,,,,,,,,,,,,,,,
20.8856596,41.8398833,supermarket,Kiper,,,,,,,,,,,,,,,,,,,,
20.8857735,41.8411753,supermarket,IDEAL,,,,,,,,,,,,,,,,,,,,
20.9153603,41.9223711,supermarket,Кипер,Kiper,,102,1220,Mo-Sa 07:00-22:00,,,,,,,,Kiper,,,,,,,
21.7058314,42.139421,supermarket,STC Supermarket 1,,,,,,,,,,,,,,,,,,,,
21.7077221,42.1386079,supermarket,STC Supermarket 2,,,,,,,,,,,,,,,,,,,,
21.7316379,42.1186471,supermarket,Kima kumanovo,Kima kumanovo,Kima kumanovo,,,,,,,,,,,,,,,,,,
21.7318363,42.1202041,supermarket,Super Srk,,,,,,,,,,,,,,,,,,,,
21.7334993,42.1210556,supermarket,Paket Market,,,,,,,,,,,,,,,,,,,,
21.7171816,42.1298987,supermarket,Goran daniel kumanovo,Goran daniel kumanovo,Goran daniel kumanovo,,,,,,,,,,,,,,,,,,
21.7166312,42.130618,supermarket,Kane kumanovo,Kane kumanovo,Kane kumanovo,,,,,,,,,,,,,,,,,,
21.7295036,42.1244911,supermarket,Mar-bo kumanovo,Mar-bo kumanovo,Mar-bo kumanovo,,,,,,,,,,,,,,,,,,
21.7187075,42.135562,supermarket,Tinex kumanovo,Tinex kumanovo,Tinex kumanovo,,,,,,,,,,,,,,,,,,
21.7192467,42.1364753,kiosk,Трафика,Kiosk,,Leninova,,,,,,,,,,,,,,,,,
21.7280094,42.1336226,supermarket,Kjosar,,,,,,,,,,,,,,,,,,,,
21.7283162,42.1328773,supermarket,Elida,,,,,,,,,,,,,,,,,,,,
21.7272851,42.1371766,supermarket,КАМ,,,,,,,,,,,,KAM,,,,,,,,
21.7248163,42.1388936,supermarket,Му Маркет,,,,,,,,,,,,My Market,,,,,,,,
21.7350929,42.1330452,supermarket,Тинекс,,,,,,,,,,,,Tineks,,,,,,,,
21.7318897,42.1388559,supermarket,Steki prom kumanovo,Steki prom kumanovo,Steki prom kumanovo,,,,,,,,,,,,,,,,,,
21.7555938,42.1060671,supermarket,Nami kom kumanovo,Nami kom kumqnovo,Nami kom kumanovo,,,,,,,,,,,,,,,,,,
21.7414395,42.1448318,supermarket,Centrobiznis 3 kumanovo,Centrobiznis 3 kumanovo,Centrobiznis 3 kumanovo,,,,,,,,,,,,,,,,,,
21.7333698,42.1558735,supermarket,Centrobiznis 2 kumanovo,Centrobiznis 2 kumanovo,Centrobiznis 2 kumanovo,,,,,,,,,,,,,,,,,,
21.7348131,42.1576319,supermarket,Stef kri kumanovo,Stef kri kumanovo,Stef kri kumanovo,,,,,,,,,,,,,,,,,,
21.742493,42.1581571,supermarket,Centrobiznis 1 kumanovo,Centrobiznis 1 kumanovo,Centrobiznis 1 kumanovo,,,,,,,,,,,,,,,,,,
21.449974,42.0528304,supermarket,Орашец,,,,,,,,,,,,,,,,,,,,
21.4512558,42.0560288,supermarket,Кам Маркет,,Кам Маркет,Радишанска,,,,,,,,,,,,,,,,,
22.5901778,42.0226888,kiosk,Kiosque,,,,,,,,,,,,,,,,,,,,
21.411176,41.9903083,supermarket,Tinex,,,,,,,,,,,,,,,,,,,,
21.4119116,41.9967281,supermarket,,,,,,,,,,,,,,,,,,,,,
21.4137932,41.9944797,kiosk,,,,,,,,,,,,,,,,,,,,,
21.4149954,41.9984569,supermarket,,,,,,,,,,,,,,,,,,,,,
21.4129384,41.9994288,supermarket,,,,,,,,,,,,,,,,,,,,,
21.4126908,42.0004371,supermarket,,,,,,,,,,,,,,,,,,,,,
21.4154047,42.003633,supermarket,Рептил маркет,Reptil Market,,,1000,07:00 - 21:30,Cкoпje,,,,,,,,,,,,,,
21.2883984,42.1584766,supermarket,Alba market,,,,,,,,,,,,,,,,,,,,
21.2960705,42.1453835,supermarket,Hit market,,,,,,,,,,,,,,,,,,,,
21.3003579,42.1488866,supermarket,Shell,,,,,,,,,,,,,,,,,,,,
21.2965102,42.150372,supermarket,NTP Atlas,,,,,,,,,,,,,,,,,,,,
21.298663,42.150401,supermarket,Luta,,,,,,,,,,,,,,,,,,,,
21.298336,42.1510536,supermarket,Gimi,,,,,,,,,,,,,,,,,,,,
21.2980138,42.1511208,supermarket,NTP Besa,,,,,,,,,,,,,,,,,,,,
21.1170108,42.0530902,supermarket,heppi dmj,,,,,,,,,,,,,,,,,,,,
21.4555908,41.0416367,supermarket,,,,,,,,,,,,,,,,,,,,,
21.2162734,41.5131208,supermarket,Александрија,Alexandria,,,,,,,,,,,,,,,,,,,
21.2164115,41.5139095,supermarket,Filipos,,,,,,,,,,,,,,,,,,,,
21.9247836,41.4879815,supermarket,,,,,,,,,,,,,,,,,,,,,
22.7795045,41.9700177,supermarket,Коста груп,Kosta group supermarket,Коста груп,,,,,,,,,,,,,,,,,,
22.7774987,41.971385,supermarket,Кит-Го Супермаркет,Kit-go Supermarket,Кит-Го маркет,,,,,,,,,,,,,,,,,,
22.7820669,41.9694518,supermarket,Космос,Kosmos supermarket,Космос,,,,,,,,,,,,,,,,,,
22.7828039,41.9697285,supermarket,Бисер,Biser supermarket,,,,,,,,,,,,,,,,,,,
21.4533122,41.974857,supermarket,Супер Тинекс,Super Tinex,,,,,,,,,,,Super Tineks,,,,,,,,
21.4722684,41.9720378,supermarket,ЗУР Маркет,,,,,,,,,,,,,,,,,,,,
21.4835448,41.9772072,supermarket,Јовче,,,,,,,,,,,,,,,,,,,,
21.4851324,41.9781331,supermarket,Бина,,,,,,,,,,,,,,,,,,,,
21.3941797,41.9953658,kiosk,,,,,,,,,,,,,,,,,,,,,
21.3914204,42.0017143,supermarket,Кам маркет Тафталиџе,Kam Market Taftalidze,,Лондонска,1000,"Mo-Sa 07:30-21:30; Su 07:30-16:00",Скопје,бб,http://www.kam.com.mk,,+389 2 3074733,yes,,,,,,,Londonska,,
21.4394478,41.9993948,supermarket,,,,,,,,,,,,,,,,,,,,,
21.5033827,42.0046326,supermarket,Жито Маркет,,,,,,,,,,,,,,,,,,,,
21.5104508,42.011324,supermarket,Рептил,,,Методија Андонов Ченто,1000,Mo-Sa 07:00-22:00,Скопје,,,,,,,,,,,,,,
21.5139779,42.0277156,supermarket,Грогос,Grigos,Грогос,,,,,,,,,,,,,,,,,,
21.4757273,41.9984456,supermarket,Stokomak Magacin,,Stokomak Magacin,,,,,,,,,,,,,,,,,,
21.4807491,41.9924494,department_store,Бранко Гапо,,,,,,,,,,,,,,,,,,,,
21.4808389,41.9936664,department_store,Боми 10,,,,,,,,,,,,,,,,,,,,
21.4816036,41.9930299,department_store,24 Вести,,,,,,,,,,,,,,,,,,,,
21.482026,41.993612,department_store,Интерфуд,,,,,,,,,,,,,,,,,,,,
21.4826856,41.992571,department_store,МКД,,,,,,,,,,,,,,,,,,,,
21.4838961,41.9916124,department_store,Боми 10 Сервис,,,,,,,,,,,,,,,,,,,,
21.483821,41.9973587,supermarket,Електрометал,Elektrometal,,Перо Наков,1000,Mo-Sa 08:00-21:00,,,http://www.elektroelement.com.mk,,,,,,,,,,,,
21.4623331,42.0026311,supermarket,КАМ Маркет,,,,,,,,,,,,,,,,,,,,
21.4649053,42.0018777,kiosk,,,,,,,,,,,,,,,,,,,,,
21.4610918,42.0110894,supermarket,Zito zelezara,,Zito zelezara,,,,,,,,,,,,,,,,,,
21.4649937,41.9839638,supermarket,Пазарче,,,,,,,,,,,,,,,,,,,,
21.4674517,41.9854287,supermarket,Кам Маркет,Kam Market,Кам Маркет,Јане Сандански,1000,,,79А,,,,,,,,,,,,,
21.4675141,41.9866616,supermarket,Жито Маркет,Zhito Market,Жито Маркет,,,,,,,Тедико,,,,,,,,,,,
21.4691912,41.9898103,supermarket,M Market,,,Булевар Асном,1000,,,,,,,,,,,,,,,,
21.4410582,42.0200283,department_store,,,,Ресенска,,,,3,,,,,,,,,,,,,
21.4416628,42.0248127,supermarket,Кам Маркет,,,,,,,,,,,,,,,,,,,,
21.4383256,41.9813069,supermarket,Рептил,,,,,,,,,,,,,,,,,,,,
21.4403011,41.9823773,supermarket,Веро,Vero,,,,,,,,,,,,,,,,,,,
21.4439477,41.9817349,supermarket,KAM,,,,,,,,,,,,,,,,,,,,
21.4414652,41.9930392,supermarket,Веро 9,Vero 9,,Koco Racin,1000,09:00-22:00,Cкoпje,1,https://vero.com.mk/Marketi/Vero9,Веро,+389 2 3088400,yes,,,,MK,,,,,
21.441556,41.993327,supermarket,DM,,,,,,,,,,,,,,,,,,,,
20.9251687,41.9424416,supermarket,Saufa,Saufa,Saufa,,,,,,,,,,,Saufa,,,,,,,
20.9269285,41.9411401,supermarket,Market Beni,Market Beni,Market Beni,101,1221,,,,,,,,,Market Beni,,,,,,,
20.9278787,41.9428509,supermarket,Daman,Daman,Daman,101,,,,,,,,,,Daman,,,,,,,
20.9297959,41.948539,supermarket,Jeta e Re,Jeta e Re,Jeta e Re,,,,,,,,,,,Jeta e Re,,,,,,,
22.3361083,42.2071017,supermarket,Paket Market / Пакет Маркет,,,Свети Јоаким Осоговски,1330,,Kriva Palanka,,,,,,,,,,,,,,
22.3109725,42.1924425,supermarket,КАМ Маркет,KAM Market,,Свети Јоаким Осоговски,1330,Mo-Su 09:00-22:00,,,http://kam.com.mk,Живко Камчев,,,,,,,,,,,
22.3133431,42.1932292,supermarket,Боде,,,Свети Јоаким Осоговски,1330,,Крива Паланка,,,,,,,,,,,,,,
22.3297009,42.201126,supermarket,BE Market,,,,,,,,,,,,,,,,,,,,
22.3328574,42.1999647,supermarket,пакет маркет,,,Sveti Joakim Osogovski,1330,,Крива Паланка,,,,,,,,,,,,,,
22.3345615,42.2017976,mall,Железара БЕ-ЕН,,,Јоаким Осоговски,,Mo-Sa 09:00-18:00,,,,,,,,,,,,,,,
22.3354896,42.2051708,supermarket,Antiva k.palamka,Antiva k.palanka,Antiva k.palamka,,,,,,,,,,,,,,,,,,
22.3360401,42.2054613,supermarket,Zegin Healty Food,,,Свети Јоаким Осоговски,1330,,Kriva Palanka,,,,,,,,,,,,,,
21.4350123,42.0197651,supermarket,Prince,,,,,,,,,,,,,,,,,,,,
21.4371996,42.0236333,supermarket,Кипер Маркет,,,Боро Менков,,,,10,,,,,,,,,,,,,
21.4371972,42.0239903,supermarket,Стоко Мак,,,Боро Менков,,,,10,,,,,,,,,,,,,
20.7956734,41.1191635,supermarket,KAM Supermarket,KAM Supermarket,KAM Supermarket,,,,,,,,,,,,,,,,,,
20.7998326,41.1130654,supermarket,Ramstore,,,,,,,,,,,,,,,,,,,,
20.7999894,41.1132251,supermarket,Tinex,,,,,,,,,,,,,,,,,,,,
20.8005859,41.1159611,supermarket,TOP Market,,,,,"Mo-Su,PH 08:00-22:00",,,,,,,,,,,,,,,
20.7980605,41.1171328,supermarket,DON,,,,,,,,,,,,,,,,,,,,
20.798291,41.119101,supermarket,,Tamaro,,,,,,,,,,,,,,,,,,,
20.7362141,41.6504797,supermarket,Лазе,,,,,,,,,,,,,,,,,,,,
20.7337561,41.6613792,supermarket,Аце,,,,,,,,,,,,,,,,,,,,
20.7317077,41.6691868,supermarket,,,,,,,,,,,,,,,,,,,,,
20.6888648,41.7100279,supermarket,,,,,,,,,,,,,,,,,,,,,
20.7571924,41.7017221,supermarket,Маркет Кај Петко,,,,,,,,,,,,,,,,,,,,
20.7576254,41.7020962,supermarket,Pomahop Kom,,Pomahop Kom,,,,,,,,,,,,,,,,,,
20.7577966,41.7023099,supermarket,,,,,,,,,,,,,,,,,,,,,
20.7578797,41.702473,supermarket,,,,,,,,,,,,,,,,,,,,,
21.4345769,41.9947502,supermarket,Веро 7,Vero 7,,Кеј 13 Ноември,1000,08:00-22:00,Cкoпje,,https://vero.com.mk/Marketi/Vero7,Веро,+389 2 3232640,yes,,,,MK,,Gradski Trgovski Centar (GTC),Kej 13 Noemvri,,-1
21.4365241,42.0007151,supermarket,,corner shop,,,,,,,,,,,,,,,,,,,
21.4365741,42.0017435,department_store,,,,,,,,,,,,,,,,,,,,,
21.4282631,41.9888431,supermarket,Кам Маркет,,,,,,,,,,,,,,,,,,,,
21.4259798,42.0011184,supermarket,,,,,,,,,,,,,,,,,,,,,
21.4323628,41.9810056,supermarket,Кам Маркет,,,,,,,,,КАМ,,,,,,,,,,,
21.4306785,41.9867649,supermarket,Market Polo,,,,,,,,,,,,,,,,,,,,
21.4323528,41.9896032,supermarket,TINEX,,,,,,,,,,,,,,,,,,,,0
21.4348211,41.9823867,kiosk,,,,,,,,,,,,,,,,,,,,,
21.4364415,41.988735,supermarket,,,,,,,,,,,,,,,,,,,,,
21.4371416,41.9914679,kiosk,,,,,,,,,,,,,,,,,,,,,
21.4370214,41.9925332,supermarket,Tinex,,,,,,,,,,,,,,,,,,,,
21.3610348,42.0094581,department_store,PAMS Shoe Store 1,,,,,,,,http://www.pams.mk,,,,,,,,,,,,
21.3634616,42.0070862,supermarket,Тинекс Ѓорче Петров,,,Булевар Ѓорче Петров,1000,"Mo-Sa 08:00-22:00; Su 08:00-20:00",,10,http://tinex.com.mk,TINEX,+389 2 2045680,,,,,,,,,,
21.3649348,42.0068279,supermarket,SP Planet,,,,,,,,,,,,,,,,,,,,
21.3704929,42.0075655,supermarket,Reptil,,,,,,,,,,,,,,,,,,,,
21.356581,42.0197432,supermarket,Market Kiki,,,,,,,,,,,,,,,,,,,,
21.350659,42.0245187,supermarket,Кам,Kam,,Волковска,,,,,http://kam.com.mk/,,+38923171747,,,,,,,,,,
21.4357477,42.0129113,supermarket,,,,Џон Кенеди,,,,,,,,,,,,,,,,marketplace,
21.4559686,41.9879681,supermarket,Ramstore,,,,,,,,,,,,,,,,,,,,
21.4548174,41.9897519,supermarket,Тинекс,,,,,,,,,,,,,,,,,,,,
21.4266878,41.9919017,supermarket,Рамстор,Ramstore Supermarket,,,,Mo-Su 08:00-22:00,,,,,,,,,,,,,,,
21.428608,41.9935136,supermarket,Деликатесен Тинекс,Delicatessen Tinex,,,,Mo-Su 08:00-22:00,,,https://www.facebook.com/DelicatessenTinex/,,,,,,,,,,,,
21.4276669,41.9964763,supermarket,Тинекс центар 2,,,,,"Mo-Sa 08:00-23:00; Su 08:00-20:00",,,,,,,,,,,,,,,
21.3989021,42.0034268,supermarket,КОСМО Тинекс,,,,,,,,,,,,,,,,,,,,
21.3994436,42.0037317,kiosk,,,,,,,,,,,,,,,,,,,,,
21.4001181,42.0068382,supermarket,Granap 1,,Granap 1,,,,,,,,,,,,,,,,,,
21.4718709,41.980756,supermarket,ЗУР Маркет,,ЗУР маркет,,1000,Mo-Su 10:00-22:00,,,,,,,,,,,,,,,
21.4751092,41.9799627,department_store,Базаро,Bazaro,Базаро,,,,,,,,,,,,,,,,,,
21.4752182,41.9798044,supermarket,,,,,,,,,,,,,,,,,,,,,
21.4752382,41.9801204,supermarket,Рептил Маркет,Reptil Market,,Булевар Видое Смилевски Бато,1000,,Skopje,бб,,,,,,,,,,,,,
21.4764231,41.9794894,supermarket,Рамстор,,,,,,,,,,,,,,,,,,,,
21.4688286,41.9845218,supermarket,Веро,,,,,,,,,,,,,,,,,,,,
21.4781599,41.9865793,supermarket,,,,,,,,,,,,,,,,,,,,,
21.4838698,41.9844445,supermarket,Рамстор,,,,,,,,,,,,,,,,,,,,
21.4030546,42.0002255,supermarket,ВИНТ дооел,Vint dooel,,Варшавска,1000,Mo-Fr 08:00-19:00,Cкoпje,4,http://vint.com.mk,,+389 2 2440 162,,,,,,info@vint.com.mk,,,,
21.4326551,41.9761138,supermarket,,,,,,,,,,,,,,,,,,,,,
21.4447803,41.9761657,supermarket,Гранап,Granap,Гранап,,1000,Mo-Su 08:00-22:00,,,,,,,,,,,,,,,
22.1883931,41.992143,supermarket,Boston probistip,Boston probistip,Boston probistip,,,,,,,,,,,,,,,,,,
21.4121462,42.0005257,supermarket,Рептил,Reptil,Рептил,,,,,,,,,,,,,,,,,,
21.4111987,42.0056203,supermarket,Granap Market,,,,,,,,,,,,,,,,,,,,
22.462735,41.632422,supermarket,Kit Go,,,,,,,,,,,yes,,,,,,,,,
22.464756,41.633188,supermarket,Sloga,,,,,,,,,,,,,,yes,,,,,,
22.464931,41.63324,supermarket,Kam,,,,,,,,,,,,,,no,,,,,,
22.46471,41.634405,supermarket,Makom,,,,,,,,,,,,,,,,,,,,
22.466431,41.635403,supermarket,Kit Go,,,,2420,,Radovis,,,,,yes,,,no,MK,,,,,
22.463585,41.63606,supermarket,Paket market,,,,2420,,Radovis,,,,,no,,,no,MK,,,,,
22.463881,41.635634,supermarket,,,,,,,,,,,,,,,,,,,,,
22.463968,41.635537,supermarket,,,,,,,,,,,,,,,,,,,,,
22.463402,41.636563,supermarket,,,,,,,,,,,,,,,,,,,,,
22.462499,41.637023,supermarket,,,,,,,,,,,,,,,,,,,,,
22.461591,41.637992,supermarket,Rial,,,,,,,,,,,,,,,,,,,,
22.464258,41.637826,supermarket,Makom,,,,2420,,Radovis,,,,,yes,,,no,MK,,,,,
22.4745101,41.632333,supermarket,Paket market 30,,Paket market 30,,,,,,,,,,,,,,,,,,
22.472825,41.637872,supermarket,,,,,,,,,,,,,,,,,,,,,
22.4600772,41.6388824,supermarket,Kit-Go 5 Market,,Kit-Go 5 Market,,,,,,,,,,,,,,,,,,
22.4630364,41.6393884,supermarket,Kit Go,,,,2420,,Radovis,,,,,yes,,,no,MK,,,,,
22.0923577,41.4874572,supermarket,Супермаркет Дијана,,,,,,,,,,,,Supermarket Dijana,,,,,,,,
22.1994658,41.7448996,supermarket,АДА Маркет,,,ratko jovanovik,,,,,,,,,,,,,,,,,
22.1989152,41.7490662,supermarket,nada merkur,,,,,,,,,,,,,,,,,,,,
22.2063963,41.7527176,supermarket,Trakom Market Duzlak Stip,,,,,,,,,,,,,,,,,,,,
22.2036689,41.7813247,supermarket,Set union Karaorman,,Set union Karaorman,,,,,,,,,,,,,,,,,,
22.2035493,41.804951,supermarket,,,,,,,,,,,,,,,,,,,,,
22.3865111,41.9035531,supermarket,Top bazar kocani,Top bazar kocani,Top bazar kocani,,,,,,,,,,,,,,,,,,
22.4117851,41.9145932,kiosk,,,,,,,,,,,,,,,,,,,,,
22.4118654,41.9148547,kiosk,,,,,,,,,,,,,,,,,,,,,
22.4103982,41.918086,supermarket,Hipo,,,,,,,,,,,,,,,,,,,,
22.4098806,41.9226323,supermarket,Zito Market,,,,,,,,,,,,,,,,,,,,
22.5004347,41.8866184,supermarket,Mak Progres,,,,,,,,,,,,,,,,,,,,
22.5041576,41.8853963,supermarket,Zito,,,,,,,,,,,,,,,,,,,,
21.4150189,41.993152,kiosk,,,,,,,,,,,,,,,,,,,,,
21.4159259,41.993198,supermarket,Gramofon Vinyl Macedonia Makedonija,,,Васил Ѓоргов,1000,Mo-Sa 12:00-20:00,Cкoпje,BB,,ZEC Electronics,,,,,,,,,,,
21.5492167,41.3414029,supermarket,Пата,Pata,,,,,,,,,,,,,,,,,,,
21.5507134,41.3441972,supermarket,КАМ,,,,,,,,,,,,,,,,,,,,
21.5508426,41.3446569,supermarket,Tinex,,,Гоце Делчев,,,,,,,,,,,,,,,,,
22.1959542,41.7384118,supermarket,Зендолино,,,,,,,,,,,,,,,,,,,,
22.1984795,41.7416455,supermarket,КАМ,,КАМ,,,,,,,,,,,,,,,,,,
22.0148515,41.4227366,supermarket,Dijana,,,,,,,,,,,,,,,,,,,,
22.0115983,41.4333208,supermarket,Kit-go market,,,Plostad,,,,,,,,,,,,,,,,,
22.0116689,41.4332966,supermarket,MaxiD,,,,,,,,,,,,,,,,,,,,
22.0125082,41.4336677,supermarket,Tinex,,,,,,,,,,,,,,,,,,,,
22.0107461,41.4377707,supermarket,MA-GO Prom,,,Илинденска,1430,"Mo-Sa 06:00-22:00; Su 06:00-22:00",,78,,,,,,,,,magoprom@yahoo.com,,,,
22.010536,41.4390428,supermarket,KAM City,,,,,,,,,,,,,,,,,,,,
22.0089787,41.4394773,supermarket,DTS Market  Silvana & Dobri,,,,,,,,,,,,,,,,,,,,
22.009204,41.439429,supermarket,Bako&Stojna,,,,,,,,,,,,,,,,,,,,
22.0098397,41.439984,supermarket,TD,,,,,,,,,,,,,,,,,,,,
22.0104271,41.4409129,supermarket,TD - supermarket,,,,,,,,,,,,,,,,,,,,
22.010596,41.4413205,supermarket,Diana 8,Diana 8,Diana 8,,,,,,,,,,,,,,,,,,
22.0106513,41.4413948,supermarket,Dijana,,Dijana,,,,,,,,,,,,,,,,,,
21.7580183,41.704854,supermarket,,,,,,,,,,,,,,,,,,,,,
21.7658016,41.7143048,supermarket,Pet Shop K-M br.1,,,,,,,,,,,,,,,,,,,,
21.761961,41.7175431,supermarket,Туш,,,,,,,,,,,,,,,,,,,,
21.7836811,41.7165792,supermarket,Pet Shop K-M  br.2,,,,,,,,,,,,,,,,,,,,
